{"version": 0.6, "generator": "Overpass API 0.7.61.5 4133829e", "osm3s": {"timestamp_osm_base": "2024-03-01T16:50:01Z", "copyright": "The data included in this document is from www.openstreetmap.org. The data is made available under ODbL."}, "elements": [{"type": "node", "id": 1288521180, "lat": 37.2715146, "lon": -107.8838421, "tags": {"amenity": "restaurant", "brand": "Denny's", "brand:wikidata": "Q1189695", "cuisine": "american", "name": "Denny's"}}, {"type": "node", "id": 1288521219, "lat": 37.2700339, "lon": -107.8830118}, {"type": "node", "id": 1288521253, "lat": 37.2694947, "lon": -107.8822337, "tags": {"amenity": "restaurant", "cuisine": "thai", "name": "Sizzling Siam"}}, {"type": "node", "id": 1301314938, "lat": 37.270017, "lon": -107.880548}, {"type": "node", "id": 1301314950, "lat": 37.27154, "lon": -107.8845128, "tags": {"amenity": "restaurant", "cuisine": "mexican", "name": "Cocina Linda"}}, {"type": "node", "id": 1301314958, "lat": 37.2697377, "lon": -107.881723, "tags": {"addr:city": "Durango", "addr:housenumber": "558", "addr:postcode": "81301", "addr:state": "CO", "addr:street": "Main Avenue", "amenity": "cafe", "internet_access": "wlan", "name": "Mountain Monk Coffee", "opening_hours": "Mo-Su 09:00-20:00", "website": "https://mountainmonkcoffee.com", "wheelchair": "yes"}}, {"type": "node", "id": 1301314960, "lat": 37.2711165, "lon": -107.8856601, "tags": {"amenity": "restaurant", "cuisine": "steak_house", "name": "Ore House"}}, {"type": "node", "id": 1301314961, "lat": 37.2724515, "lon": -107.880148}, {"type": "node", "id": 2959348989, "lat": 37.231336, "lon": -107.866892, "tags": {"addr:housenumber": "1145", "addr:postcode": "81303", "addr:street": "S Camino Del Rio", "amenity": "fast_food", "brand": "Subway", "brand:wikidata": "Q244457", "cuisine": "sandwich", "name": "Subway", "website": "https://restaurants.subway.com/united-states/co/durango/1145-s-cammino-del-rio-blvd"}}, {"type": "node", "id": 3042563705, "lat": 37.2722519, "lon": -107.8802137}, {"type": "node", "id": 3042563706, "lat": 37.272169, "lon": -107.8798262}, {"type": "node", "id": 3042563707, "lat": 37.2723659, "lon": -107.8797545}, {"type": "node", "id": 3042564121, "lat": 37.2702275, "lon": -107.8831205}, {"type": "node", "id": 3042564122, "lat": 37.2699504, "lon": -107.8832108}, {"type": "node", "id": 3042564123, "lat": 37.2699227, "lon": -107.8830484}, {"type": "node", "id": 3042564124, "lat": 37.2699673, "lon": -107.8830307}, {"type": "node", "id": 3042564125, "lat": 37.2699565, "lon": -107.8829841}, {"type": "node", "id": 3042564126, "lat": 37.2700251, "lon": -107.8829629}, {"type": "node", "id": 3042564128, "lat": 37.2702002, "lon": -107.8829586}, {"type": "node", "id": 3094959429, "lat": 37.2705769, "lon": -107.8818532, "tags": {"amenity": "restaurant", "name": "Francisco's", "wheelchair": "limited"}}, {"type": "node", "id": 3487821944, "lat": 37.2697802, "lon": -107.8810542, "tags": {"addr:city": "Durango", "addr:housenumber": "128", "addr:postcode": "81301", "addr:state": "CO", "addr:street": "East College Drive", "amenity": "restaurant", "cuisine": "chicken", "name": "Cuckoo's", "opening_hours": "11:30-23:00", "takeaway": "yes"}}, {"type": "node", "id": 4218512164, "lat": 37.2749738, "lon": -107.8800174, "tags": {"addr:city": "Durango", "addr:housenumber": "1050", "addr:state": "CO", "addr:street": "Main Avenue", "amenity": "restaurant", "cuisine": "oriental", "name": "Rice Monkeys", "opening_hours": "Mo-Su 11:00-15:00,17:00-21:00", "phone": "+1-970-403-3852", "website": "https://www.ricemonkeysdurango.com/"}}, {"type": "node", "id": 4218512166, "lat": 37.2748415, "lon": -107.8800415, "tags": {"addr:city": "Durango", "addr:housenumber": "1022", "addr:state": "CO", "addr:street": "Main Avenue", "amenity": "restaurant", "cuisine": "regional", "name": "Carver Brewing Co", "opening_hours": "6:30-10:00"}}, {"type": "node", "id": 4218512169, "lat": 37.2745747, "lon": -107.8801542, "tags": {"addr:city": "Durango", "addr:housenumber": "1000", "addr:state": "CO", "addr:street": "Main Avenue", "amenity": "restaurant", "cuisine": "regional", "name": "Old Tymers Cafe", "opening_hours": "11:00-10:00"}}, {"type": "node", "id": 4382789989, "lat": 37.2740023, "lon": -107.8803169, "tags": {"addr:housenumber": "948", "addr:street": "Main Avenue", "amenity": "restaurant", "cuisine": "mexican", "name": "Tequila's", "smoking": "no"}}, {"type": "node", "id": 4385410894, "lat": 37.270569, "lon": -107.8814356, "tags": {"addr:housenumber": "636", "addr:postcode": "81301", "addr:street": "Main Avenue", "amenity": "restaurant", "contact:phone": "+1 970 385 1810", "contact:website": "www.kenandsues.com", "cuisine": "fusion", "name": "Ken & Sue's"}}, {"type": "node", "id": 4385801191, "lat": 37.2711289, "lon": -107.8816777, "tags": {"amenity": "pub", "check_date": "2023-07-20", "name": "The Diamond Belle Saloon"}}, {"type": "node", "id": 4424459389, "lat": 37.2717782, "lon": -107.881042, "tags": {"addr:housenumber": "730", "addr:postcode": "81301", "addr:street": "Main Avenue", "amenity": "cafe", "cuisine": "cake;tea;sandwich;coffee_shop;breakfast;bagel", "internet_access": "wlan", "name": "Durango Coffee Company", "name:en": "Durango Coffee Company", "phone": "+1-970-259-2059", "smoking": "no", "website": "https://www.cooksandcoffee.com/"}}, {"type": "node", "id": 4482529277, "lat": 37.2747957, "lon": -107.88198, "tags": {"amenity": "restaurant", "capacity": "50", "cuisine": "diner", "delivery": "no", "name": "Oscar's Cafe", "opening_hours": "06:00-14:00", "phone": "+1-970-247-0526", "ref": "18 Town Plaza", "website": "http://www.oscarsdurango.com/"}}, {"type": "node", "id": 4706767180, "lat": 37.293428, "lon": -107.874005}, {"type": "node", "id": 4769036221, "lat": 37.2794055, "lon": -107.879048, "tags": {"amenity": "fast_food", "brand": "Burger King", "brand:wikidata": "Q177054", "check_date": "2023-04-27", "cuisine": "burger", "name": "Burger King", "name:en": "Burger King", "takeaway": "yes"}}, {"type": "node", "id": 5549275621, "lat": 37.2679352, "lon": -107.8812328, "tags": {"amenity": "restaurant", "cuisine": "mexican", "name": "Gazpacho"}}, {"type": "node", "id": 5780634936, "lat": 37.2715817, "lon": -107.8807402, "tags": {"addr:city": "Durango", "addr:housenumber": "726 1/2", "addr:postcode": "81301", "addr:state": "CO", "addr:street": "Main Avenue", "amenity": "fast_food", "cuisine": "burger", "drive_through": "no", "name": "Grassburger", "opening_hours": "Mo-Su 11:00-21:00", "outdoor_seating": "yes", "phone": "+1-970-247-1081", "takeaway": "yes", "website": "https://www.eatgrassburger.com/"}}, {"type": "node", "id": 6868810068, "lat": 37.2454863, "lon": -107.8725095}, {"type": "node", "id": 6868810069, "lat": 37.2454852, "lon": -107.8723017}, {"type": "node", "id": 6868810070, "lat": 37.245322, "lon": -107.872303}, {"type": "node", "id": 6868810071, "lat": 37.2453231, "lon": -107.8725109}, {"type": "node", "id": 6883979085, "lat": 37.2742746, "lon": -107.8806637, "tags": {"addr:housenumber": "957", "addr:street": "Main Avenue", "amenity": "restaurant", "name": "Durango Diner"}}, {"type": "node", "id": 6884043685, "lat": 37.2703961, "lon": -107.8819317, "tags": {"addr:housenumber": "601", "addr:street": "Main Avenue", "amenity": "restaurant", "check_date": "2023-07-20", "name": "Jean Pierre Bakery"}}, {"type": "node", "id": 7092628983, "lat": 37.2709872, "lon": -107.8817042, "tags": {"amenity": "bar", "brewery": "yes", "name": "The Office Spiritorium", "opening_hours": "Mo-Su 16:00-unknown"}}, {"type": "node", "id": 7255814542, "lat": 37.3012783, "lon": -107.869992, "tags": {"addr:housenumber": "3206", "addr:street": "Main Avenue", "addr:unit": "1", "amenity": "restaurant", "name": "The Yellow Carrot", "website": "https://theyellowcarrot.com/"}}, {"type": "node", "id": 7255948233, "lat": 37.296286, "lon": -107.853263}, {"type": "node", "id": 7255952253, "lat": 37.2715609, "lon": -107.881617, "tags": {"addr:housenumber": "707", "addr:street": "Main Avenue", "amenity": "cafe", "internet_access": "wlan", "name": "Magpies Newsstand & Cafe", "opening_hours": "Mo-Su 07:00-19:00", "phone": "+1-970-259-1159", "website": "https://www.facebook.com/MagpiesNewsstand/"}}, {"type": "node", "id": 7255952307, "lat": 37.2742859, "lon": -107.880213, "tags": {"addr:housenumber": "992", "addr:street": "Main Avenue", "amenity": "restaurant", "cuisine": "indian;nepalese", "name": "Himalayan Kitchen", "phone": "+1-970-259-0956", "smoking": "no", "website": "http://www.himkitchen.com"}}, {"type": "node", "id": 7258770701, "lat": 37.29367, "lon": -107.87425}, {"type": "node", "id": 7258770704, "lat": 37.293486, "lon": -107.874306}, {"type": "node", "id": 7258770712, "lat": 37.293612, "lon": -107.873949}, {"type": "node", "id": 7258778089, "lat": 37.270047, "lon": -107.880687}, {"type": "node", "id": 7258778153, "lat": 37.270129, "lon": -107.880659}, {"type": "node", "id": 7258778155, "lat": 37.270098, "lon": -107.880519}, {"type": "node", "id": 7258781594, "lat": 37.296315, "lon": -107.853573}, {"type": "node", "id": 7258781595, "lat": 37.296238, "lon": -107.853544}, {"type": "node", "id": 7258781596, "lat": 37.296282, "lon": -107.853364}, {"type": "node", "id": 7258781597, "lat": 37.296263, "lon": -107.853356}, {"type": "node", "id": 7258781602, "lat": 37.296382, "lon": -107.8533}, {"type": "node", "id": 7258787960, "lat": 37.295213, "lon": -107.873325}, {"type": "node", "id": 7258787961, "lat": 37.295264, "lon": -107.87356}, {"type": "node", "id": 7258787962, "lat": 37.295349, "lon": -107.873531}, {"type": "node", "id": 7258787963, "lat": 37.295298, "lon": -107.873296}, {"type": "node", "id": 7258788485, "lat": 37.280284, "lon": -107.87859}, {"type": "node", "id": 7258788498, "lat": 37.280327, "lon": -107.878802}, {"type": "node", "id": 7258788500, "lat": 37.280393, "lon": -107.878781}, {"type": "node", "id": 7258788502, "lat": 37.28035, "lon": -107.878569}, {"type": "node", "id": 7258790061, "lat": 37.250454, "lon": -107.869265}, {"type": "node", "id": 7258790067, "lat": 37.25054, "lon": -107.869293}, {"type": "node", "id": 7258790068, "lat": 37.250491, "lon": -107.869093}, {"type": "node", "id": 7258790069, "lat": 37.250577, "lon": -107.869122}, {"type": "node", "id": 7258791049, "lat": 37.2682653, "lon": -107.881122}, {"type": "node", "id": 7258791051, "lat": 37.268321, "lon": -107.881107}, {"type": "node", "id": 7258791058, "lat": 37.2684251, "lon": -107.8815384}, {"type": "node", "id": 7258791059, "lat": 37.2683569, "lon": -107.8815563}, {"type": "node", "id": 7258791187, "lat": 37.297685, "lon": -107.871554}, {"type": "node", "id": 7258791188, "lat": 37.29755, "lon": -107.871598}, {"type": "node", "id": 7258791189, "lat": 37.297621, "lon": -107.871944}, {"type": "node", "id": 7258791203, "lat": 37.297756, "lon": -107.8719}, {"type": "node", "id": 8870147487, "lat": 37.2514246, "lon": -107.8769908}, {"type": "node", "id": 8870147490, "lat": 37.2513589, "lon": -107.877007}, {"type": "node", "id": 8870147491, "lat": 37.2514057, "lon": -107.8770371}, {"type": "node", "id": 8870147495, "lat": 37.2513778, "lon": -107.8769607}, {"type": "node", "id": 9023399014, "lat": 37.298205, "lon": -107.8481335, "tags": {"amenity": "restaurant", "cuisine": "sushi", "name": "Pop Sushi"}}, {"type": "node", "id": 9207754208, "lat": 37.2683392, "lon": -107.8811835}, {"type": "node", "id": 9207754209, "lat": 37.2683564, "lon": -107.8811802}, {"type": "node", "id": 9207754211, "lat": 37.268386, "lon": -107.8813287}, {"type": "node", "id": 10829983364, "lat": 37.297559, "lon": -107.872572}, {"type": "node", "id": 10829983366, "lat": 37.2975151, "lon": -107.8724048}, {"type": "node", "id": 10829983367, "lat": 37.297406, "lon": -107.87245}, {"type": "node", "id": 10829983368, "lat": 37.2973995, "lon": -107.872425}, {"type": "node", "id": 10829983369, "lat": 37.2972385, "lon": -107.8724917}, {"type": "node", "id": 10829983370, "lat": 37.2972854, "lon": -107.8726706}, {"type": "node", "id": 10829983371, "lat": 37.2973277, "lon": -107.8726531}, {"type": "node", "id": 10829983372, "lat": 37.2973413, "lon": -107.8727052}, {"type": "node", "id": 10829983373, "lat": 37.2973908, "lon": -107.8726847}, {"type": "node", "id": 10829983374, "lat": 37.2973832, "lon": -107.8726555}, {"type": "node", "id": 10829983375, "lat": 37.2974099, "lon": -107.8726444}, {"type": "node", "id": 10829983376, "lat": 37.297416, "lon": -107.8726675}, {"type": "node", "id": 10829983377, "lat": 37.2974594, "lon": -107.8726496}, {"type": "node", "id": 10829983378, "lat": 37.2974509, "lon": -107.872617}, {"type": "node", "id": 10829983381, "lat": 37.2994318, "lon": -107.8719111, "tags": {"addr:unit": "1", "amenity": "cafe", "cuisine": "coffee_shop", "name": "81301 Coffee House and Roasters", "website": "https://81301coffee.com/"}}, {"type": "node", "id": 10848042942, "lat": 37.2758449, "lon": -107.8802867, "tags": {"amenity": "bar", "name": "11th Street Station"}}, {"type": "node", "id": 11043200657, "lat": 37.2787094, "lon": -107.8772437}, {"type": "node", "id": 11043200658, "lat": 37.2787289, "lon": -107.8773062}, {"type": "node", "id": 11043200659, "lat": 37.2786494, "lon": -107.8773412}, {"type": "node", "id": 11043200660, "lat": 37.2786467, "lon": -107.8773295}, {"type": "node", "id": 11043200661, "lat": 37.2785812, "lon": -107.8773576}, {"type": "node", "id": 11043200662, "lat": 37.2785621, "lon": -107.8772998}, {"type": "node", "id": 11057700784, "lat": 37.2689485, "lon": -107.8824301, "tags": {"amenity": "cafe", "check_date": "2023-07-20", "cuisine": "coffee_shop", "name": "The Train Store and Caboose Coffee Shop", "shop": "gift"}}, {"type": "node", "id": 11057737775, "lat": 37.2718285, "lon": -107.8814833, "tags": {"addr:housenumber": "741", "addr:street": "Main Avenue", "amenity": "restaurant", "check_date": "2023-07-20", "cuisine": "mexican", "name": "Switchback (Tacos, Bar, Patio)"}}, {"type": "node", "id": 11057811008, "lat": 37.2696972, "lon": -107.8816045, "tags": {"addr:housenumber": "552", "addr:street": "Main Avenue", "amenity": "fast_food", "check_date": "2023-07-20", "cuisine": "mexican", "name": "Nini's Taqueria"}}, {"type": "node", "id": 11057811009, "lat": 37.2704578, "lon": -107.8818563, "tags": {"addr:housenumber": "619", "addr:street": "Main Avenue", "amenity": "cafe", "check_date": "2023-07-20", "name": "Lone Spur Cafe"}}, {"type": "node", "id": 11057811011, "lat": 37.2717043, "lon": -107.8815564, "tags": {"addr:housenumber": "725", "addr:street": "Main Avenue", "amenity": "pub", "check_date": "2023-07-20", "name": "Derailed Pour House"}}, {"type": "node", "id": 11057813331, "lat": 37.2739793, "lon": -107.8807208, "tags": {"addr:housenumber": "937", "addr:street": "Main Avenue", "amenity": "bar", "check_date": "2023-07-20", "name": "Starlight Lounge", "smoking": "outside"}}, {"type": "node", "id": 11057813335, "lat": 37.2782526, "lon": -107.8787549, "tags": {"amenity": "restaurant", "brand": "Pizza Hut", "brand:wikidata": "Q191615", "check_date": "2023-07-20", "cuisine": "pizza", "name": "Pizza Hut"}}, {"type": "way", "id": 300158822, "nodes": [3042564121, 3042564122, 3042564123, 3042564124, 3042564125, 3042564126, 1288521219, 3042564128, 3042564121], "tags": {"amenity": "fast_food", "brand": "McDonald's", "brand:wikidata": "Q38076", "building": "yes", "cuisine": "burger", "name": "McDonald's", "takeaway": "yes", "website": "https://www.mcdonalds.com/us/en-us/location/co/durango/201-w-college-dr/4771.html"}}, {"type": "way", "id": 300160137, "nodes": [1301314961, 3042563705, 3042563706, 3042563707, 1301314961], "tags": {"amenity": "pub", "building": "yes", "indoor_seating": "yes", "microbrewery": "yes", "name": "Steamworks Brewing Company", "opening_hours": "Su-Th 11:00-23:00; Fr,Sa 11:00-24:00", "outdoor_seating": "yes"}}, {"type": "way", "id": 733459314, "nodes": [6868810071, 6868810068, 6868810069, 6868810070, 6868810071], "tags": {"amenity": "fast_food", "building": "yes", "cuisine": "barbecue", "drive_through": "yes", "name": "Serious Texas BBQ South", "outdoor_seating": "yes", "takeaway": "yes"}}, {"type": "way", "id": 777789574, "nodes": [1301314938, 7258778155, 7258778153, 7258778089, 1301314938], "tags": {"amenity": "restaurant", "building": "yes", "cuisine": "deli;sushi", "name": "2nd Deli & Spirits"}}, {"type": "way", "id": 777789871, "nodes": [4706767180, 7258770712, 7258770701, 7258770704, 4706767180], "tags": {"amenity": "cafe", "building": "yes", "indoor_seating": "yes", "name": "Doughworks", "opening_hours": "Mo-Su 07:00-13:00", "outdoor_seating": "no", "payment:credit_cards": "yes", "payment:debit_cards": "yes"}}, {"type": "way", "id": 777790476, "nodes": [7255948233, 7258781602, 7258781594, 7258781595, 7258781596, 7258781597, 7255948233], "tags": {"addr:housenumber": "1301", "addr:street": "Florida Road", "amenity": "bar", "building": "yes", "name": "J Bo Pizza"}}, {"type": "way", "id": 777791750, "nodes": [7258787963, 7258787962, 7258787961, 7258787960, 7258787963], "tags": {"addr:city": "Durango", "addr:housenumber": "2817", "addr:postcode": "81301", "addr:state": "CO", "addr:street": "Main Avenue", "amenity": "cafe", "brand": "Starbucks", "brand:wikidata": "Q37158", "building": "yes", "cuisine": "coffee_shop", "name": "Starbucks", "official_name": "Starbucks Coffee", "takeaway": "yes"}}, {"type": "way", "id": 777791789, "nodes": [7258788485, 7258788502, 7258788500, 7258788498, 7258788485], "tags": {"addr:city": "Durango", "addr:housenumber": "1525", "addr:postcode": "81301", "addr:state": "CO", "addr:street": "Main Avenue", "amenity": "restaurant", "building": "yes", "name": "China Cafe"}}, {"type": "way", "id": 777792135, "nodes": [7258790067, 7258790061, 7258790068, 7258790069, 7258790067], "tags": {"addr:city": "Durango", "addr:housenumber": "955", "addr:postcode": "81301", "addr:state": "CO", "addr:street": "CO-3", "amenity": "restaurant", "building": "yes", "name": "Highway 3 Roadhouse & Oyster Bar"}}, {"type": "way", "id": 777792337, "nodes": [7258791049, 7258791051, 9207754208, 9207754209, 9207754211, 7258791058, 7258791059, 7258791049], "tags": {"addr:city": "Durango", "addr:housenumber": "431", "addr:postcode": "81301", "addr:state": "CO", "addr:street": "East 2nd Avenue", "amenity": "restaurant", "building": "yes", "cuisine": "mexican", "name": "Gazpacho Restaurant"}}, {"type": "way", "id": 777792371, "nodes": [7258791203, 7258791189, 7258791188, 7258791187, 7258791203], "tags": {"addr:city": "Durango", "addr:housenumber": "3000", "addr:postcode": "81301", "addr:state": "CO", "addr:street": "Main Avenue", "amenity": "pub", "building": "yes", "microbrewery": "yes", "name": "Durango Beer & Ice Company & High Trestle Brewing Company"}}, {"type": "way", "id": 958671236, "nodes": [8870147491, 8870147487, 8870147495, 8870147490, 8870147491], "tags": {"addr:city": "Durango", "addr:country": "US", "addr:housenumber": "331", "addr:state": "CO", "addr:street": "Frontage Road", "amenity": "restaurant", "building": "yes", "cuisine": "coffee_shop", "name": "Durango Joes Coffee"}}, {"type": "way", "id": 1164477287, "nodes": [10829983364, 10829983366, 10829983367, 10829983368, 10829983369, 10829983370, 10829983371, 10829983372, 10829983373, 10829983374, 10829983375, 10829983376, 10829983377, 10829983378, 10829983364], "tags": {"addr:housenumber": "2977", "addr:street": "Main Avenue", "amenity": "restaurant", "building": "yes", "cuisine": "mexican", "name": "Zia Taqueria", "website": "https://ziataqueria.com/"}}, {"type": "way", "id": 1189281579, "nodes": [11043200657, 11043200658, 11043200659, 11043200660, 11043200661, 11043200662, 11043200657], "tags": {"addr:city": "Durango", "addr:housenumber": "1400", "addr:postcode": "81301", "addr:state": "CO", "addr:street": "East 2nd Avenue", "amenity": "restaurant", "building": "yes", "name": "Famburger"}}]}