{"version": 0.6, "generator": "Overpass API 0.7.61.5 4133829e", "osm3s": {"timestamp_osm_base": "2024-03-12T20:11:15Z", "copyright": "The data included in this document is from www.openstreetmap.org. The data is made available under ODbL."}, "elements": [{"type": "node", "id": 801364082, "lat": 37.2699848, "lon": -107.882256, "tags": {"addr:city": "Durango", "addr:state": "CO", "brand": "Rocky Mountain Chocolate Factory", "brand:wikidata": "Q7355878", "name": "Rocky Mountain Chocolate Factory", "shop": "confectionery"}}, {"type": "node", "id": 957771961, "lat": 37.2720106, "lon": -107.885154, "tags": {"addr:city": "Durango", "addr:housenumber": "311", "addr:postcode": "81301", "addr:state": "CO", "addr:street": "West College Drive", "brand": "Albertsons", "brand:wikidata": "Q2831861", "name": "Albertsons", "phone": "+1 970-382-2224", "shop": "supermarket", "website": "https://local.albertsons.com/co/durango/311-w-college-dr.html"}}, {"type": "node", "id": 1288521180, "lat": 37.2715146, "lon": -107.8838421, "tags": {"amenity": "restaurant", "brand": "Denny's", "brand:wikidata": "Q1189695", "cuisine": "american", "name": "Denny's"}}, {"type": "node", "id": 1288521253, "lat": 37.2694947, "lon": -107.8822337, "tags": {"amenity": "restaurant", "cuisine": "thai", "name": "Sizzling Siam"}}, {"type": "node", "id": 1301314938, "lat": 37.270017, "lon": -107.880548}, {"type": "node", "id": 1301314946, "lat": 37.2717158, "lon": -107.8801308, "tags": {"name": "Yarn", "shop": "fabric"}}, {"type": "node", "id": 1301314950, "lat": 37.27154, "lon": -107.8845128, "tags": {"amenity": "restaurant", "cuisine": "mexican", "name": "Cocina Linda"}}, {"type": "node", "id": 1301314958, "lat": 37.2697377, "lon": -107.881723, "tags": {"addr:city": "Durango", "addr:housenumber": "558", "addr:postcode": "81301", "addr:state": "CO", "addr:street": "Main Avenue", "amenity": "cafe", "internet_access": "wlan", "name": "Mountain Monk Coffee", "opening_hours": "Mo-Su 09:00-20:00", "website": "https://mountainmonkcoffee.com", "wheelchair": "yes"}}, {"type": "node", "id": 1301314959, "lat": 37.2698266, "lon": -107.8813528, "tags": {"amenity": "bicycle_rental", "shop": "bicycle"}}, {"type": "node", "id": 1301314960, "lat": 37.2711165, "lon": -107.8856601, "tags": {"amenity": "restaurant", "cuisine": "steak_house", "name": "Ore House"}}, {"type": "node", "id": 1301314961, "lat": 37.2724515, "lon": -107.880148}, {"type": "node", "id": 1301314969, "lat": 37.2720583, "lon": -107.8842971, "tags": {"name": "Liquor World", "shop": "alcohol"}}, {"type": "node", "id": 2684160441, "lat": 37.2493181, "lon": -107.874326, "tags": {"check_date": "2023-01-03", "currency:XBT": "yes", "name": "Durango Tattoo Company", "payment:onchain": "yes", "phone": "+1-970-259-1703", "shop": "tattoo"}}, {"type": "node", "id": 3042563705, "lat": 37.2722519, "lon": -107.8802137}, {"type": "node", "id": 3042563706, "lat": 37.272169, "lon": -107.8798262}, {"type": "node", "id": 3042563707, "lat": 37.2723659, "lon": -107.8797545}, {"type": "node", "id": 3042563714, "lat": 37.2729256, "lon": -107.8807214}, {"type": "node", "id": 3042563717, "lat": 37.272798, "lon": -107.8807679}, {"type": "node", "id": 3042563718, "lat": 37.2727451, "lon": -107.8805131}, {"type": "node", "id": 3042563719, "lat": 37.2728721, "lon": -107.8804723}, {"type": "node", "id": 3046730686, "lat": 37.2736058, "lon": -107.8805039}, {"type": "node", "id": 3046730690, "lat": 37.2736719, "lon": -107.8804801}, {"type": "node", "id": 3046730692, "lat": 37.2735074, "lon": -107.8800675}, {"type": "node", "id": 3046730695, "lat": 37.2736201, "lon": -107.8802246}, {"type": "node", "id": 3094959429, "lat": 37.2705769, "lon": -107.8818532, "tags": {"amenity": "restaurant", "name": "Francisco's", "wheelchair": "limited"}}, {"type": "node", "id": 3455968850, "lat": 37.2469472, "lon": -107.876107, "tags": {"addr:city": "Durango", "addr:housenumber": "77", "addr:postcode": "81303", "addr:state": "CO", "addr:street": "Suttle Street", "name": "Durango Party Rental", "note": "Tents, party tables and chairs, party accessories", "operator": "Durango Party Rental", "phone": "+1-970-317-2210", "shop": "party_rental", "website": "http://www.durangopartyrental.net"}}, {"type": "node", "id": 3456272720, "lat": 37.2718523, "lon": -107.879571, "tags": {"addr:city": "Durango", "addr:housenumber": "758", "addr:postcode": "81301", "addr:state": "CO", "addr:street": "Main Avenue", "name": "Half-Price Tees", "note": "Custom t-shirts, screen printing and embroidery", "operator": "Half-Price Tees", "phone": "+1-970-259-5601;+1-970-259-4883", "shop": "clothes", "website": "http://www.halfpricetees.com"}}, {"type": "node", "id": 3487821944, "lat": 37.2697802, "lon": -107.8810542, "tags": {"addr:city": "Durango", "addr:housenumber": "128", "addr:postcode": "81301", "addr:state": "CO", "addr:street": "East College Drive", "amenity": "restaurant", "cuisine": "chicken", "name": "Cuckoo's", "opening_hours": "11:30-23:00", "takeaway": "yes"}}, {"type": "node", "id": 4218512164, "lat": 37.2749738, "lon": -107.8800174, "tags": {"addr:city": "Durango", "addr:housenumber": "1050", "addr:state": "CO", "addr:street": "Main Avenue", "amenity": "restaurant", "cuisine": "oriental", "name": "Rice Monkeys", "opening_hours": "Mo-Su 11:00-15:00,17:00-21:00", "phone": "+1-970-403-3852", "website": "https://www.ricemonkeysdurango.com/"}}, {"type": "node", "id": 4218512165, "lat": 37.2749034, "lon": -107.8800254, "tags": {"addr:city": "Durango", "addr:housenumber": "1042", "addr:state": "CO", "addr:street": "Main Avenue", "name": "Tuscon's Barber and Styling", "shop": "hairdresser"}}, {"type": "node", "id": 4218512166, "lat": 37.2748415, "lon": -107.8800415, "tags": {"addr:city": "Durango", "addr:housenumber": "1022", "addr:state": "CO", "addr:street": "Main Avenue", "amenity": "restaurant", "cuisine": "regional", "name": "Carver Brewing Co", "opening_hours": "6:30-10:00"}}, {"type": "node", "id": 4218512168, "lat": 37.2747134, "lon": -107.8801032, "tags": {"addr:city": "Durango", "addr:housenumber": "1018", "addr:state": "CO", "addr:street": "Main Avenue", "building:levels": "2", "check_date": "2023-07-20", "name": "Dancing Willow Herbs", "shop": "herbalist"}}, {"type": "node", "id": 4218512169, "lat": 37.2745747, "lon": -107.8801542, "tags": {"addr:city": "Durango", "addr:housenumber": "1000", "addr:state": "CO", "addr:street": "Main Avenue", "amenity": "restaurant", "cuisine": "regional", "name": "Old Tymers Cafe", "opening_hours": "11:00-10:00"}}, {"type": "node", "id": 4218512170, "lat": 37.2746003, "lon": -107.8795695}, {"type": "node", "id": 4218512171, "lat": 37.2744519, "lon": -107.8796127}, {"type": "node", "id": 4218512172, "lat": 37.2744362, "lon": -107.8795275}, {"type": "node", "id": 4218512173, "lat": 37.2745846, "lon": -107.8794843}, {"type": "node", "id": 4218512174, "lat": 37.2745524, "lon": -107.8794702}, {"type": "node", "id": 4218512175, "lat": 37.2744238, "lon": -107.8795113}, {"type": "node", "id": 4218512176, "lat": 37.2744052, "lon": -107.8794194}, {"type": "node", "id": 4218512177, "lat": 37.2745338, "lon": -107.8793783}, {"type": "node", "id": 4382754395, "lat": 37.2740837, "lon": -107.8802916, "tags": {"addr:housenumber": "960", "addr:street": "Main Avenue", "check_date": "2023-07-20", "name": "Maria's Bookshop", "shop": "books"}}, {"type": "node", "id": 4382756591, "lat": 37.2740998, "lon": -107.8806708, "tags": {"addr:housenumber": "949", "addr:street": "Main Avenue", "check_date": "2023-07-21", "name": "Mountain Bike Specialists", "shop": "bicycle"}}, {"type": "node", "id": 4382762390, "lat": 37.269034, "lon": -107.8809586, "tags": {"addr:housenumber": "175", "addr:street": "East 5th Street", "name": "Southwest Book Trader", "second_hand": "only", "shop": "books"}}, {"type": "node", "id": 4382789989, "lat": 37.2740023, "lon": -107.8803169, "tags": {"addr:housenumber": "948", "addr:street": "Main Avenue", "amenity": "restaurant", "cuisine": "mexican", "name": "Tequila's", "smoking": "no"}}, {"type": "node", "id": 4382790089, "lat": 37.2738512, "lon": -107.8807646, "tags": {"addr:housenumber": "923", "addr:street": "Main Avenue", "check_date": "2023-07-21", "name": "Duranglers", "shop": "fishing"}}, {"type": "node", "id": 4385410894, "lat": 37.270569, "lon": -107.8814356, "tags": {"addr:housenumber": "636", "addr:postcode": "81301", "addr:street": "Main Avenue", "amenity": "restaurant", "contact:phone": "+1 970 385 1810", "contact:website": "www.kenandsues.com", "cuisine": "fusion", "name": "Ken & Sue's"}}, {"type": "node", "id": 4385801191, "lat": 37.2711289, "lon": -107.8816777, "tags": {"amenity": "pub", "check_date": "2023-07-20", "name": "The Diamond Belle Saloon"}}, {"type": "node", "id": 4424459389, "lat": 37.2717782, "lon": -107.881042, "tags": {"addr:housenumber": "730", "addr:postcode": "81301", "addr:street": "Main Avenue", "amenity": "cafe", "cuisine": "cake;tea;sandwich;coffee_shop;breakfast;bagel", "internet_access": "wlan", "name": "Durango Coffee Company", "name:en": "Durango Coffee Company", "phone": "+1-970-259-2059", "smoking": "no", "website": "https://www.cooksandcoffee.com/"}}, {"type": "node", "id": 4482529277, "lat": 37.2747957, "lon": -107.88198, "tags": {"amenity": "restaurant", "capacity": "50", "cuisine": "diner", "delivery": "no", "name": "Oscar's Cafe", "opening_hours": "06:00-14:00", "phone": "+1-970-247-0526", "ref": "18 Town Plaza", "website": "http://www.oscarsdurango.com/"}}, {"type": "node", "id": 4580871014, "lat": 37.2714172, "lon": -107.9035961, "tags": {"addr:city": "Durango", "addr:housenumber": "20909", "addr:postcode": "81301", "addr:state": "CO", "addr:street": "US-160", "name": "Bo Dean's Towing", "phone": "+1-970-375-6221", "shop": "car_repair", "website": "https://bodeanstowing.com/"}}, {"type": "node", "id": 4706767180, "lat": 37.293428, "lon": -107.874005}, {"type": "node", "id": 4783216824, "lat": 37.2744395, "lon": -107.881939, "tags": {"brand": "City Market", "brand:wikidata": "Q5123299", "check_date": "2023-07-28", "name": "City Market", "shop": "supermarket"}}, {"type": "node", "id": 4797416223, "lat": 37.2979596, "lon": -107.8492589, "tags": {"check_date": "2023-08-01", "fixme": "location", "name": "Star Liquors", "name:en": "Star Liquors", "shop": "alcohol"}}, {"type": "node", "id": 5371071193, "lat": 37.2442053, "lon": -107.8711336}, {"type": "node", "id": 5371071194, "lat": 37.2437911, "lon": -107.8711122}, {"type": "node", "id": 5371071195, "lat": 37.2437953, "lon": -107.8714971}, {"type": "node", "id": 5371071196, "lat": 37.2440644, "lon": -107.8715065}, {"type": "node", "id": 5371071197, "lat": 37.2440612, "lon": -107.8715816}, {"type": "node", "id": 5371071198, "lat": 37.2441412, "lon": -107.8715802}, {"type": "node", "id": 5371071199, "lat": 37.2441412, "lon": -107.8715172}, {"type": "node", "id": 5371071200, "lat": 37.2442106, "lon": -107.8715185}, {"type": "node", "id": 5549275621, "lat": 37.2679352, "lon": -107.8812328, "tags": {"amenity": "restaurant", "cuisine": "mexican", "name": "Gazpacho"}}, {"type": "node", "id": 5725011621, "lat": 37.2799636, "lon": -107.8768546, "tags": {"addr:street": "East 2nd Avenue", "name": "Animas Brewing Co", "opening_hours": "Mo-Su 10:00-21:00", "shop": "beverages"}}, {"type": "node", "id": 5960176618, "lat": 37.2973078, "lon": -107.8718903, "tags": {"shop": "laundry"}}, {"type": "node", "id": 6138889743, "lat": 37.245662, "lon": -107.8685703, "tags": {"addr:city": "Durango", "addr:housenumber": "714", "addr:postcode": "81301", "addr:state": "CO", "addr:street": "Sawmill Road", "fax": "+1 970-375-6279", "name": "Built To Last Automotive Service", "opening_hours": "Mo-Fr 08:30-17:30", "payment:american_express": "yes", "payment:cash": "yes", "payment:cheque": "yes", "payment:discover_card": "yes", "payment:mastercard": "yes", "payment:visa": "yes", "phone": "+1-970-259-8777", "shop": "car_repair", "website": "https://built2lastautomotive.com/"}}, {"type": "node", "id": 6342414700, "lat": 37.2247314, "lon": -107.8591321}, {"type": "node", "id": 6342414701, "lat": 37.2249427, "lon": -107.8591675}, {"type": "node", "id": 6342415088, "lat": 37.2244698, "lon": -107.8591655}, {"type": "node", "id": 6342415089, "lat": 37.2242656, "lon": -107.8591306}, {"type": "node", "id": 6342415090, "lat": 37.2249343, "lon": -107.8592449}, {"type": "node", "id": 6342415091, "lat": 37.2247235, "lon": -107.8592089}, {"type": "node", "id": 6342415092, "lat": 37.224853, "lon": -107.8590462}, {"type": "node", "id": 6342415093, "lat": 37.2247403, "lon": -107.8590544}, {"type": "node", "id": 6342415094, "lat": 37.224951, "lon": -107.8590905}, {"type": "node", "id": 6342415095, "lat": 37.2243752, "lon": -107.859081}, {"type": "node", "id": 6342415096, "lat": 37.2244747, "lon": -107.85912}, {"type": "node", "id": 6342415097, "lat": 37.2242705, "lon": -107.8590851}, {"type": "node", "id": 6342415098, "lat": 37.2239971, "lon": -107.8591278}, {"type": "node", "id": 6342415099, "lat": 37.2239823, "lon": -107.8592641}, {"type": "node", "id": 6342415100, "lat": 37.2240388, "lon": -107.8591194}, {"type": "node", "id": 6342415101, "lat": 37.223969, "lon": -107.859763}, {"type": "node", "id": 6342415102, "lat": 37.223929, "lon": -107.8597561}, {"type": "node", "id": 6342415103, "lat": 37.2239987, "lon": -107.8591125}, {"type": "node", "id": 6342415104, "lat": 37.2238282, "lon": -107.859099}, {"type": "node", "id": 6342415105, "lat": 37.2238135, "lon": -107.8592353}, {"type": "node", "id": 6342415106, "lat": 37.2240417, "lon": -107.8590923}, {"type": "node", "id": 6342415107, "lat": 37.2239658, "lon": -107.8597925}, {"type": "node", "id": 6342415108, "lat": 37.2250352, "lon": -107.8592622}, {"type": "node", "id": 6342415109, "lat": 37.2239395, "lon": -107.859788}, {"type": "node", "id": 6342415110, "lat": 37.2239181, "lon": -107.8599849}, {"type": "node", "id": 6342415111, "lat": 37.2249379, "lon": -107.8601593}, {"type": "node", "id": 6342415351, "lat": 37.2302732, "lon": -107.8666405}, {"type": "node", "id": 6342415352, "lat": 37.2302839, "lon": -107.8666438}, {"type": "node", "id": 6342415353, "lat": 37.230254, "lon": -107.8667973}, {"type": "node", "id": 6342415354, "lat": 37.2306265, "lon": -107.865866}, {"type": "node", "id": 6342415355, "lat": 37.2299736, "lon": -107.8650551}, {"type": "node", "id": 6342415356, "lat": 37.2305787, "lon": -107.8657106}, {"type": "node", "id": 6342415357, "lat": 37.230069, "lon": -107.8650775}, {"type": "node", "id": 6342415358, "lat": 37.2302527, "lon": -107.865163}, {"type": "node", "id": 6342415359, "lat": 37.2305356, "lon": -107.8655144}, {"type": "node", "id": 6342415360, "lat": 37.2305521, "lon": -107.8654935}, {"type": "node", "id": 6342415361, "lat": 37.2302691, "lon": -107.8651422}, {"type": "node", "id": 6342415362, "lat": 37.2301422, "lon": -107.8649845}, {"type": "node", "id": 6342415363, "lat": 37.2306519, "lon": -107.8656176}, {"type": "node", "id": 6342415364, "lat": 37.2300118, "lon": -107.8650065}, {"type": "node", "id": 6342415365, "lat": 37.2306647, "lon": -107.8658174}, {"type": "node", "id": 6342415366, "lat": 37.2297363, "lon": -107.8648289}, {"type": "node", "id": 6342415367, "lat": 37.2296075, "lon": -107.8649925}, {"type": "node", "id": 6342415368, "lat": 37.2294559, "lon": -107.8648042}, {"type": "node", "id": 6342415369, "lat": 37.2295847, "lon": -107.8646406}, {"type": "node", "id": 6342415370, "lat": 37.2294303, "lon": -107.8652176}, {"type": "node", "id": 6342415371, "lat": 37.2293229, "lon": -107.8653539}, {"type": "node", "id": 6342415372, "lat": 37.2292846, "lon": -107.8650367}, {"type": "node", "id": 6342415373, "lat": 37.2291773, "lon": -107.865173}, {"type": "node", "id": 6342415374, "lat": 37.2292968, "lon": -107.8653871}, {"type": "node", "id": 6342415375, "lat": 37.2293618, "lon": -107.8654677}, {"type": "node", "id": 6342415376, "lat": 37.2307562, "lon": -107.866027}, {"type": "node", "id": 6342415377, "lat": 37.2297636, "lon": -107.8647942}, {"type": "node", "id": 6342415378, "lat": 37.2292075, "lon": -107.8656637}, {"type": "node", "id": 6342415379, "lat": 37.2300764, "lon": -107.8667428}, {"type": "node", "id": 6353468924, "lat": 37.2286569, "lon": -107.8619516}, {"type": "node", "id": 6353468925, "lat": 37.2284365, "lon": -107.8623458}, {"type": "node", "id": 6353468930, "lat": 37.2282998, "lon": -107.8622252}, {"type": "node", "id": 6353468931, "lat": 37.2285203, "lon": -107.8618311}, {"type": "node", "id": 6388299172, "lat": 37.2292447, "lon": -107.8656164, "tags": {"access": "private", "amenity": "loading_dock", "entrance": "service"}}, {"type": "node", "id": 6388299173, "lat": 37.2302688, "lon": -107.8667211, "tags": {"access": "private", "amenity": "loading_dock", "entrance": "service"}}, {"type": "node", "id": 6388299174, "lat": 37.230212, "lon": -107.8650712, "tags": {"entrance": "main"}}, {"type": "node", "id": 6388299175, "lat": 37.2306066, "lon": -107.8655613, "tags": {"entrance": "main"}}, {"type": "node", "id": 6511679506, "lat": 37.2280952, "lon": -107.861809}, {"type": "node", "id": 6511679507, "lat": 37.2278425, "lon": -107.8622361}, {"type": "node", "id": 6511679508, "lat": 37.2275253, "lon": -107.8619504}, {"type": "node", "id": 6511679509, "lat": 37.2276908, "lon": -107.8615983}, {"type": "node", "id": 6511679510, "lat": 37.2278976, "lon": -107.8617801}, {"type": "node", "id": 6511679511, "lat": 37.2279895, "lon": -107.8616618}, {"type": "node", "id": 6611277626, "lat": 37.269335, "lon": -107.9127863, "tags": {"addr:city": "Durango", "addr:housenumber": "20453", "addr:postcode": "81301", "addr:state": "CO", "addr:street": "Highway 160", "brand": "Speedway", "brand:wikidata": "Q7575683", "name": "Speedway", "ref": "9495", "shop": "convenience"}}, {"type": "node", "id": 6868823422, "lat": 37.2394499, "lon": -107.8782678}, {"type": "node", "id": 6868823423, "lat": 37.2393953, "lon": -107.878245}, {"type": "node", "id": 6868823424, "lat": 37.2394114, "lon": -107.8781838}, {"type": "node", "id": 6868823425, "lat": 37.2394661, "lon": -107.8782065}, {"type": "node", "id": 6868823426, "lat": 37.2387985, "lon": -107.8783029}, {"type": "node", "id": 6868823427, "lat": 37.2398384, "lon": -107.8787361}, {"type": "node", "id": 6868823428, "lat": 37.2399113, "lon": -107.87846}, {"type": "node", "id": 6868823429, "lat": 37.2388714, "lon": -107.8780268}, {"type": "node", "id": 6883979085, "lat": 37.2742746, "lon": -107.8806637, "tags": {"addr:housenumber": "957", "addr:street": "Main Avenue", "amenity": "restaurant", "name": "Durango Diner"}}, {"type": "node", "id": 6884043685, "lat": 37.2703961, "lon": -107.8819317, "tags": {"addr:housenumber": "601", "addr:street": "Main Avenue", "amenity": "restaurant", "check_date": "2023-07-20", "name": "Jean Pierre Bakery"}}, {"type": "node", "id": 7092628983, "lat": 37.2709872, "lon": -107.8817042, "tags": {"amenity": "bar", "brewery": "yes", "name": "The Office Spiritorium", "opening_hours": "Mo-Su 16:00-unknown"}}, {"type": "node", "id": 7255814542, "lat": 37.3012783, "lon": -107.869992, "tags": {"addr:housenumber": "3206", "addr:street": "Main Avenue", "addr:unit": "1", "amenity": "restaurant", "name": "The Yellow Carrot", "website": "https://theyellowcarrot.com/"}}, {"type": "node", "id": 7255948233, "lat": 37.296286, "lon": -107.853263}, {"type": "node", "id": 7255951026, "lat": 37.2743057, "lon": -107.8836684, "tags": {"addr:city": "Durango", "addr:housenumber": "901", "addr:postcode": "81301", "addr:state": "CO", "addr:street": "Camino del Rio", "brand": "Speedway", "brand:wikidata": "Q7575683", "name": "Speedway", "ref": "9490", "shop": "convenience"}}, {"type": "node", "id": 7255951401, "lat": 37.299503, "lon": -107.870968}, {"type": "node", "id": 7255951413, "lat": 37.3003148, "lon": -107.870197}, {"type": "node", "id": 7255952214, "lat": 37.2735822, "lon": -107.880037}, {"type": "node", "id": 7255952253, "lat": 37.2715609, "lon": -107.881617, "tags": {"addr:housenumber": "707", "addr:street": "Main Avenue", "amenity": "cafe", "internet_access": "wlan", "name": "Magpies Newsstand & Cafe", "opening_hours": "Mo-Su 07:00-19:00", "phone": "+1-970-259-1159", "website": "https://www.facebook.com/MagpiesNewsstand/"}}, {"type": "node", "id": 7255952307, "lat": 37.2742859, "lon": -107.880213, "tags": {"addr:housenumber": "992", "addr:street": "Main Avenue", "amenity": "restaurant", "cuisine": "indian;nepalese", "name": "Himalayan Kitchen", "phone": "+1-970-259-0956", "smoking": "no", "website": "http://www.himkitchen.com"}}, {"type": "node", "id": 7255954714, "lat": 37.2723354, "lon": -107.88043, "tags": {"addr:housenumber": "135", "addr:postcode": "81301", "addr:street": "East 8th Street", "name": "Bread Cafe", "shop": "bakery"}}, {"type": "node", "id": 7258554965, "lat": 37.305831, "lon": -107.866999}, {"type": "node", "id": 7258554969, "lat": 37.305597, "lon": -107.866938}, {"type": "node", "id": 7258554970, "lat": 37.305666, "lon": -107.866831}, {"type": "node", "id": 7258559094, "lat": 37.3047632, "lon": -107.867108}, {"type": "node", "id": 7258559095, "lat": 37.3047037, "lon": -107.8670046}, {"type": "node", "id": 7258559101, "lat": 37.3047666, "lon": -107.8669475}, {"type": "node", "id": 7258559103, "lat": 37.3048261, "lon": -107.8670509}, {"type": "node", "id": 7258770701, "lat": 37.29367, "lon": -107.87425}, {"type": "node", "id": 7258770704, "lat": 37.293486, "lon": -107.874306}, {"type": "node", "id": 7258770712, "lat": 37.293612, "lon": -107.873949}, {"type": "node", "id": 7258778054, "lat": 37.276746, "lon": -107.880833}, {"type": "node", "id": 7258778055, "lat": 37.276773, "lon": -107.880972}, {"type": "node", "id": 7258778057, "lat": 37.276564, "lon": -107.881036}, {"type": "node", "id": 7258778066, "lat": 37.276537, "lon": -107.880897}, {"type": "node", "id": 7258778089, "lat": 37.270047, "lon": -107.880687}, {"type": "node", "id": 7258778153, "lat": 37.270129, "lon": -107.880659}, {"type": "node", "id": 7258778155, "lat": 37.270098, "lon": -107.880519}, {"type": "node", "id": 7258778878, "lat": 37.277113, "lon": -107.881037}, {"type": "node", "id": 7258778883, "lat": 37.276923, "lon": -107.88127}, {"type": "node", "id": 7258778885, "lat": 37.27704, "lon": -107.88142}, {"type": "node", "id": 7258778887, "lat": 37.27723, "lon": -107.881187}, {"type": "node", "id": 7258781594, "lat": 37.296315, "lon": -107.853573}, {"type": "node", "id": 7258781595, "lat": 37.296238, "lon": -107.853544}, {"type": "node", "id": 7258781596, "lat": 37.296282, "lon": -107.853364}, {"type": "node", "id": 7258781597, "lat": 37.296263, "lon": -107.853356}, {"type": "node", "id": 7258781602, "lat": 37.296382, "lon": -107.8533}, {"type": "node", "id": 7258787188, "lat": 37.295882, "lon": -107.872608}, {"type": "node", "id": 7258787190, "lat": 37.295855, "lon": -107.872503}, {"type": "node", "id": 7258787195, "lat": 37.29573, "lon": -107.872553}, {"type": "node", "id": 7258787196, "lat": 37.295777, "lon": -107.872737}, {"type": "node", "id": 7258787197, "lat": 37.295828, "lon": -107.872716}, {"type": "node", "id": 7258787199, "lat": 37.295808, "lon": -107.872637}, {"type": "node", "id": 7258787960, "lat": 37.295213, "lon": -107.873325}, {"type": "node", "id": 7258787961, "lat": 37.295264, "lon": -107.87356}, {"type": "node", "id": 7258787962, "lat": 37.295349, "lon": -107.873531}, {"type": "node", "id": 7258787963, "lat": 37.295298, "lon": -107.873296}, {"type": "node", "id": 7258788485, "lat": 37.280284, "lon": -107.87859}, {"type": "node", "id": 7258788498, "lat": 37.280327, "lon": -107.878802}, {"type": "node", "id": 7258788500, "lat": 37.280393, "lon": -107.878781}, {"type": "node", "id": 7258788502, "lat": 37.28035, "lon": -107.878569}, {"type": "node", "id": 7258788684, "lat": 37.277652, "lon": -107.878555}, {"type": "node", "id": 7258788685, "lat": 37.277634, "lon": -107.878464}, {"type": "node", "id": 7258788688, "lat": 37.27776, "lon": -107.878426}, {"type": "node", "id": 7258788689, "lat": 37.277778, "lon": -107.878517}, {"type": "node", "id": 7258790061, "lat": 37.250454, "lon": -107.869265}, {"type": "node", "id": 7258790067, "lat": 37.25054, "lon": -107.869293}, {"type": "node", "id": 7258790068, "lat": 37.250491, "lon": -107.869093}, {"type": "node", "id": 7258790069, "lat": 37.250577, "lon": -107.869122}, {"type": "node", "id": 7258791049, "lat": 37.2682653, "lon": -107.881122}, {"type": "node", "id": 7258791051, "lat": 37.268321, "lon": -107.881107}, {"type": "node", "id": 7258791058, "lat": 37.2684251, "lon": -107.8815384}, {"type": "node", "id": 7258791059, "lat": 37.2683569, "lon": -107.8815563}, {"type": "node", "id": 7258791187, "lat": 37.297685, "lon": -107.871554}, {"type": "node", "id": 7258791188, "lat": 37.29755, "lon": -107.871598}, {"type": "node", "id": 7258791189, "lat": 37.297621, "lon": -107.871944}, {"type": "node", "id": 7258791203, "lat": 37.297756, "lon": -107.8719}, {"type": "node", "id": 7258798020, "lat": 37.299547, "lon": -107.871146}, {"type": "node", "id": 7258798023, "lat": 37.299621, "lon": -107.870922}, {"type": "node", "id": 7258798024, "lat": 37.299665, "lon": -107.871099}, {"type": "node", "id": 7775916566, "lat": 37.2348515, "lon": -107.871596, "tags": {"addr:housenumber": "208", "addr:street": "Parker Avenue", "name": "The Greenery", "phone": "+1-970-403-3710", "shop": "cannabis", "website": "https://durangogreenery.com"}}, {"type": "node", "id": 8819228188, "lat": 37.29842, "lon": -107.847548, "tags": {"addr:city": "Durango", "addr:housenumber": "1537", "addr:postcode": "81301", "addr:state": "CO", "addr:street": "Florida Road", "addr:unit": "108", "name": "San Juan Cycles", "phone": "+1-970-259-6014", "shop": "bicycle", "website": "http://www.sanjuancycles.com/"}}, {"type": "node", "id": 8870147486, "lat": 37.2512067, "lon": -107.8778813, "tags": {"brand": "Office Depot", "level": "1", "name": "Office Depot", "shop": "stationery"}}, {"type": "node", "id": 8870147487, "lat": 37.2514246, "lon": -107.8769908}, {"type": "node", "id": 8870147490, "lat": 37.2513589, "lon": -107.877007}, {"type": "node", "id": 8870147491, "lat": 37.2514057, "lon": -107.8770371}, {"type": "node", "id": 8870147495, "lat": 37.2513778, "lon": -107.8769607}, {"type": "node", "id": 8985518633, "lat": 37.2850216, "lon": -107.87722, "tags": {"addr:city": "Durango", "addr:housenumber": "1991", "addr:postcode": "81301", "addr:state": "CO", "addr:street": "Main Avenue", "brand": "Speedway", "brand:wikidata": "Q7575683", "name": "Speedway", "ref": "9489", "shop": "convenience"}}, {"type": "node", "id": 9023399013, "lat": 37.2984962, "lon": -107.84825, "tags": {"name": "Bread", "shop": "bakery"}}, {"type": "node", "id": 9023399014, "lat": 37.298205, "lon": -107.8481335, "tags": {"amenity": "restaurant", "cuisine": "sushi", "name": "Pop Sushi"}}, {"type": "node", "id": 9174510010, "lat": 37.305762, "lon": -107.867106}, {"type": "node", "id": 9207547901, "lat": 37.2708034, "lon": -107.8812009}, {"type": "node", "id": 9207547902, "lat": 37.2708483, "lon": -107.881432}, {"type": "node", "id": 9207547905, "lat": 37.2708729, "lon": -107.8811818}, {"type": "node", "id": 9207547910, "lat": 37.2708985, "lon": -107.8813173}, {"type": "node", "id": 9207547911, "lat": 37.2709179, "lon": -107.8814088}, {"type": "node", "id": 9207754208, "lat": 37.2683392, "lon": -107.8811835}, {"type": "node", "id": 9207754209, "lat": 37.2683564, "lon": -107.8811802}, {"type": "node", "id": 9207754211, "lat": 37.268386, "lon": -107.8813287}, {"type": "node", "id": 9209763160, "lat": 37.3001789, "lon": -107.8696898}, {"type": "node", "id": 9209763161, "lat": 37.2994547, "lon": -107.869996}, {"type": "node", "id": 9209763162, "lat": 37.2995114, "lon": -107.870208}, {"type": "node", "id": 9209763163, "lat": 37.2995447, "lon": -107.8701939}, {"type": "node", "id": 9209763164, "lat": 37.2996239, "lon": -107.8704899}, {"type": "node", "id": 9209763168, "lat": 37.300294, "lon": -107.8702064}, {"type": "node", "id": 10829983364, "lat": 37.297559, "lon": -107.872572}, {"type": "node", "id": 10829983366, "lat": 37.2975151, "lon": -107.8724048}, {"type": "node", "id": 10829983367, "lat": 37.297406, "lon": -107.87245}, {"type": "node", "id": 10829983368, "lat": 37.2973995, "lon": -107.872425}, {"type": "node", "id": 10829983369, "lat": 37.2972385, "lon": -107.8724917}, {"type": "node", "id": 10829983370, "lat": 37.2972854, "lon": -107.8726706}, {"type": "node", "id": 10829983371, "lat": 37.2973277, "lon": -107.8726531}, {"type": "node", "id": 10829983372, "lat": 37.2973413, "lon": -107.8727052}, {"type": "node", "id": 10829983373, "lat": 37.2973908, "lon": -107.8726847}, {"type": "node", "id": 10829983374, "lat": 37.2973832, "lon": -107.8726555}, {"type": "node", "id": 10829983375, "lat": 37.2974099, "lon": -107.8726444}, {"type": "node", "id": 10829983376, "lat": 37.297416, "lon": -107.8726675}, {"type": "node", "id": 10829983377, "lat": 37.2974594, "lon": -107.8726496}, {"type": "node", "id": 10829983378, "lat": 37.2974509, "lon": -107.872617}, {"type": "node", "id": 10829983380, "lat": 37.2995395, "lon": -107.8716816, "tags": {"addr:housenumber": "3101", "addr:street": "Main Avenue", "addr:unit": "3", "name": "Dunn Deal", "opening_hours": "Mo-Sa 09:00-17:00; Su 11:00-16:00", "second_hand": "yes", "shop": "second_hand", "website": "http://dunndeal.org"}}, {"type": "node", "id": 10829983381, "lat": 37.2994318, "lon": -107.8719111, "tags": {"addr:unit": "1", "amenity": "cafe", "cuisine": "coffee_shop", "name": "81301 Coffee House and Roasters", "website": "https://81301coffee.com/"}}, {"type": "node", "id": 10848042942, "lat": 37.2758449, "lon": -107.8802867, "tags": {"amenity": "bar", "name": "11th Street Station"}}, {"type": "node", "id": 10852876183, "lat": 37.2767341, "lon": -107.8822824, "tags": {"brand": "Natural Grocers", "brand:wikidata": "Q17146520", "check_date": "2023-04-28", "name": "Natural Grocers", "shop": "supermarket"}}, {"type": "node", "id": 11043200657, "lat": 37.2787094, "lon": -107.8772437}, {"type": "node", "id": 11043200658, "lat": 37.2787289, "lon": -107.8773062}, {"type": "node", "id": 11043200659, "lat": 37.2786494, "lon": -107.8773412}, {"type": "node", "id": 11043200660, "lat": 37.2786467, "lon": -107.8773295}, {"type": "node", "id": 11043200661, "lat": 37.2785812, "lon": -107.8773576}, {"type": "node", "id": 11043200662, "lat": 37.2785621, "lon": -107.8772998}, {"type": "node", "id": 11057700783, "lat": 37.2692962, "lon": -107.8825406, "tags": {"check_date": "2023-07-20", "name": "Depot Gifts", "shop": "gift"}}, {"type": "node", "id": 11057700784, "lat": 37.2689485, "lon": -107.8824301, "tags": {"amenity": "cafe", "check_date": "2023-07-20", "cuisine": "coffee_shop", "name": "The Train Store and Caboose Coffee Shop", "shop": "gift"}}, {"type": "node", "id": 11057737772, "lat": 37.2721298, "lon": -107.8809207, "tags": {"addr:housenumber": "780", "addr:street": "Main Avenue", "check_date": "2023-07-20", "name": "Gardenswartz Outdoors", "shop": "outdoor"}}, {"type": "node", "id": 11057737773, "lat": 37.2720706, "lon": -107.8809496, "tags": {"check_date": "2023-07-20", "name": "Durango Antique Market", "shop": "antiques"}}, {"type": "node", "id": 11057737774, "lat": 37.2719499, "lon": -107.8813862, "tags": {"addr:housenumber": "747", "addr:street": "Main Avenue", "check_date": "2023-07-20", "name": "Durango Rug Company", "shop": "carpet"}}, {"type": "node", "id": 11057737775, "lat": 37.2718285, "lon": -107.8814833, "tags": {"addr:housenumber": "741", "addr:street": "Main Avenue", "amenity": "restaurant", "check_date": "2023-07-20", "cuisine": "mexican", "name": "Switchback (Tacos, Bar, Patio)"}}, {"type": "node", "id": 11057737776, "lat": 37.270858, "lon": -107.8817773, "tags": {"addr:housenumber": "651", "addr:street": "Main Avenue", "check_date": "2023-07-20", "name": "Halfway to Heaven", "shop": "gift"}}, {"type": "node", "id": 11057737777, "lat": 37.2706895, "lon": -107.881819, "tags": {"check_date": "2023-07-20", "name": "Toast Records and Bakes", "shop": "music"}}, {"type": "node", "id": 11057811009, "lat": 37.2704578, "lon": -107.8818563, "tags": {"addr:housenumber": "619", "addr:street": "Main Avenue", "amenity": "cafe", "check_date": "2023-07-20", "name": "Lone Spur Cafe"}}, {"type": "node", "id": 11057811010, "lat": 37.2707724, "lon": -107.8818096, "tags": {"addr:housenumber": "645", "addr:street": "Main Avenue", "check_date": "2023-07-20", "description": "\"Gifts from the west\"", "name": "Out of the Blue", "shop": "gift"}}, {"type": "node", "id": 11057811011, "lat": 37.2717043, "lon": -107.8815564, "tags": {"addr:housenumber": "725", "addr:street": "Main Avenue", "amenity": "pub", "check_date": "2023-07-20", "name": "Derailed Pour House"}}, {"type": "node", "id": 11057811012, "lat": 37.2720851, "lon": -107.8813462, "tags": {"addr:housenumber": "777", "addr:street": "Main Avenue", "check_date": "2023-07-20", "name": "Parts Unknown: A Fashion Adventure", "shop": "clothes"}}, {"type": "node", "id": 11057811013, "lat": 37.2724988, "lon": -107.8811876, "tags": {"addr:housenumber": "801", "addr:street": "Main Avenue", "check_date": "2023-07-20", "name": "The Sparrow", "shop": "clothes"}}, {"type": "node", "id": 11057811014, "lat": 37.2725309, "lon": -107.8811545, "tags": {"addr:housenumber": "809", "addr:street": "Main Avenue", "check_date": "2023-07-20", "name": "Lively (a boutique)", "shop": "clothes"}}, {"type": "node", "id": 11057811015, "lat": 37.2729506, "lon": -107.8810797, "tags": {"addr:housenumber": "835", "addr:street": "Main Avenue", "check_date": "2023-07-20", "name": "Pine Needle Mountaineering", "shop": "outdoor"}}, {"type": "node", "id": 11057811016, "lat": 37.2732254, "lon": -107.8805617, "tags": {"check_date": "2023-07-20", "name": "Brown's Sport Shoe", "shop": "shoes"}}, {"type": "node", "id": 11057811017, "lat": 37.2739038, "lon": -107.8807387, "tags": {"check_date": "2023-07-20", "description": "Home furnishings and accessories", "name": "Tippy Canoe", "shop": "furniture"}}, {"type": "node", "id": 11057811018, "lat": 37.2743011, "lon": -107.8805998, "tags": {"addr:housenumber": "969", "addr:street": "Main Avenue", "check_date": "2023-07-20", "name": "Hair Fusion", "shop": "hairdresser"}}, {"type": "node", "id": 11057813329, "lat": 37.274766, "lon": -107.8800782, "tags": {"check_date": "2023-07-20", "clothes": "vintage", "name": "Old Colorado Vintage", "shop": "clothes"}}, {"type": "node", "id": 11057813330, "lat": 37.2748048, "lon": -107.8804077, "tags": {"addr:housenumber": "1019", "addr:street": "Main Avenue", "check_date": "2023-07-20", "name": "Vape Durango", "shop": "e-cigarette"}}, {"type": "node", "id": 11057813331, "lat": 37.2739793, "lon": -107.8807208, "tags": {"addr:housenumber": "937", "addr:street": "Main Avenue", "amenity": "bar", "check_date": "2023-07-20", "name": "Starlight Lounge", "smoking": "outside"}}, {"type": "node", "id": 11057813332, "lat": 37.273277, "lon": -107.881039, "tags": {"addr:housenumber": "871", "addr:street": "Main Avenue", "check_date": "2023-07-20", "name": "Brown's Shoe Fit", "opening_hours": "Mo-We 09:00-18:00; Th-Sa 09:00-21:00; Su 11:00-17:00", "shop": "shoes"}}, {"type": "node", "id": 11057813334, "lat": 37.2782428, "lon": -107.8786432, "tags": {"check_date": "2023-07-20", "name": "Ski Barn", "shop": "outdoor"}}, {"type": "node", "id": 11057813335, "lat": 37.2782526, "lon": -107.8787549, "tags": {"amenity": "restaurant", "brand": "Pizza Hut", "brand:wikidata": "Q191615", "check_date": "2023-07-20", "cuisine": "pizza", "name": "Pizza Hut"}}, {"type": "node", "id": 11057813336, "lat": 37.2782699, "lon": -107.8788883, "tags": {"brand": "AutoZone", "brand:wikidata": "Q4826087", "check_date": "2023-07-20", "name": "AutoZone", "shop": "car_parts", "website": "https://www.autozone.com/locations/co/durango/1316-main-ave--2.html"}}, {"type": "node", "id": 11057839813, "lat": 37.2947074, "lon": -107.8736847, "tags": {"brand": "Walgreens", "brand:wikidata": "Q1591889", "check_date": "2023-07-20", "name": "Walgreens", "opening_hours": "10:00-19:00", "shop": "chemist", "website": "https://www.walgreens.com/locator/walgreens-2701+main+ave-durango-co-81301/id=10371"}}, {"type": "node", "id": 11149346606, "lat": 37.3009049, "lon": -107.8714079, "tags": {"addr:housenumber": "121 Suite A", "addr:postcode": "81301", "addr:street": "West 32nd Street", "name": "Kelly's Dry Cleaners", "shop": "dry_cleaning"}}, {"type": "node", "id": 11154750906, "lat": 37.2705668, "lon": -107.8923399, "tags": {"addr:housenumber": "21558", "addr:postcode": "81303", "addr:street": "US-160", "name": "Jiffy Lube Multicare", "shop": "car_repair"}}, {"type": "way", "id": 300160137, "nodes": [1301314961, 3042563705, 3042563706, 3042563707, 1301314961], "tags": {"amenity": "pub", "building": "yes", "indoor_seating": "yes", "microbrewery": "yes", "name": "Steamworks Brewing Company", "opening_hours": "Su-Th 11:00-23:00; Fr,Sa 11:00-24:00", "outdoor_seating": "yes"}}, {"type": "way", "id": 300160140, "nodes": [3042563714, 3042563717, 3042563718, 3042563719, 3042563714], "tags": {"addr:city": "Durango", "addr:housenumber": "846", "addr:postcode": "81301", "addr:state": "CO", "addr:street": "Main Avenue", "building": "yes", "name": "Barefoot Durango", "shop": "gift"}}, {"type": "way", "id": 300594641, "nodes": [3046730686, 3046730690, 3046730695, 7255952214, 3046730692, 3046730686], "tags": {"addr:city": "Durango", "addr:housenumber": "920", "addr:postcode": "81301", "addr:street": "Main Avenue", "building": "yes", "name": "Animas Chocolate Company", "shop": "chocolate"}}, {"type": "way", "id": 422123173, "nodes": [4218512170, 4218512171, 4218512172, 4218512173, 4218512170], "tags": {"addr:city": "Durango", "addr:housenumber": "121", "addr:state": "CO", "addr:street": "East 10th Street", "building": "yes", "name": "Julep Botique", "shop": "clothes"}}, {"type": "way", "id": 422123175, "nodes": [4218512174, 4218512175, 4218512176, 4218512177, 4218512174], "tags": {"addr:city": "Durango", "addr:housenumber": "125", "addr:state": "CO", "addr:street": "East 10th Street", "building": "yes", "name": "Jamie's Jewelry & Watch Repair", "shop": "jewelry"}}, {"type": "way", "id": 556840798, "nodes": [5371071193, 5371071194, 5371071195, 5371071196, 5371071197, 5371071198, 5371071199, 5371071200, 5371071193], "tags": {"building": "yes", "name": "Durango Harley Davidson", "shop": "motorcycle"}}, {"type": "way", "id": 677354298, "nodes": [6342415105, 6342415099, 6342415102, 6342415101, 6342415107, 6342415109, 6342415110, 6342415111, 6342415108, 6342415090, 6342414701, 6342415094, 6342415092, 6342415093, 6342414700, 6342415091, 6342415088, 6342415096, 6342415095, 6342415097, 6342415089, 6342415106, 6342415100, 6342415103, 6342415098, 6342415104, 6342415105], "tags": {"addr:city": "Durango", "addr:housenumber": "1301", "addr:state": "CO", "addr:street": "South Camino Del Rio", "building": "yes", "name": "The Home Depot", "phone": "+1-970-259-7954", "shop": "doityourself", "website": "https://www.homedepot.com/"}}, {"type": "way", "id": 677354308, "nodes": [6342415379, 6342415353, 6388299173, 6342415352, 6342415351, 6342415376, 6342415354, 6342415365, 6342415356, 6342415363, 6388299175, 6342415360, 6342415359, 6342415358, 6342415361, 6388299174, 6342415362, 6342415357, 6342415364, 6342415355, 6342415377, 6342415366, 6342415369, 6342415368, 6342415367, 6342415370, 6342415372, 6342415373, 6342415371, 6342415374, 6342415375, 6388299172, 6342415378, 6342415379], "tags": {"addr:city": "Durango", "addr:housenumber": "1155", "addr:postcode": "81303", "addr:state": "CO", "addr:street": "South Camino Del Rio", "brand": "Walmart", "brand:wikidata": "Q483551", "building": "retail", "building:levels": "1", "name": "Walmart Supercenter", "opening_hours": "24/7", "operator": "Walmart", "operator:wikidata": "Q483551", "operator:wikipedia": "en:Walmart", "phone": "+1-970-259-8755", "ref:walmart": "2270", "shop": "supermarket", "website": "https://www.walmart.com/store/2270/durango-co/whats-new"}}, {"type": "way", "id": 678535690, "nodes": [6353468924, 6353468931, 6353468930, 6353468925, 6353468924], "tags": {"brand": "Big O Tires", "brand:wikidata": "Q4906085", "building": "yes", "name": "Big O Tires", "shop": "tyres"}}, {"type": "way", "id": 693578970, "nodes": [6511679506, 6511679507, 6511679508, 6511679509, 6511679510, 6511679511, 6511679506], "tags": {"addr:housenumber": "1230", "addr:street": "Escalante Drive", "brand": "Goodwill", "brand:wikidata": "Q5583655", "building": "retail", "building:levels": "1", "name": "Goodwill", "opening_hours": "Mo-Sa 09:00-21:00; Su 09:00-19:00", "operator": "Discover Goodwill", "roof:shape": "flat", "shop": "charity", "website": "https://www.discovermygoodwill.org/shop/locations/"}}, {"type": "way", "id": 733460124, "nodes": [6868823422, 6868823425, 6868823424, 6868823423, 6868823429, 6868823426, 6868823427, 6868823428, 6868823422], "tags": {"addr:city": "Durango", "addr:housenumber": "265", "addr:postcode": "81303", "addr:state": "CO", "addr:street": "Turner Drive", "brand": "Rocky Mountain Chocolate Factory", "brand:wikidata": "Q7355878", "building": "yes", "name": "Rocky Mountain Chocolate Factory", "shop": "confectionery"}}, {"type": "way", "id": 777773675, "nodes": [9174510010, 7258554969, 7258554970, 7258554965, 9174510010], "tags": {"building": "yes", "name": "Durango Outdoor Exchange", "shop": "sports"}}, {"type": "way", "id": 777774374, "nodes": [7258559094, 7258559095, 7258559101, 7258559103, 7258559094], "tags": {"addr:city": "Durango", "addr:housenumber": "120", "addr:postcode": "81301", "addr:state": "CO", "addr:street": "East 36th Street", "building": "yes", "name": "Rocky Mountain High - Durango's \"Canna Castle\"", "shop": "cannabis"}}, {"type": "way", "id": 777789564, "nodes": [7258778066, 7258778054, 7258778055, 7258778057, 7258778066], "tags": {"addr:city": "Durango", "addr:housenumber": "40", "addr:postcode": "81301", "addr:state": "CO", "addr:street": "Town Plaza", "building": "yes", "name": "Durango Joes Coffee", "shop": "coffee"}}, {"type": "way", "id": 777789574, "nodes": [1301314938, 7258778155, 7258778153, 7258778089, 1301314938], "tags": {"amenity": "restaurant", "building": "yes", "cuisine": "deli;sushi", "name": "2nd Deli & Spirits"}}, {"type": "way", "id": 777789730, "nodes": [7258778878, 7258778887, 7258778885, 7258778883, 7258778878], "tags": {"addr:city": "Durango", "addr:housenumber": "1205", "addr:postcode": "81301", "addr:state": "CO", "addr:street": "Camino del Rio", "building": "yes", "name": "Backcountry Experience", "shop": "outdoor"}}, {"type": "way", "id": 777789871, "nodes": [4706767180, 7258770712, 7258770701, 7258770704, 4706767180], "tags": {"amenity": "cafe", "building": "yes", "indoor_seating": "yes", "name": "Doughworks", "opening_hours": "Mo-Su 07:00-13:00", "outdoor_seating": "no", "payment:credit_cards": "yes", "payment:debit_cards": "yes"}}, {"type": "way", "id": 777790476, "nodes": [7255948233, 7258781602, 7258781594, 7258781595, 7258781596, 7258781597, 7255948233], "tags": {"addr:housenumber": "1301", "addr:street": "Florida Road", "amenity": "bar", "building": "yes", "name": "J Bo Pizza"}}, {"type": "way", "id": 777791592, "nodes": [7258787190, 7258787188, 7258787199, 7258787197, 7258787196, 7258787195, 7258787190], "tags": {"addr:city": "Durango", "addr:housenumber": "2876", "addr:postcode": "81301", "addr:state": "CO", "addr:street": "Main Avenue", "building": "yes", "name": "Durango Smoke Shop", "shop": "tobacco"}}, {"type": "way", "id": 777791750, "nodes": [7258787963, 7258787962, 7258787961, 7258787960, 7258787963], "tags": {"addr:city": "Durango", "addr:housenumber": "2817", "addr:postcode": "81301", "addr:state": "CO", "addr:street": "Main Avenue", "amenity": "cafe", "brand": "Starbucks", "brand:wikidata": "Q37158", "building": "yes", "cuisine": "coffee_shop", "name": "Starbucks", "official_name": "Starbucks Coffee", "takeaway": "yes"}}, {"type": "way", "id": 777791789, "nodes": [7258788485, 7258788502, 7258788500, 7258788498, 7258788485], "tags": {"addr:city": "Durango", "addr:housenumber": "1525", "addr:postcode": "81301", "addr:state": "CO", "addr:street": "Main Avenue", "amenity": "restaurant", "building": "yes", "name": "China Cafe"}}, {"type": "way", "id": 777791831, "nodes": [7258788684, 7258788685, 7258788688, 7258788689, 7258788684], "tags": {"addr:city": "Durango", "addr:housenumber": "143", "addr:postcode": "81301", "addr:state": "CO", "addr:street": "East 13th Street", "building": "yes", "name": "Durango Cyclery", "shop": "bicycle"}}, {"type": "way", "id": 777792135, "nodes": [7258790067, 7258790061, 7258790068, 7258790069, 7258790067], "tags": {"addr:city": "Durango", "addr:housenumber": "955", "addr:postcode": "81301", "addr:state": "CO", "addr:street": "CO-3", "amenity": "restaurant", "building": "yes", "name": "Highway 3 Roadhouse & Oyster Bar"}}, {"type": "way", "id": 777792337, "nodes": [7258791049, 7258791051, 9207754208, 9207754209, 9207754211, 7258791058, 7258791059, 7258791049], "tags": {"addr:city": "Durango", "addr:housenumber": "431", "addr:postcode": "81301", "addr:state": "CO", "addr:street": "East 2nd Avenue", "amenity": "restaurant", "building": "yes", "cuisine": "mexican", "name": "Gazpacho Restaurant"}}, {"type": "way", "id": 777792371, "nodes": [7258791203, 7258791189, 7258791188, 7258791187, 7258791203], "tags": {"addr:city": "Durango", "addr:housenumber": "3000", "addr:postcode": "81301", "addr:state": "CO", "addr:street": "Main Avenue", "amenity": "pub", "building": "yes", "microbrewery": "yes", "name": "Durango Beer & Ice Company & High Trestle Brewing Company"}}, {"type": "way", "id": 777793762, "nodes": [7255951401, 7258798023, 7258798024, 7258798020, 7255951401], "tags": {"addr:housenumber": "3124", "addr:street": "Main Avenue", "building": "yes", "name": "Mac's Liquor", "shop": "alcohol"}}, {"type": "way", "id": 958671236, "nodes": [8870147491, 8870147487, 8870147495, 8870147490, 8870147491], "tags": {"addr:city": "Durango", "addr:country": "US", "addr:housenumber": "331", "addr:state": "CO", "addr:street": "Frontage Road", "amenity": "restaurant", "building": "yes", "cuisine": "coffee_shop", "name": "Durango Joes Coffee"}}, {"type": "way", "id": 997148150, "nodes": [9207547911, 9207547902, 9207547901, 9207547905, 9207547910, 9207547911], "tags": {"addr:city": "Durango", "addr:housenumber": "658", "addr:postcode": "81301", "addr:state": "CO", "addr:street": "Main Avenue", "building": "yes", "name": "Good Karma", "shop": "clothes"}}, {"type": "way", "id": 997411240, "nodes": [7255951413, 9209763160, 9209763161, 9209763162, 9209763163, 9209763164, 9209763168, 7255951413], "tags": {"addr:housenumber": "3130", "addr:street": "Main Avenue", "brand": "City Market", "brand:wikidata": "Q5123299", "building": "yes", "name": "City Market", "shop": "supermarket", "website": "https://www.citymarket.com/stores/grocery/co/durango/durango/620/00421"}}, {"type": "way", "id": 1164477287, "nodes": [10829983364, 10829983366, 10829983367, 10829983368, 10829983369, 10829983370, 10829983371, 10829983372, 10829983373, 10829983374, 10829983375, 10829983376, 10829983377, 10829983378, 10829983364], "tags": {"addr:housenumber": "2977", "addr:street": "Main Avenue", "amenity": "restaurant", "building": "yes", "cuisine": "mexican", "name": "Zia Taqueria", "website": "https://ziataqueria.com/"}}, {"type": "way", "id": 1189281579, "nodes": [11043200657, 11043200658, 11043200659, 11043200660, 11043200661, 11043200662, 11043200657], "tags": {"addr:city": "Durango", "addr:housenumber": "1400", "addr:postcode": "81301", "addr:state": "CO", "addr:street": "East 2nd Avenue", "amenity": "restaurant", "building": "yes", "name": "Famburger"}}]}