{"version": 0.6, "generator": "Overpass API 0.7.62.1 084b4234", "osm3s": {"timestamp_osm_base": "2024-05-03T16:31:45Z", "copyright": "The data included in this document is from www.openstreetmap.org. The data is made available under ODbL."}, "elements": [{"type": "node", "id": 702784305, "lat": 38.5725173, "lon": -109.5499364, "tags": {"addr:city": "Moab", "addr:housenumber": "57", "addr:postcode": "84532", "addr:state": "UT", "addr:street": "South Main Street", "amenity": "restaurant", "cuisine": "american", "internet_access": "wlan", "internet_access:fee": "no", "name": "Eddie McStiff's", "phone": "+1 435 2592337", "website": "http://www.eddiemcstiffs.com"}}, {"type": "node", "id": 702784307, "lat": 38.5626985, "lon": -109.5496464, "tags": {"addr:city": "Moab", "addr:housenumber": "686", "addr:postcode": "84532", "addr:state": "UT", "addr:street": "South Main Street", "amenity": "restaurant", "brewery": "Moab Brewery", "cuisine": "american", "microbrewery": "yes", "name": "Moab Brewery", "phone": "+1 435 2596333", "website": "http://www.themoabbrewery.com"}}, {"type": "node", "id": 889348288, "lat": 38.5719329, "lon": -109.551034, "tags": {"amenity": "restaurant", "cuisine": "pizza", "name": "Zax Pizza", "opening_hours": "Su-Th 11:00-21:00; Fr,Sa 11:00-21:30"}}, {"type": "node", "id": 917068280, "lat": 38.5723966, "lon": -109.551019, "tags": {"addr:city": "Moab", "addr:housenumber": "74", "addr:postcode": "84532", "addr:state": "UT", "addr:street": "South Main Street", "amenity": "cafe", "facebook": "moabredrockbakery", "internet_access": "wlan", "internet_access:fee": "no", "internet_access:ssid": "Red Rock Bakery Guest", "name": "Red Rock Bakery and Cafe", "outdoor_seating": "no", "phone": "+1 435-259-5941", "start_date": "1997", "takeaway": "yes", "toilets": "yes"}}, {"type": "node", "id": 917068287, "lat": 38.5723421, "lon": -109.5500963, "tags": {"amenity": "cafe", "name": "Wake & Bake Cafe"}}, {"type": "node", "id": 917068293, "lat": 38.567653, "lon": -109.542554, "tags": {"amenity": "restaurant", "name": "Milt's Stop & Eat", "opening_hours": "Mo-Su 11:00-20:00"}}, {"type": "node", "id": 917068299, "lat": 38.5693943, "lon": -109.5503013}, {"type": "node", "id": 917068307, "lat": 38.5769512, "lon": -109.5516772, "tags": {"amenity": "pub", "name": "Frankie D's Bar & Grill"}}, {"type": "node", "id": 917068308, "lat": 38.5766506, "lon": -109.5524493}, {"type": "node", "id": 917068311, "lat": 38.5754376, "lon": -109.55095, "tags": {"addr:city": "Moab", "addr:housenumber": "125", "addr:postcode": "84532", "addr:state": "UT", "addr:street": "North Main Stree", "amenity": "cafe", "cuisine": "donut;chicken", "name": "Doughbird"}}, {"type": "node", "id": 917068317, "lat": 38.5750564, "lon": -109.5510228, "tags": {"amenity": "restaurant", "name": "Jailhouse Cafe"}}, {"type": "node", "id": 917068334, "lat": 38.5730936, "lon": -109.549231, "tags": {"addr:city": "Moab", "addr:housenumber": "90", "addr:state": "UT", "addr:street": "East Center Street", "amenity": "restaurant", "cuisine": "sushi", "diet:vegan": "yes", "name": "Sabaku Sushi", "opening_hours": "Tu-Sa \"17:00-close\"; Su,Mo off", "phone": "435-259-4455", "website": "https://www.sabakusushi.com/"}}, {"type": "node", "id": 917068346, "lat": 38.5819004, "lon": -109.551773, "tags": {"addr:city": "Moab", "addr:housenumber": "574", "addr:postcode": "84532", "addr:state": "UT", "addr:street": "North Main Street", "amenity": "restaurant", "cuisine": "mediterranean", "name": "Sultan Mediterranean Grill", "phone": "+1-435-3550-0700", "website": "https://sultanmoab.com"}}, {"type": "node", "id": 917068387, "lat": 38.5739043, "lon": -109.551024, "tags": {"addr:city": "Moab", "addr:housenumber": "51", "addr:postcode": "84532", "addr:state": "UT", "addr:street": "North Main Street", "amenity": "restaurant", "cuisine": "mexican", "name": "Miguel's Baja Grill"}}, {"type": "node", "id": 917068394, "lat": 38.5697422, "lon": -109.5513763}, {"type": "node", "id": 917068396, "lat": 38.5704086, "lon": -109.5513554, "tags": {"amenity": "restaurant", "name": "Pancake Haus"}}, {"type": "node", "id": 1394127702, "lat": 38.5710007, "lon": -109.5500597}, {"type": "node", "id": 1394127708, "lat": 38.5711842, "lon": -109.5499806}, {"type": "node", "id": 1394127772, "lat": 38.5710668, "lon": -109.5503105}, {"type": "node", "id": 1437232665, "lat": 38.5705261, "lon": -109.5506515}, {"type": "node", "id": 1437232669, "lat": 38.5704488, "lon": -109.5501906}, {"type": "node", "id": 1437232670, "lat": 38.5704453, "lon": -109.5506505}, {"type": "node", "id": 1437232671, "lat": 38.5705295, "lon": -109.5501915}, {"type": "node", "id": 1437234346, "lat": 38.57296, "lon": -109.5512468}, {"type": "node", "id": 1437234348, "lat": 38.5729601, "lon": -109.5511123}, {"type": "node", "id": 1437234350, "lat": 38.5731117, "lon": -109.5512174}, {"type": "node", "id": 1437234351, "lat": 38.5731434, "lon": -109.5509599}, {"type": "node", "id": 1437234353, "lat": 38.5731117, "lon": -109.5512471}, {"type": "node", "id": 1437234354, "lat": 38.5731431, "lon": -109.5512174}, {"type": "node", "id": 1437234356, "lat": 38.5729961, "lon": -109.5509596}, {"type": "node", "id": 1446006750, "lat": 38.5656792, "lon": -109.5506597}, {"type": "node", "id": 1446006751, "lat": 38.5654697, "lon": -109.5508439}, {"type": "node", "id": 1446006752, "lat": 38.5654805, "lon": -109.5507677}, {"type": "node", "id": 1446006753, "lat": 38.5654333, "lon": -109.5506986}, {"type": "node", "id": 1446006754, "lat": 38.5656473, "lon": -109.5508851}, {"type": "node", "id": 1446006755, "lat": 38.5653984, "lon": -109.5507487}, {"type": "node", "id": 1446006756, "lat": 38.5654064, "lon": -109.5506924}, {"type": "node", "id": 1446006757, "lat": 38.5654464, "lon": -109.5506057}, {"type": "node", "id": 1899509112, "lat": 38.5729959, "lon": -109.5511123}, {"type": "node", "id": 1961683415, "lat": 38.5604646, "lon": -109.5478488}, {"type": "node", "id": 1961683419, "lat": 38.5605497, "lon": -109.5479242}, {"type": "node", "id": 1961683426, "lat": 38.5605806, "lon": -109.5476346}, {"type": "node", "id": 1961683429, "lat": 38.5606657, "lon": -109.54771}, {"type": "node", "id": 1961683498, "lat": 38.561815, "lon": -109.547735}, {"type": "node", "id": 1961683501, "lat": 38.5618157, "lon": -109.5475099}, {"type": "node", "id": 1961683504, "lat": 38.562034, "lon": -109.5477361}, {"type": "node", "id": 1961683507, "lat": 38.5620347, "lon": -109.547511}, {"type": "node", "id": 1961684013, "lat": 38.5693943, "lon": -109.5505605}, {"type": "node", "id": 1961684056, "lat": 38.5695059, "lon": -109.5503013}, {"type": "node", "id": 1961684058, "lat": 38.5695059, "lon": -109.5505605}, {"type": "node", "id": 1961684085, "lat": 38.5696941, "lon": -109.5509787}, {"type": "node", "id": 1961684088, "lat": 38.5696941, "lon": -109.5513763}, {"type": "node", "id": 1961684113, "lat": 38.5697422, "lon": -109.5514422}, {"type": "node", "id": 1961684124, "lat": 38.5698315, "lon": -109.5509787}, {"type": "node", "id": 1961684128, "lat": 38.5698522, "lon": -109.5514422}, {"type": "node", "id": 1961684283, "lat": 38.570696, "lon": -109.5501561}, {"type": "node", "id": 1961684285, "lat": 38.570696, "lon": -109.5504967}, {"type": "node", "id": 1961684292, "lat": 38.5708197, "lon": -109.5501561}, {"type": "node", "id": 1961684294, "lat": 38.5708197, "lon": -109.5504967}, {"type": "node", "id": 2028762963, "lat": 38.5935874, "lon": -109.5671877}, {"type": "node", "id": 2028762964, "lat": 38.5936937, "lon": -109.5670749}, {"type": "node", "id": 2028762966, "lat": 38.5937177, "lon": -109.5673885}, {"type": "node", "id": 2028762969, "lat": 38.5937619, "lon": -109.5673416}, {"type": "node", "id": 2028762974, "lat": 38.5938271, "lon": -109.5674421}, {"type": "node", "id": 2028762977, "lat": 38.5938892, "lon": -109.5673762}, {"type": "node", "id": 3092279979, "lat": 38.566763, "lon": -109.549091, "tags": {"amenity": "cafe", "brand": "Starbucks", "brand:wikidata": "Q37158", "contact:website": "https://www.starbucks.com/store-locator/store/7330/city-market-moab-410-425-s-main-st-moab-ut-845322921-us", "cuisine": "coffee_shop", "name": "Starbucks", "official_name": "Starbucks Coffee", "takeaway": "yes"}}, {"type": "node", "id": 3442181237, "lat": 38.5747102, "lon": -109.5509768, "tags": {"amenity": "restaurant", "name": "Quesadilla Mobilla"}}, {"type": "node", "id": 3669185799, "lat": 38.5575015, "lon": -109.5250932, "tags": {"amenity": "bar", "name": "Gravel Pit Lanes"}}, {"type": "node", "id": 4470461789, "lat": 38.5712503, "lon": -109.5502314}, {"type": "node", "id": 5235016527, "lat": 38.5727989, "lon": -109.5531213}, {"type": "node", "id": 5237407821, "lat": 38.572355, "lon": -109.549931, "tags": {"amenity": "restaurant", "name": "Bangkok House Too"}}, {"type": "node", "id": 5559135381, "lat": 38.5741587, "lon": -109.5521175}, {"type": "node", "id": 5559135382, "lat": 38.5741624, "lon": -109.5525322}, {"type": "node", "id": 5559135383, "lat": 38.5742709, "lon": -109.5521159}, {"type": "node", "id": 5559135384, "lat": 38.5742746, "lon": -109.5525306}, {"type": "node", "id": 5560875623, "lat": 38.5731206, "lon": -109.5490513, "tags": {"addr:housenumber": "98", "addr:street": "East Center Street", "amenity": "restaurant", "cuisine": "vietnamese", "internet_access": "wlan", "name": "98 Center"}}, {"type": "node", "id": 5731324449, "lat": 38.5733466, "lon": -109.552973, "tags": {"amenity": "restaurant", "bar": "yes", "cuisine": "barbecue", "name": "Spitfire Smokehouse BBQ & Taps", "opening_hours": "Mo-Su 12:00-01:00", "opening_hours:kitchen": "Mo-Su 12:00-21:30", "outdoor_seating": "yes", "phone": "+1 435-259-2654", "takeaway": "yes", "website": "https://www.spitfiresmokehousemoab.com/", "wheelchair": "yes"}}, {"type": "node", "id": 5731324450, "lat": 38.5734479, "lon": -109.5510332, "tags": {"addr:city": "Moab", "addr:housenumber": "5", "addr:state": "UT", "addr:street": "North Main Street", "amenity": "restaurant", "cuisine": "american", "name": "The Spoke on Center"}}, {"type": "node", "id": 5731324451, "lat": 38.5742646, "lon": -109.550577, "tags": {"addr:city": "Moab", "addr:housenumber": "78", "addr:state": "UT", "addr:street": "North Main Street", "amenity": "cafe", "cuisine": "sandwich", "name": "Moab Garage", "outdoor_seating": "yes", "phone": "+1 435-554-8467", "takeaway": "yes"}}, {"type": "node", "id": 6547698229, "lat": 38.5872329, "lon": -109.5559268}, {"type": "node", "id": 6547698230, "lat": 38.5872427, "lon": -109.5559188}, {"type": "node", "id": 6547698231, "lat": 38.587333, "lon": -109.5558098}, {"type": "node", "id": 6547698232, "lat": 38.5873128, "lon": -109.5558258}, {"type": "node", "id": 6547698233, "lat": 38.5873521, "lon": -109.5559058}, {"type": "node", "id": 6547698234, "lat": 38.5873635, "lon": -109.5558958}, {"type": "node", "id": 6547698235, "lat": 38.5874287, "lon": -109.5560278}, {"type": "node", "id": 6547698236, "lat": 38.5872632, "lon": -109.5556688}, {"type": "node", "id": 6547698237, "lat": 38.5871578, "lon": -109.5557812}, {"type": "node", "id": 6547698238, "lat": 38.5873344, "lon": -109.5561038}, {"type": "node", "id": 6626908585, "lat": 38.5671181, "lon": -109.5510913, "tags": {"amenity": "restaurant", "internet_access": "wlan", "name": "Giliberto's Mexican Taco Shop"}}, {"type": "node", "id": 6721988405, "lat": 38.574507, "lon": -109.5503506, "tags": {"amenity": "cafe", "internet_access": "wlan", "internet_access:fee": "no", "name": "Moab Coffee Roasters", "outdoor_seating": "yes"}}, {"type": "node", "id": 6933487918, "lat": 38.5772926, "lon": -109.551212, "tags": {"addr:city": "Moab", "addr:housenumber": "267", "addr:postcode": "84532", "addr:state": "UT", "addr:street": "North Main Street", "amenity": "restaurant", "cuisine": "pizza;italian", "name": "Antica Forma", "opening_hours": "Mo-Su 11:00-21:00", "phone": "+1 435 355 0167", "website": "http://www.anticaforma.com/"}}, {"type": "node", "id": 9245011420, "lat": 38.5791115, "lon": -109.560966, "tags": {"addr:housenumber": "495", "addr:postcode": "84532", "addr:state": "UT", "addr:street": "West 400 North", "amenity": "cafe", "cuisine": "coffee_shop", "name": "Snake Oil Coffee Company", "opening_hours": "Mo-Su 07:00-14:00", "website": "https://snakeoilcoffeeco.com/"}}, {"type": "node", "id": 9780174337, "lat": 38.5737108, "lon": -109.5539833, "tags": {"addr:city": "Moab", "addr:housenumber": "180", "addr:postcode": "84532", "addr:state": "UT", "addr:street": "West Center Street", "amenity": "restaurant", "contact:facebook": "moabkitchen", "contact:instagram": "moabkitchen", "diet:vegan": "only", "email": "moabkitchen@gmail.com", "name": "Moab Kitchen", "opening_hours": "Th-Sa 15:00-21:00; Su 10:00-15:00", "outdoor_seating": "yes", "website": "https://moabkitchen.com/"}}, {"type": "node", "id": 9980811537, "lat": 38.5742671, "lon": -109.550356, "tags": {"amenity": "pub", "name": "The raven room", "opening_hours": "Th-Su 06:30-22:30"}}, {"type": "node", "id": 9980839135, "lat": 38.5750048, "lon": -109.5505893, "tags": {"amenity": "restaurant", "name": "Trailhead public house & eatery"}}, {"type": "node", "id": 10236378661, "lat": 38.5872061, "lon": -109.5557616}, {"type": "node", "id": 10236378662, "lat": 38.5871959, "lon": -109.5557242}, {"type": "node", "id": 10236378663, "lat": 38.5872337, "lon": -109.5557084}, {"type": "node", "id": 10236378664, "lat": 38.5872353, "lon": -109.5556798}, {"type": "node", "id": 10578134704, "lat": 38.572563, "lon": -109.5531196}, {"type": "node", "id": 10578134705, "lat": 38.5725638, "lon": -109.5529279}, {"type": "node", "id": 10578134706, "lat": 38.5727997, "lon": -109.5529295}, {"type": "node", "id": 10681398081, "lat": 38.5705255, "lon": -109.5524647, "tags": {"addr:city": "Moab", "addr:housenumber": "100", "addr:postcode": "84532", "addr:state": "UT", "addr:street": "West 200 South", "amenity": "cafe", "internet_access": "wlan", "internet_access:fee": "no", "name": "Cafe & Lounge Italiano", "opening_hours": "Mo-Su 07:00-11:00", "outdoor_seating": "yes", "phone": "+1 832-482-7946", "takeaway": "yes", "website": "https://www.cafeloungeitaliano.com/"}}, {"type": "node", "id": 10915422944, "lat": 38.5698315, "lon": -109.5510896}, {"type": "node", "id": 10915422945, "lat": 38.5698522, "lon": -109.5510896}, {"type": "node", "id": 10915422946, "lat": 38.5698295, "lon": -109.5511405}, {"type": "node", "id": 10915422947, "lat": 38.5698295, "lon": -109.5512009}, {"type": "node", "id": 10915422948, "lat": 38.5698522, "lon": -109.5511405}, {"type": "node", "id": 10915422949, "lat": 38.5698522, "lon": -109.5512009}, {"type": "node", "id": 10917188716, "lat": 38.5766534, "lon": -109.5523378}, {"type": "node", "id": 10917188717, "lat": 38.5767061, "lon": -109.5523399}, {"type": "node", "id": 10917188718, "lat": 38.5767068, "lon": -109.552311}, {"type": "node", "id": 10917188719, "lat": 38.5767901, "lon": -109.5523144}, {"type": "node", "id": 10917188720, "lat": 38.5767866, "lon": -109.5524548}, {"type": "way", "id": 125548650, "nodes": [4470461789, 1394127708, 1394127702, 1394127772, 4470461789], "tags": {"amenity": "restaurant", "building": "yes", "cuisine": "mexican", "name": "El Tapatio", "name:zh": "\u56db\u5ddd\u6995\u4e2d\u9910\u9986"}}, {"type": "way", "id": 130513805, "nodes": [1437232665, 1437232670, 1437232669, 1437232671, 1437232665], "tags": {"amenity": "restaurant", "building": "yes", "cuisine": "american", "name": "Moab Diner"}}, {"type": "way", "id": 130513821, "nodes": [1437234354, 1437234350, 1437234353, 1437234346, 1437234348, 1899509112, 1437234356, 1437234351, 1437234354], "tags": {"addr:city": "Moab", "addr:housenumber": "4", "addr:postcode": "84532", "addr:state": "UT", "addr:street": "South Main Street", "amenity": "restaurant", "building": "yes", "name": "Pasta Jay's", "phone": "+1-435-259-2900", "website": "https://www.pastajays.com/"}}, {"type": "way", "id": 131372922, "nodes": [1446006754, 1446006750, 1446006757, 1446006753, 1446006756, 1446006755, 1446006752, 1446006751, 1446006754], "tags": {"addr:city": "Moab", "addr:housenumber": "540", "addr:state": "UT", "addr:street": "South Main Street", "amenity": "restaurant", "contact:phone": "+1 435-259-4848", "contact:website": "https://www.moabgrillrestaurant.com", "cuisine": "american;burger;fish;fish_and_chips;pasta;pizza;sandwich", "diet:vegetarian": "yes", "name": "Moab Grill", "opening_hours": "Mo-Su 07:00-22:00", "opening_hours:url": "https://www.moabgrillrestaurant.com/", "outdoor_seating": "yes", "smoking": "no", "takeaway": "yes"}}, {"type": "way", "id": 185544363, "nodes": [1961683504, 1961683507, 1961683501, 1961683498, 1961683504], "tags": {"addr:city": "Moab", "addr:housenumber": "811", "addr:postcode": "84532", "addr:state": "UT", "addr:street": "South Main Street", "amenity": "restaurant", "building": "yes", "name": "Blu Pig", "phone": "+1 435 2593333", "website": "http://www.blupigbbq.com"}}, {"type": "way", "id": 185544385, "nodes": [1961684294, 1961684292, 1961684283, 1961684285, 1961684294], "tags": {"amenity": "pub", "building": "yes", "name": "Woody's Tavern", "outdoor_seating": "yes"}}, {"type": "way", "id": 185544390, "nodes": [1961683415, 1961683419, 1961683429, 1961683426, 1961683415], "tags": {"amenity": "restaurant", "building": "retail", "cuisine": "mexican", "name": "El Charro Loco"}}, {"type": "way", "id": 185544445, "nodes": [1961684058, 1961684056, 917068299, 1961684013, 1961684058], "tags": {"amenity": "restaurant", "brand": "Pizza Hut", "brand:wikidata": "Q191615", "building": "commercial", "contact:website": "https://locations.pizzahut.com/ut/moab/265-s-main-st", "cuisine": "pizza", "name": "Pizza Hut"}}, {"type": "way", "id": 185544452, "nodes": [917068394, 1961684113, 1961684128, 10915422949, 10915422947, 10915422946, 10915422948, 10915422945, 10915422944, 1961684124, 1961684085, 1961684088, 917068394], "tags": {"addr:city": "Moab", "addr:housenumber": "202", "addr:state": "UT", "addr:street": "South Main Street", "amenity": "restaurant", "building": "yes", "building:levels": "1", "cuisine": "mexican", "name": "Fiesta Mexicana"}}, {"type": "way", "id": 192315983, "nodes": [2028762977, 2028762964, 2028762963, 2028762966, 2028762969, 2028762974, 2028762977], "tags": {"addr:city": "Moab", "addr:housenumber": "1393", "addr:postcode": "84532", "addr:state": "UT", "addr:street": "US 191", "amenity": "restaurant", "bar": "yes", "building": "yes", "cuisine": "burger", "microbrewery": "yes", "name": "Proper Brewing", "outdoor_seating": "yes", "start_date": "2023-02"}}, {"type": "way", "id": 580847782, "nodes": [5559135382, 5559135381, 5559135383, 5559135384, 5559135382], "tags": {"addr:city": "Moab", "addr:housenumber": "60", "addr:postcode": "84532", "addr:state": "UT", "addr:street": "North 100 West", "amenity": "restaurant", "building": "yes", "cuisine": "thai", "email": "archesthai@gmail.com", "name": "Arches Thai", "opening_hours": "We-Mo 11:00-21:00", "phone": "+1-435-355-0533", "website": "http://www.archesthai.com"}}, {"type": "way", "id": 697149883, "nodes": [6547698238, 6547698235, 6547698234, 6547698233, 6547698232, 6547698231, 6547698236, 10236378664, 10236378663, 10236378662, 10236378661, 6547698237, 6547698229, 6547698230, 6547698238], "tags": {"amenity": "restaurant", "brand": "Sunset Grill", "brand:wikidata": "Q62112489", "building": "yes", "cuisine": "american", "name": "Sunset Grill", "opening_hours": "Mo-Sa 16:00-21:30", "phone": "+1 435 259 7146", "website": "https://moabsunsetgrill.com/"}}, {"type": "way", "id": 1134693858, "nodes": [5235016527, 10578134704, 10578134705, 10578134706, 5235016527], "tags": {"addr:city": "Moab", "addr:housenumber": "36", "addr:postcode": "84532", "addr:state": "UT", "addr:street": "South 100 West", "amenity": "restaurant", "cuisine": "regional", "name": "Desert Bistro", "phone": "+1-435-259-0756"}}, {"type": "way", "id": 1174898621, "nodes": [10917188720, 10917188719, 10917188718, 10917188717, 10917188716, 917068308, 10917188720], "tags": {"addr:city": "Moab", "addr:housenumber": "218", "addr:postcode": "84532", "addr:state": "UT", "addr:street": "North 100 West", "amenity": "restaurant", "building": "detached", "building:levels": "2", "cuisine": "thai", "name": "Thai Bella", "outdoor_seating": "yes", "phone": "+1-435-355-0555", "takeaway": "yes"}}]}