{"version": 0.6, "generator": "Overpass API 0.7.61.5 4133829e", "osm3s": {"timestamp_osm_base": "2024-02-25T12:48:45Z", "copyright": "The data included in this document is from www.openstreetmap.org. The data is made available under ODbL."}, "elements": [{"type": "node", "id": 356676486, "lat": 38.5816488, "lon": -109.5540062, "tags": {"amenity": "place_of_worship", "denomination": "baptist", "ele": "1226", "gnis:county_id": "019", "gnis:created": "02/25/1989", "gnis:feature_id": "1436700", "gnis:state_id": "49", "name": "Community Baptist Church", "religion": "christian"}}, {"type": "node", "id": 356676494, "lat": 38.5671068, "lon": -109.5530353, "tags": {"amenity": "place_of_worship", "ele": "1256", "gnis:county_id": "019", "gnis:created": "02/25/1989", "gnis:feature_id": "1436703", "gnis:state_id": "49", "name": "Episcopal Church of Saint Francis", "religion": "christian"}}, {"type": "node", "id": 356676515, "lat": 38.5797043, "lon": -109.5581729, "tags": {"amenity": "place_of_worship", "denomination": "lutheran", "ele": "1218", "gnis:county_id": "019", "gnis:created": "02/25/1989", "gnis:feature_id": "1436724", "gnis:state_id": "49", "name": "Grace Lutheran Church", "religion": "christian"}}, {"type": "node", "id": 356676913, "lat": 38.5687491, "lon": -109.5375781}, {"type": "node", "id": 366385452, "lat": 38.5725363, "lon": -109.5485313, "tags": {"addr:city": "Moab", "addr:housenumber": "45", "addr:postcode": "84532", "addr:state": "UT", "addr:street": "South 100 East", "amenity": "fire_station", "gnis:county_name": "Grand", "gnis:import_uuid": "57871b70-0100-4405-bb30-88b2e001a944", "name": "Moab Valley Fire Department", "phone": "+1 435 259 5557", "website": "https://moabfiredepartment.org/about-us/"}}, {"type": "node", "id": 366385616, "lat": 38.5736374, "lon": -109.5479948, "tags": {"addr:state": "UT", "amenity": "courthouse", "ele": "1229", "gnis:county_name": "Grand", "gnis:feature_id": "2055924", "gnis:import_uuid": "57871b70-0100-4405-bb30-88b2e001a944", "name": "Grand County Courthouse"}}, {"type": "node", "id": 366385702, "lat": 38.573948, "lon": -109.54644, "tags": {"addr:state": "UT", "amenity": "police", "ele": "1224", "gnis:county_name": "Grand", "gnis:feature_id": "2055920", "gnis:import_uuid": "57871b70-0100-4405-bb30-88b2e001a944", "name": "Moab Police Department"}}, {"type": "node", "id": 368981774, "lat": 38.5743262, "lon": -109.5611297}, {"type": "node", "id": 694810064, "lat": 38.5745447, "lon": -109.5472263, "tags": {"amenity": "school", "name": "C R Sundwall Preschool"}}, {"type": "node", "id": 694810102, "lat": 38.5683878, "lon": -109.5434927, "tags": {"amenity": "school", "name": "Moab Community School"}}, {"type": "node", "id": 702784305, "lat": 38.5725173, "lon": -109.5499364, "tags": {"addr:city": "Moab", "addr:housenumber": "57", "addr:postcode": "84532", "addr:state": "UT", "addr:street": "South Main Street", "amenity": "restaurant", "cuisine": "american", "internet_access": "wlan", "internet_access:fee": "no", "name": "Eddie McStiff's", "phone": "+1 435 2592337", "website": "http://www.eddiemcstiffs.com"}}, {"type": "node", "id": 702784307, "lat": 38.5626985, "lon": -109.5496464, "tags": {"addr:city": "Moab", "addr:housenumber": "686", "addr:postcode": "84532", "addr:state": "UT", "addr:street": "South Main Street", "amenity": "restaurant", "brewery": "Moab Brewery", "cuisine": "american", "microbrewery": "yes", "name": "Moab Brewery", "phone": "+1 435 2596333", "website": "http://www.themoabbrewery.com"}}, {"type": "node", "id": 702784474, "lat": 38.5786522, "lon": -109.5509417, "tags": {"addr:city": "Moab", "addr:housenumber": "497", "addr:postcode": "84532", "addr:state": "UT", "addr:street": "North Main Street", "amenity": "bicycle_rental", "name": "Poison Spider Bicycles", "phone": "+1-435-259-7882", "shop": "bicycle"}}, {"type": "node", "id": 889348288, "lat": 38.5719329, "lon": -109.551034, "tags": {"amenity": "restaurant", "cuisine": "pizza", "name": "Zax Pizza", "opening_hours": "Su-Th 11:00-21:00; Fr,Sa 11:00-21:30"}}, {"type": "node", "id": 916930195, "lat": 38.5640273, "lon": -109.5515485, "tags": {"amenity": "cinema", "name": "Slickrock Cinemas 3", "wikidata": "Q43262522"}}, {"type": "node", "id": 916955252, "lat": 38.5650647, "lon": -109.5308322}, {"type": "node", "id": 916955256, "lat": 38.5674727, "lon": -109.5536084, "tags": {"amenity": "place_of_worship", "denomination": "baptist", "name": "Moab Baptist Church", "religion": "christian"}}, {"type": "node", "id": 917068280, "lat": 38.5723966, "lon": -109.551019, "tags": {"addr:city": "Moab", "addr:housenumber": "74", "addr:postcode": "84532", "addr:state": "UT", "addr:street": "South Main Street", "amenity": "cafe", "facebook": "moabredrockbakery", "internet_access": "wlan", "internet_access:fee": "no", "internet_access:ssid": "Red Rock Bakery Guest", "name": "Red Rock Bakery and Cafe", "outdoor_seating": "no", "phone": "+1 435-259-5941", "start_date": "1997", "takeaway": "yes", "toilets": "yes"}}, {"type": "node", "id": 917068286, "lat": 38.566789, "lon": -109.5510834, "tags": {"amenity": "fast_food", "name": "Teriyaki Stix"}}, {"type": "node", "id": 917068287, "lat": 38.5723421, "lon": -109.5500963, "tags": {"amenity": "cafe", "name": "Wake & Bake Cafe"}}, {"type": "node", "id": 917068293, "lat": 38.567653, "lon": -109.542554, "tags": {"amenity": "restaurant", "name": "Milt's Stop & Eat", "opening_hours": "Mo-Su 11:00-20:00"}}, {"type": "node", "id": 917068299, "lat": 38.5693943, "lon": -109.5503013}, {"type": "node", "id": 917068307, "lat": 38.5769512, "lon": -109.5516772, "tags": {"amenity": "pub", "name": "Frankie D's Bar & Grill"}}, {"type": "node", "id": 917068308, "lat": 38.5766506, "lon": -109.5524493}, {"type": "node", "id": 917068309, "lat": 38.5610761, "lon": -109.5466202, "tags": {"amenity": "fast_food", "name": "Leger's Sandwiches"}}, {"type": "node", "id": 917068311, "lat": 38.5754376, "lon": -109.55095, "tags": {"addr:city": "Moab", "addr:housenumber": "125", "addr:postcode": "84532", "addr:state": "UT", "addr:street": "North Main Stree", "amenity": "cafe", "cuisine": "donut;chicken", "name": "Doughbird"}}, {"type": "node", "id": 917068317, "lat": 38.5750564, "lon": -109.5510228, "tags": {"amenity": "restaurant", "name": "Jailhouse Cafe"}}, {"type": "node", "id": 917068329, "lat": 38.5771112, "lon": -109.5501346}, {"type": "node", "id": 917068334, "lat": 38.5730936, "lon": -109.549231, "tags": {"addr:city": "Moab", "addr:housenumber": "90", "addr:state": "UT", "addr:street": "East Center Street", "amenity": "restaurant", "cuisine": "sushi", "diet:vegan": "yes", "name": "Sabaku Sushi", "opening_hours": "Tu-Sa \"17:00-close\"; Su,Mo off", "phone": "435-259-4455", "website": "https://www.sabakusushi.com/"}}, {"type": "node", "id": 917068346, "lat": 38.5819004, "lon": -109.551773, "tags": {"addr:city": "Moab", "addr:housenumber": "574", "addr:postcode": "84532", "addr:state": "UT", "addr:street": "North Main Street", "amenity": "restaurant", "cuisine": "mediterranean", "name": "Sultan Mediterranean Grill", "phone": "+1-435-3550-0700", "website": "https://sultanmoab.com"}}, {"type": "node", "id": 917068387, "lat": 38.5739043, "lon": -109.551024, "tags": {"addr:city": "Moab", "addr:housenumber": "51", "addr:postcode": "84532", "addr:state": "UT", "addr:street": "North Main Street", "amenity": "restaurant", "cuisine": "mexican", "name": "Miguel's Baja Grill"}}, {"type": "node", "id": 917068392, "lat": 38.5666673, "lon": -109.5509584, "tags": {"amenity": "fast_food", "name": "Hogi Yogi"}}, {"type": "node", "id": 917068394, "lat": 38.5697422, "lon": -109.5513763}, {"type": "node", "id": 917068396, "lat": 38.5704086, "lon": -109.5513554, "tags": {"amenity": "restaurant", "name": "Pancake Haus"}}, {"type": "node", "id": 936466540, "lat": 38.5674141, "lon": -109.550424, "tags": {"amenity": "bicycle_rental", "name": "Moab Cyclery", "shop": "bicycle"}}, {"type": "node", "id": 937081831, "lat": 38.5784409, "lon": -109.5509913, "tags": {"amenity": "ice_cream", "craft": "photographer", "name": "Moab Action Shots", "website": "https://moabactionshots.com/"}}, {"type": "node", "id": 1246330223, "lat": 38.573861, "lon": -109.5460145}, {"type": "node", "id": 1246330234, "lat": 38.5738244, "lon": -109.5457399}, {"type": "node", "id": 1246330246, "lat": 38.5736817, "lon": -109.5460125}, {"type": "node", "id": 1246330250, "lat": 38.5738432, "lon": -109.54563}, {"type": "node", "id": 1246330290, "lat": 38.5739752, "lon": -109.5464965}, {"type": "node", "id": 1246330310, "lat": 38.5739334, "lon": -109.546317}, {"type": "node", "id": 1246330371, "lat": 38.5736797, "lon": -109.546316}, {"type": "node", "id": 1246330425, "lat": 38.5737297, "lon": -109.5458062}, {"type": "node", "id": 1246330427, "lat": 38.5739293, "lon": -109.546496}, {"type": "node", "id": 1246330431, "lat": 38.5734469, "lon": -109.5456326}, {"type": "node", "id": 1246330468, "lat": 38.5738432, "lon": -109.5457533}, {"type": "node", "id": 1246330470, "lat": 38.5739291, "lon": -109.5465266}, {"type": "node", "id": 1246330485, "lat": 38.5735056, "lon": -109.5458284}, {"type": "node", "id": 1246330508, "lat": 38.57373, "lon": -109.5458269}, {"type": "node", "id": 1246330539, "lat": 38.5738246, "lon": -109.5458555}, {"type": "node", "id": 1246330576, "lat": 38.5735427, "lon": -109.5465224}, {"type": "node", "id": 1246330608, "lat": 38.5737363, "lon": -109.5452947}, {"type": "node", "id": 1246330659, "lat": 38.5735441, "lon": -109.5463145}, {"type": "node", "id": 1246330661, "lat": 38.5739332, "lon": -109.5463449}, {"type": "node", "id": 1246330693, "lat": 38.5735077, "lon": -109.5457372}, {"type": "node", "id": 1246330827, "lat": 38.5739762, "lon": -109.5463454}, {"type": "node", "id": 1246330842, "lat": 38.57373, "lon": -109.5455897}, {"type": "node", "id": 1246330890, "lat": 38.573859, "lon": -109.5463162}, {"type": "node", "id": 1246330912, "lat": 38.5734196, "lon": -109.5456165}, {"type": "node", "id": 1246330947, "lat": 38.5735098, "lon": -109.5452947}, {"type": "node", "id": 1246330953, "lat": 38.5734301, "lon": -109.5457051}, {"type": "node", "id": 1246330955, "lat": 38.5734406, "lon": -109.5454905}, {"type": "node", "id": 1246330986, "lat": 38.5735119, "lon": -109.5455093}, {"type": "node", "id": 1331420660, "lat": 38.5632635, "lon": -109.5500359}, {"type": "node", "id": 1331420670, "lat": 38.5634502, "lon": -109.5496894}, {"type": "node", "id": 1331420690, "lat": 38.5631656, "lon": -109.5499577}, {"type": "node", "id": 1331420696, "lat": 38.5635895, "lon": -109.5518371, "tags": {"amenity": "parking", "parking": "surface"}}, {"type": "node", "id": 1331420700, "lat": 38.5633462, "lon": -109.5496063}, {"type": "node", "id": 1394127702, "lat": 38.5710007, "lon": -109.5500597}, {"type": "node", "id": 1394127708, "lat": 38.5711842, "lon": -109.5499806}, {"type": "node", "id": 1394127772, "lat": 38.5710668, "lon": -109.5503105}, {"type": "node", "id": 1437232665, "lat": 38.5705261, "lon": -109.5506515}, {"type": "node", "id": 1437232669, "lat": 38.5704488, "lon": -109.5501906}, {"type": "node", "id": 1437232670, "lat": 38.5704453, "lon": -109.5506505}, {"type": "node", "id": 1437232671, "lat": 38.5705295, "lon": -109.5501915}, {"type": "node", "id": 1437234346, "lat": 38.57296, "lon": -109.5512468}, {"type": "node", "id": 1437234348, "lat": 38.5729601, "lon": -109.5511123}, {"type": "node", "id": 1437234350, "lat": 38.5731117, "lon": -109.5512174}, {"type": "node", "id": 1437234351, "lat": 38.5731434, "lon": -109.5509599}, {"type": "node", "id": 1437234353, "lat": 38.5731117, "lon": -109.5512471}, {"type": "node", "id": 1437234354, "lat": 38.5731431, "lon": -109.5512174}, {"type": "node", "id": 1437234356, "lat": 38.5729961, "lon": -109.5509596}, {"type": "node", "id": 1446006463, "lat": 38.5652653, "lon": -109.5490638}, {"type": "node", "id": 1446006464, "lat": 38.5652792, "lon": -109.549606}, {"type": "node", "id": 1446006471, "lat": 38.5650936, "lon": -109.5495043}, {"type": "node", "id": 1446006472, "lat": 38.5651532, "lon": -109.5495027}, {"type": "node", "id": 1446006479, "lat": 38.5651537, "lon": -109.5496167}, {"type": "node", "id": 1446006481, "lat": 38.5650986, "lon": -109.5496167}, {"type": "node", "id": 1446006483, "lat": 38.5652825, "lon": -109.549136}, {"type": "node", "id": 1446006484, "lat": 38.5652166, "lon": -109.5499523}, {"type": "node", "id": 1446006485, "lat": 38.5653049, "lon": -109.5488355}, {"type": "node", "id": 1446006487, "lat": 38.5652514, "lon": -109.5487745}, {"type": "node", "id": 1446006493, "lat": 38.5652501, "lon": -109.5488167}, {"type": "node", "id": 1446006497, "lat": 38.5652621, "lon": -109.5492352}, {"type": "node", "id": 1446006498, "lat": 38.5651346, "lon": -109.549922}, {"type": "node", "id": 1446006499, "lat": 38.5650993, "lon": -109.5497677}, {"type": "node", "id": 1446006502, "lat": 38.5650874, "lon": -109.5488927}, {"type": "node", "id": 1446006750, "lat": 38.5656792, "lon": -109.5506597}, {"type": "node", "id": 1446006751, "lat": 38.5654697, "lon": -109.5508439}, {"type": "node", "id": 1446006752, "lat": 38.5654805, "lon": -109.5507677}, {"type": "node", "id": 1446006753, "lat": 38.5654333, "lon": -109.5506986}, {"type": "node", "id": 1446006754, "lat": 38.5656473, "lon": -109.5508851}, {"type": "node", "id": 1446006755, "lat": 38.5653984, "lon": -109.5507487}, {"type": "node", "id": 1446006756, "lat": 38.5654064, "lon": -109.5506924}, {"type": "node", "id": 1446006757, "lat": 38.5654464, "lon": -109.5506057}, {"type": "node", "id": 1446010331, "lat": 38.5762338, "lon": -109.5505756}, {"type": "node", "id": 1446010332, "lat": 38.5760258, "lon": -109.5504568}, {"type": "node", "id": 1446010338, "lat": 38.5762297, "lon": -109.5502539}, {"type": "node", "id": 1446010341, "lat": 38.5757948, "lon": -109.5504617}, {"type": "node", "id": 1446010342, "lat": 38.5760274, "lon": -109.55058}, {"type": "node", "id": 1757802834, "lat": 38.5757923, "lon": -109.5502631}, {"type": "node", "id": 1899509112, "lat": 38.5729959, "lon": -109.5511123}, {"type": "node", "id": 1961683211, "lat": 38.5572579, "lon": -109.5412355}, {"type": "node", "id": 1961683238, "lat": 38.5573385, "lon": -109.5414608}, {"type": "node", "id": 1961683254, "lat": 38.5574591, "lon": -109.5411178}, {"type": "node", "id": 1961683271, "lat": 38.5575397, "lon": -109.5413431}, {"type": "node", "id": 1961683278, "lat": 38.5581384, "lon": -109.5432233}, {"type": "node", "id": 1961683311, "lat": 38.5582001, "lon": -109.5431677}, {"type": "node", "id": 1961683316, "lat": 38.5583557, "lon": -109.5436168}, {"type": "node", "id": 1961683321, "lat": 38.5584172, "lon": -109.5435613}, {"type": "node", "id": 1961683415, "lat": 38.5604646, "lon": -109.5478488}, {"type": "node", "id": 1961683419, "lat": 38.5605497, "lon": -109.5479242}, {"type": "node", "id": 1961683426, "lat": 38.5605806, "lon": -109.5476346}, {"type": "node", "id": 1961683429, "lat": 38.5606657, "lon": -109.54771}, {"type": "node", "id": 1961683483, "lat": 38.5610006, "lon": -109.546678}, {"type": "node", "id": 1961683491, "lat": 38.5611531, "lon": -109.5468224}, {"type": "node", "id": 1961683498, "lat": 38.561815, "lon": -109.547735}, {"type": "node", "id": 1961683501, "lat": 38.5618157, "lon": -109.5475099}, {"type": "node", "id": 1961683504, "lat": 38.562034, "lon": -109.5477361}, {"type": "node", "id": 1961683507, "lat": 38.5620347, "lon": -109.547511}, {"type": "node", "id": 1961683522, "lat": 38.563335, "lon": -109.5489542}, {"type": "node", "id": 1961683525, "lat": 38.5633763, "lon": -109.5488443}, {"type": "node", "id": 1961683530, "lat": 38.5636596, "lon": -109.5491541}, {"type": "node", "id": 1961683540, "lat": 38.563701, "lon": -109.5490443}, {"type": "node", "id": 1961683581, "lat": 38.5639632, "lon": -109.5502998}, {"type": "node", "id": 1961683584, "lat": 38.563971, "lon": -109.5500615}, {"type": "node", "id": 1961683596, "lat": 38.5640878, "lon": -109.5503065}, {"type": "node", "id": 1961683600, "lat": 38.5640956, "lon": -109.5500681}, {"type": "node", "id": 1961683623, "lat": 38.565027, "lon": -109.531559}, {"type": "node", "id": 1961683629, "lat": 38.5650411, "lon": -109.5343216}, {"type": "node", "id": 1961683647, "lat": 38.5655154, "lon": -109.531555}, {"type": "node", "id": 1961683685, "lat": 38.5660242, "lon": -109.5508252}, {"type": "node", "id": 1961683689, "lat": 38.5660454, "lon": -109.5506869}, {"type": "node", "id": 1961683693, "lat": 38.5661222, "lon": -109.5510043}, {"type": "node", "id": 1961683696, "lat": 38.5661662, "lon": -109.5507172}, {"type": "node", "id": 1961683707, "lat": 38.5664262, "lon": -109.5500208}, {"type": "node", "id": 1961683709, "lat": 38.5664262, "lon": -109.5501812}, {"type": "node", "id": 1961683711, "lat": 38.5664483, "lon": -109.5326797}, {"type": "node", "id": 1961683733, "lat": 38.5664567, "lon": -109.5343097}, {"type": "node", "id": 1961683749, "lat": 38.5666667, "lon": -109.5500208}, {"type": "node", "id": 1961683752, "lat": 38.5666667, "lon": -109.5501812}, {"type": "node", "id": 1961683916, "lat": 38.5681709, "lon": -109.5380611}, {"type": "node", "id": 1961683918, "lat": 38.5681975, "lon": -109.55152}, {"type": "node", "id": 1961683920, "lat": 38.5681987, "lon": -109.5512575}, {"type": "node", "id": 1961683922, "lat": 38.5682341, "lon": -109.5516981}, {"type": "node", "id": 1961683924, "lat": 38.5682349, "lon": -109.5515203}, {"type": "node", "id": 1961683957, "lat": 38.5683043, "lon": -109.5516986}, {"type": "node", "id": 1961683961, "lat": 38.5683052, "lon": -109.5515208}, {"type": "node", "id": 1961683969, "lat": 38.5683991, "lon": -109.5515215}, {"type": "node", "id": 1961683973, "lat": 38.5684003, "lon": -109.551259}, {"type": "node", "id": 1961683995, "lat": 38.5691794, "lon": -109.5525195}, {"type": "node", "id": 1961683998, "lat": 38.5691794, "lon": -109.5526162}, {"type": "node", "id": 1961684013, "lat": 38.5693943, "lon": -109.5505605}, {"type": "node", "id": 1961684037, "lat": 38.5694165, "lon": -109.5524009}, {"type": "node", "id": 1961684042, "lat": 38.5694165, "lon": -109.5525195}, {"type": "node", "id": 1961684056, "lat": 38.5695059, "lon": -109.5503013}, {"type": "node", "id": 1961684058, "lat": 38.5695059, "lon": -109.5505605}, {"type": "node", "id": 1961684065, "lat": 38.5696501, "lon": -109.5532753}, {"type": "node", "id": 1961684067, "lat": 38.5696501, "lon": -109.5534269}, {"type": "node", "id": 1961684085, "lat": 38.5696941, "lon": -109.5509787}, {"type": "node", "id": 1961684088, "lat": 38.5696941, "lon": -109.5513763}, {"type": "node", "id": 1961684105, "lat": 38.5697016, "lon": -109.5534269}, {"type": "node", "id": 1961684108, "lat": 38.5697016, "lon": -109.5536004}, {"type": "node", "id": 1961684113, "lat": 38.5697422, "lon": -109.5514422}, {"type": "node", "id": 1961684115, "lat": 38.5698167, "lon": -109.5532753}, {"type": "node", "id": 1961684118, "lat": 38.5698167, "lon": -109.5534159}, {"type": "node", "id": 1961684124, "lat": 38.5698315, "lon": -109.5509787}, {"type": "node", "id": 1961684128, "lat": 38.5698522, "lon": -109.5514422}, {"type": "node", "id": 1961684131, "lat": 38.5698476, "lon": -109.5524009}, {"type": "node", "id": 1961684133, "lat": 38.5698476, "lon": -109.5525195}, {"type": "node", "id": 1961684202, "lat": 38.5700486, "lon": -109.5525195}, {"type": "node", "id": 1961684205, "lat": 38.5700486, "lon": -109.5526162}, {"type": "node", "id": 1961684213, "lat": 38.5700898, "lon": -109.5534159}, {"type": "node", "id": 1961684216, "lat": 38.5700898, "lon": -109.5536004}, {"type": "node", "id": 1961684224, "lat": 38.5703446, "lon": -109.5511946}, {"type": "node", "id": 1961684229, "lat": 38.570522, "lon": -109.5511946}, {"type": "node", "id": 1961684234, "lat": 38.5705586, "lon": -109.5511228}, {"type": "node", "id": 1961684237, "lat": 38.5705586, "lon": -109.5512546}, {"type": "node", "id": 1961684271, "lat": 38.5705741, "lon": -109.5510437}, {"type": "node", "id": 1961684274, "lat": 38.5705741, "lon": -109.5511228}, {"type": "node", "id": 1961684283, "lat": 38.570696, "lon": -109.5501561}, {"type": "node", "id": 1961684285, "lat": 38.570696, "lon": -109.5504967}, {"type": "node", "id": 1961684288, "lat": 38.5707046, "lon": -109.5512546}, {"type": "node", "id": 1961684290, "lat": 38.5707046, "lon": -109.5517423}, {"type": "node", "id": 1961684292, "lat": 38.5708197, "lon": -109.5501561}, {"type": "node", "id": 1961684294, "lat": 38.5708197, "lon": -109.5504967}, {"type": "node", "id": 1961684303, "lat": 38.5708214, "lon": -109.5517423}, {"type": "node", "id": 1961684307, "lat": 38.5711838, "lon": -109.5517137}, {"type": "node", "id": 1961684310, "lat": 38.5711838, "lon": -109.5519318}, {"type": "node", "id": 1961684476, "lat": 38.5734114, "lon": -109.5502996}, {"type": "node", "id": 1961684479, "lat": 38.5734123, "lon": -109.5506123}, {"type": "node", "id": 1961684482, "lat": 38.5735496, "lon": -109.550299}, {"type": "node", "id": 1961684484, "lat": 38.57355, "lon": -109.5504511}, {"type": "node", "id": 1961684487, "lat": 38.5735503, "lon": -109.550555}, {"type": "node", "id": 1961684490, "lat": 38.5735505, "lon": -109.5506116}, {"type": "node", "id": 1961684494, "lat": 38.5736601, "lon": -109.5504506}, {"type": "node", "id": 1961684498, "lat": 38.5736604, "lon": -109.5505545}, {"type": "node", "id": 1961684541, "lat": 38.5742872, "lon": -109.549847}, {"type": "node", "id": 1961684542, "lat": 38.5742878, "lon": -109.5500525}, {"type": "node", "id": 1961684543, "lat": 38.5743386, "lon": -109.5500523}, {"type": "node", "id": 1961684544, "lat": 38.5743388, "lon": -109.5501062}, {"type": "node", "id": 1961684550, "lat": 38.5745408, "lon": -109.5498458}, {"type": "node", "id": 1961684552, "lat": 38.574541, "lon": -109.5498867}, {"type": "node", "id": 1961684553, "lat": 38.5745726, "lon": -109.5498865}, {"type": "node", "id": 1961684555, "lat": 38.5745732, "lon": -109.5501051}, {"type": "node", "id": 1961684632, "lat": 38.5766622, "lon": -109.5504229}, {"type": "node", "id": 1961684664, "lat": 38.5771145, "lon": -109.5505272}, {"type": "node", "id": 1961684667, "lat": 38.577223, "lon": -109.5501331}, {"type": "node", "id": 1961684669, "lat": 38.5772262, "lon": -109.5505257}, {"type": "node", "id": 1961684849, "lat": 38.5802631, "lon": -109.5516167}, {"type": "node", "id": 1961684853, "lat": 38.5803094, "lon": -109.5514522}, {"type": "node", "id": 1961684857, "lat": 38.5803922, "lon": -109.5516763}, {"type": "node", "id": 1961684859, "lat": 38.5804386, "lon": -109.5515118}, {"type": "node", "id": 2028762887, "lat": 38.5679409, "lon": -109.5502815}, {"type": "node", "id": 2028762888, "lat": 38.5679409, "lon": -109.5503922}, {"type": "node", "id": 2028762896, "lat": 38.5681413, "lon": -109.5502815}, {"type": "node", "id": 2028762897, "lat": 38.5681413, "lon": -109.5503922}, {"type": "node", "id": 2028762963, "lat": 38.5935874, "lon": -109.5671877}, {"type": "node", "id": 2028762964, "lat": 38.5936937, "lon": -109.5670749}, {"type": "node", "id": 2028762966, "lat": 38.5937177, "lon": -109.5673885}, {"type": "node", "id": 2028762969, "lat": 38.5937619, "lon": -109.5673416}, {"type": "node", "id": 2028762974, "lat": 38.5938271, "lon": -109.5674421}, {"type": "node", "id": 2028762977, "lat": 38.5938892, "lon": -109.5673762}, {"type": "node", "id": 2069296979, "lat": 38.5616359, "lon": -109.5490809}, {"type": "node", "id": 2069296981, "lat": 38.5618506, "lon": -109.5485823}, {"type": "node", "id": 2069296982, "lat": 38.5619569, "lon": -109.5485823}, {"type": "node", "id": 2069296984, "lat": 38.5619668, "lon": -109.5493151}, {"type": "node", "id": 2069296985, "lat": 38.5620711, "lon": -109.5490708}, {"type": "node", "id": 2069296987, "lat": 38.5621735, "lon": -109.5490457}, {"type": "node", "id": 2069296993, "lat": 38.5625949, "lon": -109.5495191}, {"type": "node", "id": 2069296996, "lat": 38.5626461, "lon": -109.5493756}, {"type": "node", "id": 2069297002, "lat": 38.5627328, "lon": -109.549154}, {"type": "node", "id": 2069297003, "lat": 38.5627564, "lon": -109.5491263}, {"type": "node", "id": 2069297004, "lat": 38.5628214, "lon": -109.5498087}, {"type": "node", "id": 2069297006, "lat": 38.5628647, "lon": -109.5497055}, {"type": "node", "id": 2069297007, "lat": 38.5628726, "lon": -109.549849}, {"type": "node", "id": 2069297011, "lat": 38.56304, "lon": -109.5493051}, {"type": "node", "id": 2069297013, "lat": 38.5630695, "lon": -109.5494008}, {"type": "node", "id": 2328084726, "lat": 38.5751754, "lon": -109.548275}, {"type": "node", "id": 2334987295, "lat": 38.5758907, "lon": -109.5599535}, {"type": "node", "id": 2628600129, "lat": 38.5611437, "lon": -109.5467347, "tags": {"amenity": "car_rental", "name": "Farabee's Jeep Rentals", "website": "http://www.farabeesjeeprentals.com"}}, {"type": "node", "id": 2686960542, "lat": 38.5761012, "lon": -109.5608827}, {"type": "node", "id": 2686960543, "lat": 38.5761429, "lon": -109.5608822}, {"type": "node", "id": 2686960544, "lat": 38.5761433, "lon": -109.5609447}, {"type": "node", "id": 2686960545, "lat": 38.5763867, "lon": -109.5609419}, {"type": "node", "id": 2686960546, "lat": 38.5763852, "lon": -109.5607266}, {"type": "node", "id": 2686960547, "lat": 38.5761476, "lon": -109.5607294}, {"type": "node", "id": 2686960548, "lat": 38.5761481, "lon": -109.560799}, {"type": "node", "id": 2686960549, "lat": 38.5761006, "lon": -109.5607995}, {"type": "node", "id": 2686960550, "lat": 38.5763884, "lon": -109.5606756}, {"type": "node", "id": 2686960551, "lat": 38.576389, "lon": -109.5604556}, {"type": "node", "id": 2686960552, "lat": 38.5761505, "lon": -109.5604546}, {"type": "node", "id": 2686960553, "lat": 38.5761503, "lon": -109.5605151}, {"type": "node", "id": 2686960554, "lat": 38.5761117, "lon": -109.560515}, {"type": "node", "id": 2686960555, "lat": 38.5761115, "lon": -109.5605909}, {"type": "node", "id": 2686960556, "lat": 38.5761497, "lon": -109.560591}, {"type": "node", "id": 2686960557, "lat": 38.5761495, "lon": -109.5606746}, {"type": "node", "id": 2686960558, "lat": 38.5759911, "lon": -109.5606692}, {"type": "node", "id": 2686960559, "lat": 38.5759928, "lon": -109.5605922}, {"type": "node", "id": 2686960560, "lat": 38.5760271, "lon": -109.5605935}, {"type": "node", "id": 2686960561, "lat": 38.5760286, "lon": -109.5605242}, {"type": "node", "id": 2686960562, "lat": 38.5759962, "lon": -109.5605231}, {"type": "node", "id": 2686960563, "lat": 38.5759977, "lon": -109.5604562}, {"type": "node", "id": 2686960564, "lat": 38.5758326, "lon": -109.5604501}, {"type": "node", "id": 2686960565, "lat": 38.5758279, "lon": -109.5606632}, {"type": "node", "id": 2686960566, "lat": 38.5764774, "lon": -109.5602589}, {"type": "node", "id": 2686960567, "lat": 38.5763799, "lon": -109.56026}, {"type": "node", "id": 2686960568, "lat": 38.5763783, "lon": -109.5600305}, {"type": "node", "id": 2686960569, "lat": 38.5764759, "lon": -109.5600294}, {"type": "node", "id": 2686960572, "lat": 38.5761116, "lon": -109.5605527}, {"type": "node", "id": 2686960573, "lat": 38.576028, "lon": -109.5605526}, {"type": "node", "id": 2686960574, "lat": 38.576386, "lon": -109.5608374}, {"type": "node", "id": 2686960576, "lat": 38.576456, "lon": -109.5602592}, {"type": "node", "id": 2686960578, "lat": 38.5763887, "lon": -109.5605588}, {"type": "node", "id": 2686965996, "lat": 38.574032, "lon": -109.5483618}, {"type": "node", "id": 2686965997, "lat": 38.574031, "lon": -109.5481426}, {"type": "node", "id": 2686965998, "lat": 38.5739806, "lon": -109.548143}, {"type": "node", "id": 2686965999, "lat": 38.5739801, "lon": -109.5480313}, {"type": "node", "id": 2686966000, "lat": 38.5739332, "lon": -109.5480317}, {"type": "node", "id": 2686966001, "lat": 38.5739327, "lon": -109.5479386}, {"type": "node", "id": 2686966002, "lat": 38.573745, "lon": -109.5479401}, {"type": "node", "id": 2686966003, "lat": 38.5737448, "lon": -109.5479132}, {"type": "node", "id": 2686966004, "lat": 38.5735294, "lon": -109.5479149}, {"type": "node", "id": 2686966005, "lat": 38.5735305, "lon": -109.5481394}, {"type": "node", "id": 2686966006, "lat": 38.5735621, "lon": -109.5481391}, {"type": "node", "id": 2686966007, "lat": 38.5735633, "lon": -109.5483977}, {"type": "node", "id": 2686966008, "lat": 38.5736646, "lon": -109.548397}, {"type": "node", "id": 2686966009, "lat": 38.5736651, "lon": -109.5485145}, {"type": "node", "id": 2686966010, "lat": 38.5736337, "lon": -109.5485147}, {"type": "node", "id": 2686966011, "lat": 38.5736342, "lon": -109.5486235}, {"type": "node", "id": 2686966012, "lat": 38.5739144, "lon": -109.5486214}, {"type": "node", "id": 2686966013, "lat": 38.5739134, "lon": -109.5483842}, {"type": "node", "id": 2686966014, "lat": 38.5739738, "lon": -109.5483837}, {"type": "node", "id": 2686966015, "lat": 38.5739737, "lon": -109.5483622}, {"type": "node", "id": 2876923781, "lat": 38.5718481, "lon": -109.5704645}, {"type": "node", "id": 2876923782, "lat": 38.5719663, "lon": -109.5708205}, {"type": "node", "id": 2876923783, "lat": 38.5719811, "lon": -109.5710237}, {"type": "node", "id": 2876923784, "lat": 38.5718961, "lon": -109.5714332}, {"type": "node", "id": 2876923785, "lat": 38.5716757, "lon": -109.5713104}, {"type": "node", "id": 2876923786, "lat": 38.5716634, "lon": -109.5708079}, {"type": "node", "id": 2876923787, "lat": 38.5716806, "lon": -109.5706095}, {"type": "node", "id": 2876923789, "lat": 38.5718643, "lon": -109.5705135}, {"type": "node", "id": 2876923797, "lat": 38.5716748, "lon": -109.5706767}, {"type": "node", "id": 3092279963, "lat": 38.5677242, "lon": -109.550112}, {"type": "node", "id": 3092279964, "lat": 38.5671102, "lon": -109.5501391}, {"type": "node", "id": 3092279965, "lat": 38.5668786, "lon": -109.5503727}, {"type": "node", "id": 3092279966, "lat": 38.5666817, "lon": -109.5503459}, {"type": "node", "id": 3092279967, "lat": 38.5666806, "lon": -109.5499865}, {"type": "node", "id": 3092279968, "lat": 38.566404, "lon": -109.5499875}, {"type": "node", "id": 3092279969, "lat": 38.5662339, "lon": -109.5494393}, {"type": "node", "id": 3092279970, "lat": 38.5662287, "lon": -109.5488184}, {"type": "node", "id": 3092279971, "lat": 38.5665065, "lon": -109.548809}, {"type": "node", "id": 3092279972, "lat": 38.5665191, "lon": -109.5496458}, {"type": "node", "id": 3092279973, "lat": 38.5673831, "lon": -109.5489495}, {"type": "node", "id": 3092279974, "lat": 38.5673811, "lon": -109.548813}, {"type": "node", "id": 3092279975, "lat": 38.5675704, "lon": -109.5487979}, {"type": "node", "id": 3092279976, "lat": 38.5675773, "lon": -109.5492321}, {"type": "node", "id": 3092279977, "lat": 38.5677342, "lon": -109.5492287}, {"type": "node", "id": 3092279978, "lat": 38.567134, "lon": -109.5490293, "tags": {"amenity": "atm"}}, {"type": "node", "id": 3092279979, "lat": 38.566763, "lon": -109.549091, "tags": {"amenity": "cafe", "brand": "Starbucks", "brand:wikidata": "Q37158", "contact:website": "https://www.starbucks.com/store-locator/store/7330/city-market-moab-410-425-s-main-st-moab-ut-845322921-us", "cuisine": "coffee_shop", "name": "Starbucks", "official_name": "Starbucks Coffee", "takeaway": "yes"}}, {"type": "node", "id": 3092279984, "lat": 38.5648354, "lon": -109.5496975}, {"type": "node", "id": 3092279985, "lat": 38.5647016, "lon": -109.5496438}, {"type": "node", "id": 3092279986, "lat": 38.5646839, "lon": -109.5497158}, {"type": "node", "id": 3092279987, "lat": 38.5648177, "lon": -109.5497695}, {"type": "node", "id": 3320261484, "lat": 38.569188, "lon": -109.5505633}, {"type": "node", "id": 3320261485, "lat": 38.5691908, "lon": -109.5504753}, {"type": "node", "id": 3320261486, "lat": 38.5688477, "lon": -109.5502623}, {"type": "node", "id": 3320261487, "lat": 38.5688555, "lon": -109.5503489}, {"type": "node", "id": 3442181237, "lat": 38.5747102, "lon": -109.5509768, "tags": {"amenity": "restaurant", "name": "Quesadilla Mobilla"}}, {"type": "node", "id": 3669185799, "lat": 38.5575015, "lon": -109.5250932, "tags": {"amenity": "bar", "name": "Gravel Pit Lanes"}}, {"type": "node", "id": 4209342962, "lat": 38.5680021, "lon": -109.548582}, {"type": "node", "id": 4209342963, "lat": 38.5659842, "lon": -109.5486057}, {"type": "node", "id": 4209342964, "lat": 38.5659372, "lon": -109.5460765}, {"type": "node", "id": 4209342965, "lat": 38.5671076, "lon": -109.5463457}, {"type": "node", "id": 4209342966, "lat": 38.5678034, "lon": -109.5475642}, {"type": "node", "id": 4209342968, "lat": 38.5679988, "lon": -109.5477206}, {"type": "node", "id": 4209342969, "lat": 38.5648865, "lon": -109.5485826}, {"type": "node", "id": 4209342970, "lat": 38.5648712, "lon": -109.547384}, {"type": "node", "id": 4209342971, "lat": 38.5635345, "lon": -109.5473421}, {"type": "node", "id": 4209342972, "lat": 38.5631423, "lon": -109.5464433}, {"type": "node", "id": 4209342973, "lat": 38.5631067, "lon": -109.5457528}, {"type": "node", "id": 4209342974, "lat": 38.5628418, "lon": -109.5454988}, {"type": "node", "id": 4209342975, "lat": 38.5623071, "lon": -109.5429521}, {"type": "node", "id": 4209342976, "lat": 38.5646804, "lon": -109.5429521}, {"type": "node", "id": 4209342977, "lat": 38.5652355, "lon": -109.5431344}, {"type": "node", "id": 4209342978, "lat": 38.5653578, "lon": -109.5443785}, {"type": "node", "id": 4209342979, "lat": 38.5656175, "lon": -109.5450689}, {"type": "node", "id": 4209342980, "lat": 38.5659129, "lon": -109.5456291}, {"type": "node", "id": 4209342985, "lat": 38.5635754, "lon": -109.5473425}, {"type": "node", "id": 4209342986, "lat": 38.5818934, "lon": -109.5568607}, {"type": "node", "id": 4209342987, "lat": 38.5794733, "lon": -109.55591}, {"type": "node", "id": 4209342988, "lat": 38.5794758, "lon": -109.5536355}, {"type": "node", "id": 4209343289, "lat": 38.5819015, "lon": -109.5546427}, {"type": "node", "id": 4209371618, "lat": 38.5701058, "lon": -109.5526207}, {"type": "node", "id": 4209371619, "lat": 38.5701058, "lon": -109.5536686}, {"type": "node", "id": 4209371620, "lat": 38.5689417, "lon": -109.5536983}, {"type": "node", "id": 4209371621, "lat": 38.568934, "lon": -109.5526405}, {"type": "node", "id": 4209392100, "lat": 38.5751714, "lon": -109.5486184}, {"type": "node", "id": 4209392101, "lat": 38.5749955, "lon": -109.5486151}, {"type": "node", "id": 4209392102, "lat": 38.5749995, "lon": -109.5482718}, {"type": "node", "id": 4209392124, "lat": 38.5735843, "lon": -109.547722, "tags": {"amenity": "community_centre", "name": "Star Hall"}}, {"type": "node", "id": 4209392137, "lat": 38.5728943, "lon": -109.5485377, "tags": {"amenity": "police", "name": "Grand County Sheriff"}}, {"type": "node", "id": 4271863672, "lat": 38.5742315, "lon": -109.5409515, "tags": {"amenity": "community_centre", "community_centre:for": "senior", "name": "Grand County Community Center"}}, {"type": "node", "id": 4470461789, "lat": 38.5712503, "lon": -109.5502314}, {"type": "node", "id": 4551702140, "lat": 38.5757698, "lon": -109.5611772}, {"type": "node", "id": 4551702141, "lat": 38.5757671, "lon": -109.5606696}, {"type": "node", "id": 4551702142, "lat": 38.5758371, "lon": -109.560347}, {"type": "node", "id": 4551702143, "lat": 38.5758678, "lon": -109.5577916}, {"type": "node", "id": 4551702144, "lat": 38.5758621, "lon": -109.5576409}, {"type": "node", "id": 4551702145, "lat": 38.5758127, "lon": -109.5575898}, {"type": "node", "id": 4551702146, "lat": 38.5744059, "lon": -109.5575825}, {"type": "node", "id": 4815497184, "lat": 38.5642059, "lon": -109.5500985}, {"type": "node", "id": 4815497185, "lat": 38.5641094, "lon": -109.5500871}, {"type": "node", "id": 4815497186, "lat": 38.5640853, "lon": -109.5505176}, {"type": "node", "id": 4815497187, "lat": 38.5641765, "lon": -109.5505223}, {"type": "node", "id": 4815497216, "lat": 38.5638225, "lon": -109.5507702}, {"type": "node", "id": 4815497217, "lat": 38.5640196, "lon": -109.5509218}, {"type": "node", "id": 4815497218, "lat": 38.5637083, "lon": -109.5510131}, {"type": "node", "id": 4815497219, "lat": 38.5639055, "lon": -109.5511647}, {"type": "node", "id": 4815497220, "lat": 38.5634178, "lon": -109.550187}, {"type": "node", "id": 4815499721, "lat": 38.563399, "lon": -109.5502386}, {"type": "node", "id": 4815499722, "lat": 38.5635615, "lon": -109.550006}, {"type": "node", "id": 4815499723, "lat": 38.5635138, "lon": -109.5498061}, {"type": "node", "id": 4815499724, "lat": 38.5633696, "lon": -109.5501173}, {"type": "node", "id": 4815499725, "lat": 38.5634346, "lon": -109.5502675}, {"type": "node", "id": 4815499740, "lat": 38.5632417, "lon": -109.549802}, {"type": "node", "id": 4815499741, "lat": 38.5632755, "lon": -109.5497508}, {"type": "node", "id": 4815499742, "lat": 38.5632692, "lon": -109.5497458}, {"type": "node", "id": 4815499743, "lat": 38.5633266, "lon": -109.5499067}, {"type": "node", "id": 4815499744, "lat": 38.5633391, "lon": -109.5499167}, {"type": "node", "id": 4815518302, "lat": 38.5662916, "lon": -109.5496297}, {"type": "node", "id": 4815518303, "lat": 38.5662769, "lon": -109.5494339}, {"type": "node", "id": 4815518304, "lat": 38.5665097, "lon": -109.5489069}, {"type": "node", "id": 4815518305, "lat": 38.5665632, "lon": -109.5489458}, {"type": "node", "id": 4815518306, "lat": 38.5665632, "lon": -109.5494433}, {"type": "node", "id": 4815518307, "lat": 38.5665233, "lon": -109.5495158}, {"type": "node", "id": 4815518308, "lat": 38.5673202, "lon": -109.5496297}, {"type": "node", "id": 4815518309, "lat": 38.5673181, "lon": -109.5489659}, {"type": "node", "id": 4815571649, "lat": 38.5729603, "lon": -109.5502222, "tags": {"access": "yes", "amenity": "toilets", "operator": "Moab Information Center", "toilets:disposal": "flush"}}, {"type": "node", "id": 4815571810, "lat": 38.5727207, "lon": -109.5506201}, {"type": "node", "id": 4815571811, "lat": 38.5727263, "lon": -109.5501059}, {"type": "node", "id": 4815571812, "lat": 38.572464, "lon": -109.5500944}, {"type": "node", "id": 4815571813, "lat": 38.5724596, "lon": -109.5506198}, {"type": "node", "id": 4815571818, "lat": 38.5731129, "lon": -109.5495891}, {"type": "node", "id": 4815571819, "lat": 38.5726605, "lon": -109.5495853}, {"type": "node", "id": 4815571820, "lat": 38.5726582, "lon": -109.5500245}, {"type": "node", "id": 4815571821, "lat": 38.5731107, "lon": -109.5500283}, {"type": "node", "id": 4914505949, "lat": 38.5603006, "lon": -109.550234}, {"type": "node", "id": 4914505950, "lat": 38.5603729, "lon": -109.5504671}, {"type": "node", "id": 4914505952, "lat": 38.5604569, "lon": -109.5502962}, {"type": "node", "id": 4914505953, "lat": 38.5602801, "lon": -109.550453}, {"type": "node", "id": 4914505957, "lat": 38.5603898, "lon": -109.550286}, {"type": "node", "id": 4914505960, "lat": 38.5603766, "lon": -109.5504275}, {"type": "node", "id": 4914505961, "lat": 38.5604437, "lon": -109.5504377}, {"type": "node", "id": 4914505962, "lat": 38.5604551, "lon": -109.5503154}, {"type": "node", "id": 4914505963, "lat": 38.5604481, "lon": -109.5503907}, {"type": "node", "id": 4914505965, "lat": 38.5603933, "lon": -109.5502482}, {"type": "node", "id": 5110188126, "lat": 38.5701033, "lon": -109.5536635}, {"type": "node", "id": 5235016527, "lat": 38.5727989, "lon": -109.5531213}, {"type": "node", "id": 5237407821, "lat": 38.572355, "lon": -109.549931, "tags": {"amenity": "restaurant", "name": "Bangkok House Too"}}, {"type": "node", "id": 5559135381, "lat": 38.5741587, "lon": -109.5521175}, {"type": "node", "id": 5559135382, "lat": 38.5741624, "lon": -109.5525322}, {"type": "node", "id": 5559135383, "lat": 38.5742709, "lon": -109.5521159}, {"type": "node", "id": 5559135384, "lat": 38.5742746, "lon": -109.5525306}, {"type": "node", "id": 5559135385, "lat": 38.5766512, "lon": -109.550423}, {"type": "node", "id": 5559135386, "lat": 38.5766527, "lon": -109.550594}, {"type": "node", "id": 5559135387, "lat": 38.5767202, "lon": -109.550422}, {"type": "node", "id": 5559135388, "lat": 38.5767216, "lon": -109.550593}, {"type": "node", "id": 5560875623, "lat": 38.5731206, "lon": -109.5490513, "tags": {"addr:housenumber": "98", "addr:street": "East Center Street", "amenity": "restaurant", "cuisine": "vietnamese", "internet_access": "wlan", "name": "98 Center"}}, {"type": "node", "id": 5731324449, "lat": 38.5733466, "lon": -109.552973, "tags": {"amenity": "restaurant", "bar": "yes", "cuisine": "barbecue", "name": "Spitfire Smokehouse BBQ & Taps", "opening_hours": "Mo-Su 12:00-01:00", "opening_hours:kitchen": "Mo-Su 12:00-21:30", "outdoor_seating": "yes", "phone": "+1 435-259-2654", "takeaway": "yes", "website": "https://www.spitfiresmokehousemoab.com/", "wheelchair": "yes"}}, {"type": "node", "id": 5731324450, "lat": 38.5734479, "lon": -109.5510332, "tags": {"addr:city": "Moab", "addr:housenumber": "5", "addr:state": "UT", "addr:street": "North Main Street", "amenity": "restaurant", "cuisine": "american", "name": "The Spoke on Center"}}, {"type": "node", "id": 5731324451, "lat": 38.5742646, "lon": -109.550577, "tags": {"addr:city": "Moab", "addr:housenumber": "78", "addr:state": "UT", "addr:street": "North Main Street", "amenity": "cafe", "cuisine": "sandwich", "name": "Moab Garage", "outdoor_seating": "yes", "phone": "+1 435-554-8467", "takeaway": "yes"}}, {"type": "node", "id": 5731324472, "lat": 38.5648068, "lon": -109.5318916}, {"type": "node", "id": 5731324473, "lat": 38.5649074, "lon": -109.5320284}, {"type": "node", "id": 5731324474, "lat": 38.5649158, "lon": -109.5310119}, {"type": "node", "id": 5731324475, "lat": 38.5649326, "lon": -109.5308429}, {"type": "node", "id": 5731324476, "lat": 38.5656666, "lon": -109.5299149}, {"type": "node", "id": 5731324477, "lat": 38.5654695, "lon": -109.5292765}, {"type": "node", "id": 5731324478, "lat": 38.5654275, "lon": -109.5292121}, {"type": "node", "id": 5731324479, "lat": 38.5652975, "lon": -109.5291209}, {"type": "node", "id": 5731324480, "lat": 38.5650626, "lon": -109.5290673}, {"type": "node", "id": 5731324481, "lat": 38.5649032, "lon": -109.5290941}, {"type": "node", "id": 5731324482, "lat": 38.5645215, "lon": -109.5309019}, {"type": "node", "id": 5731324483, "lat": 38.5645027, "lon": -109.5316932}, {"type": "node", "id": 5739994366, "lat": 38.5748789, "lon": -109.5605818}, {"type": "node", "id": 5739994367, "lat": 38.5747625, "lon": -109.5603056}, {"type": "node", "id": 5739994368, "lat": 38.5746419, "lon": -109.5603887}, {"type": "node", "id": 5739994369, "lat": 38.5747583, "lon": -109.5606649}, {"type": "node", "id": 5739994375, "lat": 38.5747052, "lon": -109.5603451}, {"type": "node", "id": 5739994383, "lat": 38.5754645, "lon": -109.5607839}, {"type": "node", "id": 5739994384, "lat": 38.5751845, "lon": -109.5609919}, {"type": "node", "id": 5739994385, "lat": 38.5748486, "lon": -109.560252}, {"type": "node", "id": 5739994386, "lat": 38.5751286, "lon": -109.560044}, {"type": "node", "id": 5739994387, "lat": 38.5749097, "lon": -109.5602066}, {"type": "node", "id": 5739994389, "lat": 38.57539, "lon": -109.5608393}, {"type": "node", "id": 5739994414, "lat": 38.57551, "lon": -109.5584162}, {"type": "node", "id": 5739994415, "lat": 38.5752385, "lon": -109.5584179}, {"type": "node", "id": 5739994416, "lat": 38.5752362, "lon": -109.5577929}, {"type": "node", "id": 5739994417, "lat": 38.5755078, "lon": -109.5577912}, {"type": "node", "id": 6443919266, "lat": 38.5729108, "lon": -109.5500159}, {"type": "node", "id": 6480073992, "lat": 38.6015597, "lon": -109.5753751}, {"type": "node", "id": 6480073993, "lat": 38.6014832, "lon": -109.5754167}, {"type": "node", "id": 6506690189, "lat": 38.5890729, "lon": -109.5617477, "tags": {"amenity": "fuel", "name": "Express 24"}}, {"type": "node", "id": 6506693583, "lat": 38.5764953, "lon": -109.5505928, "tags": {"amenity": "compressed_air", "fee": "no"}}, {"type": "node", "id": 6521409362, "lat": 38.5612565, "lon": -109.547317}, {"type": "node", "id": 6521409363, "lat": 38.5612852, "lon": -109.5470163}, {"type": "node", "id": 6521409364, "lat": 38.5612149, "lon": -109.5470054}, {"type": "node", "id": 6521409367, "lat": 38.5609891, "lon": -109.5470302}, {"type": "node", "id": 6521409371, "lat": 38.5612199, "lon": -109.5468857}, {"type": "node", "id": 6521409372, "lat": 38.5609611, "lon": -109.5466405}, {"type": "node", "id": 6521409373, "lat": 38.5611499, "lon": -109.5470066}, {"type": "node", "id": 6521409374, "lat": 38.5608115, "lon": -109.5466848}, {"type": "node", "id": 6521409375, "lat": 38.5606801, "lon": -109.5469114}, {"type": "node", "id": 6521409376, "lat": 38.5608915, "lon": -109.5467606}, {"type": "node", "id": 6521409378, "lat": 38.5607602, "lon": -109.5469873}, {"type": "node", "id": 6521409380, "lat": 38.5611862, "lon": -109.5473061}, {"type": "node", "id": 6521409382, "lat": 38.5609029, "lon": -109.5469431}, {"type": "node", "id": 6521409384, "lat": 38.5609579, "lon": -109.5470837}, {"type": "node", "id": 6521414585, "lat": 38.5608699, "lon": -109.5469998}, {"type": "node", "id": 6521414586, "lat": 38.560958, "lon": -109.5468486}, {"type": "node", "id": 6521414587, "lat": 38.561046, "lon": -109.5469325}, {"type": "node", "id": 6547681148, "lat": 38.5872022, "lon": -109.5594198}, {"type": "node", "id": 6547681149, "lat": 38.5871419, "lon": -109.5593373}, {"type": "node", "id": 6547681150, "lat": 38.5871812, "lon": -109.5592743}, {"type": "node", "id": 6547681151, "lat": 38.5872253, "lon": -109.5592314}, {"type": "node", "id": 6547681152, "lat": 38.5876236, "lon": -109.5597276}, {"type": "node", "id": 6547681153, "lat": 38.5875964, "lon": -109.5598315}, {"type": "node", "id": 6547681154, "lat": 38.5877683, "lon": -109.5600045}, {"type": "node", "id": 6547681155, "lat": 38.5878165, "lon": -109.5599636}, {"type": "node", "id": 6547681156, "lat": 38.5880073, "lon": -109.560197}, {"type": "node", "id": 6547681157, "lat": 38.5879758, "lon": -109.5602661}, {"type": "node", "id": 6547681158, "lat": 38.5880849, "lon": -109.5604196}, {"type": "node", "id": 6547681159, "lat": 38.5881205, "lon": -109.5604384}, {"type": "node", "id": 6547681160, "lat": 38.5881645, "lon": -109.5603921}, {"type": "node", "id": 6547681161, "lat": 38.5882667, "lon": -109.5605256}, {"type": "node", "id": 6547681162, "lat": 38.5882735, "lon": -109.5606362}, {"type": "node", "id": 6547681163, "lat": 38.5881263, "lon": -109.5606335}, {"type": "node", "id": 6547681164, "lat": 38.588121, "lon": -109.5608991}, {"type": "node", "id": 6547681165, "lat": 38.587904, "lon": -109.5609091}, {"type": "node", "id": 6547681166, "lat": 38.587903, "lon": -109.5606838}, {"type": "node", "id": 6547681167, "lat": 38.5873442, "lon": -109.5606825}, {"type": "node", "id": 6547681168, "lat": 38.5873411, "lon": -109.5603351}, {"type": "node", "id": 6547681169, "lat": 38.5874585, "lon": -109.5602828}, {"type": "node", "id": 6547681170, "lat": 38.5875193, "lon": -109.5602801}, {"type": "node", "id": 6547681171, "lat": 38.587535, "lon": -109.5599435}, {"type": "node", "id": 6547681172, "lat": 38.5871723, "lon": -109.5594808}, {"type": "node", "id": 6547688189, "lat": 38.5879072, "lon": -109.5593541}, {"type": "node", "id": 6547688190, "lat": 38.5872787, "lon": -109.5585702}, {"type": "node", "id": 6547688191, "lat": 38.5876818, "lon": -109.5583422}, {"type": "node", "id": 6547688192, "lat": 38.5877415, "lon": -109.5585112}, {"type": "node", "id": 6547688193, "lat": 38.5876524, "lon": -109.5585709}, {"type": "node", "id": 6547688194, "lat": 38.5875733, "lon": -109.5586815}, {"type": "node", "id": 6547688195, "lat": 38.5877363, "lon": -109.5588847}, {"type": "node", "id": 6547688196, "lat": 38.5877049, "lon": -109.5589364}, {"type": "node", "id": 6547688197, "lat": 38.587795, "lon": -109.5590611}, {"type": "node", "id": 6547688198, "lat": 38.5878375, "lon": -109.5590168}, {"type": "node", "id": 6547688199, "lat": 38.5879989, "lon": -109.5592247}, {"type": "node", "id": 6547698222, "lat": 38.5871813, "lon": -109.5551166}, {"type": "node", "id": 6547698226, "lat": 38.5871289, "lon": -109.5552209}, {"type": "node", "id": 6547698229, "lat": 38.5872329, "lon": -109.5559268}, {"type": "node", "id": 6547698230, "lat": 38.5872427, "lon": -109.5559188}, {"type": "node", "id": 6547698231, "lat": 38.587333, "lon": -109.5558098}, {"type": "node", "id": 6547698232, "lat": 38.5873128, "lon": -109.5558258}, {"type": "node", "id": 6547698233, "lat": 38.5873521, "lon": -109.5559058}, {"type": "node", "id": 6547698234, "lat": 38.5873635, "lon": -109.5558958}, {"type": "node", "id": 6547698235, "lat": 38.5874287, "lon": -109.5560278}, {"type": "node", "id": 6547698236, "lat": 38.5872632, "lon": -109.5556688}, {"type": "node", "id": 6547698237, "lat": 38.5871578, "lon": -109.5557812}, {"type": "node", "id": 6547698238, "lat": 38.5873344, "lon": -109.5561038}, {"type": "node", "id": 6571382818, "lat": 38.5808404, "lon": -109.5505853}, {"type": "node", "id": 6571382819, "lat": 38.5808551, "lon": -109.5505022}, {"type": "node", "id": 6571382820, "lat": 38.5809316, "lon": -109.5503345}, {"type": "node", "id": 6571382821, "lat": 38.5808865, "lon": -109.5503037}, {"type": "node", "id": 6571382822, "lat": 38.580919, "lon": -109.5502353}, {"type": "node", "id": 6571382823, "lat": 38.5809851, "lon": -109.5502822}, {"type": "node", "id": 6571382824, "lat": 38.5810815, "lon": -109.5500663}, {"type": "node", "id": 6571382825, "lat": 38.5810584, "lon": -109.5500529}, {"type": "node", "id": 6571382826, "lat": 38.5811172, "lon": -109.5499188}, {"type": "node", "id": 6571382827, "lat": 38.5810752, "lon": -109.5498812}, {"type": "node", "id": 6571382828, "lat": 38.5810752, "lon": -109.5498624}, {"type": "node", "id": 6571382829, "lat": 38.5810868, "lon": -109.5498195}, {"type": "node", "id": 6571382830, "lat": 38.5807659, "lon": -109.5495902}, {"type": "node", "id": 6571382831, "lat": 38.5806884, "lon": -109.5497766}, {"type": "node", "id": 6571382832, "lat": 38.580898, "lon": -109.5499201}, {"type": "node", "id": 6571382833, "lat": 38.5809232, "lon": -109.5498611}, {"type": "node", "id": 6571382834, "lat": 38.5809589, "lon": -109.5498946}, {"type": "node", "id": 6571382835, "lat": 38.5809704, "lon": -109.5499416}, {"type": "node", "id": 6571382836, "lat": 38.5809589, "lon": -109.5499671}, {"type": "node", "id": 6571382837, "lat": 38.5809138, "lon": -109.5499335}, {"type": "node", "id": 6571382838, "lat": 38.5808205, "lon": -109.5501642}, {"type": "node", "id": 6571382839, "lat": 38.5808614, "lon": -109.5501857}, {"type": "node", "id": 6571382840, "lat": 38.5807639, "lon": -109.5504029}, {"type": "node", "id": 6571382841, "lat": 38.5807261, "lon": -109.5503855}, {"type": "node", "id": 6571382842, "lat": 38.5806737, "lon": -109.5504847}, {"type": "node", "id": 6571382843, "lat": 38.5807062, "lon": -109.5505048}, {"type": "node", "id": 6571382844, "lat": 38.5807796, "lon": -109.5506014}, {"type": "node", "id": 6571382845, "lat": 38.5808362, "lon": -109.5506416}, {"type": "node", "id": 6571382846, "lat": 38.5807759, "lon": -109.5511754}, {"type": "node", "id": 6571382847, "lat": 38.5807812, "lon": -109.5508596}, {"type": "node", "id": 6571382848, "lat": 38.5806171, "lon": -109.5508656}, {"type": "node", "id": 6571382849, "lat": 38.5806244, "lon": -109.5510104}, {"type": "node", "id": 6571382850, "lat": 38.5805751, "lon": -109.5511191}, {"type": "node", "id": 6571382851, "lat": 38.580616, "lon": -109.5511472}, {"type": "node", "id": 6571382852, "lat": 38.580723, "lon": -109.5511754}, {"type": "node", "id": 6573239221, "lat": 38.579099, "lon": -109.5583107}, {"type": "node", "id": 6573239222, "lat": 38.5790985, "lon": -109.5584723}, {"type": "node", "id": 6573239235, "lat": 38.5791472, "lon": -109.5588481}, {"type": "node", "id": 6573239236, "lat": 38.5791473, "lon": -109.5587017}, {"type": "node", "id": 6573239237, "lat": 38.5786555, "lon": -109.5587016}, {"type": "node", "id": 6573239238, "lat": 38.5786555, "lon": -109.5586105}, {"type": "node", "id": 6573239239, "lat": 38.5786031, "lon": -109.5586105}, {"type": "node", "id": 6573239240, "lat": 38.5786031, "lon": -109.5581196}, {"type": "node", "id": 6573239241, "lat": 38.5786587, "lon": -109.5581196}, {"type": "node", "id": 6573239242, "lat": 38.5786587, "lon": -109.5580298}, {"type": "node", "id": 6573239243, "lat": 38.5791567, "lon": -109.5580298}, {"type": "node", "id": 6573239244, "lat": 38.5791567, "lon": -109.5578729}, {"type": "node", "id": 6573239245, "lat": 38.5781355, "lon": -109.5578728}, {"type": "node", "id": 6573239246, "lat": 38.5781355, "lon": -109.558848}, {"type": "node", "id": 6573239271, "lat": 38.5705687, "lon": -109.5518714}, {"type": "node", "id": 6573239272, "lat": 38.5706164, "lon": -109.5518714}, {"type": "node", "id": 6573239273, "lat": 38.5705687, "lon": -109.5519115}, {"type": "node", "id": 6573239274, "lat": 38.5706164, "lon": -109.5519115}, {"type": "node", "id": 6573239276, "lat": 38.5707794, "lon": -109.5519115}, {"type": "node", "id": 6573239277, "lat": 38.5708654, "lon": -109.5519492}, {"type": "node", "id": 6573239278, "lat": 38.5708654, "lon": -109.5519318}, {"type": "node", "id": 6573239279, "lat": 38.5708339, "lon": -109.5519492}, {"type": "node", "id": 6573239280, "lat": 38.5708339, "lon": -109.5519184}, {"type": "node", "id": 6573255509, "lat": 38.5792091, "lon": -109.5505813}, {"type": "node", "id": 6573255510, "lat": 38.5791609, "lon": -109.5494708}, {"type": "node", "id": 6573255511, "lat": 38.5788883, "lon": -109.5494682}, {"type": "node", "id": 6573255512, "lat": 38.5789009, "lon": -109.5490712}, {"type": "node", "id": 6573255513, "lat": 38.5789701, "lon": -109.548988}, {"type": "node", "id": 6573255514, "lat": 38.5792804, "lon": -109.5491195}, {"type": "node", "id": 6573255515, "lat": 38.579337, "lon": -109.5492214}, {"type": "node", "id": 6573255516, "lat": 38.5793391, "lon": -109.5502728}, {"type": "node", "id": 6573255517, "lat": 38.5793643, "lon": -109.5502782}, {"type": "node", "id": 6573255518, "lat": 38.5793726, "lon": -109.5506001}, {"type": "node", "id": 6626908585, "lat": 38.5671181, "lon": -109.5510913, "tags": {"amenity": "restaurant", "internet_access": "wlan", "name": "Giliberto's Mexican Taco Shop"}}, {"type": "node", "id": 6697395185, "lat": 38.6025655, "lon": -109.5755112, "tags": {"access": "yes", "amenity": "drinking_water", "bottle": "yes", "fee": "no"}}, {"type": "node", "id": 6721988405, "lat": 38.574507, "lon": -109.5503506, "tags": {"amenity": "cafe", "internet_access": "wlan", "internet_access:fee": "no", "name": "Moab Coffee Roasters", "outdoor_seating": "yes"}}, {"type": "node", "id": 6772122407, "lat": 38.6025576, "lon": -109.5754459, "tags": {"access": "yes", "amenity": "toilets", "changing_table": "yes", "male": "yes", "toilets:disposal": "flush"}}, {"type": "node", "id": 6820785521, "lat": 38.5731581, "lon": -109.552328, "tags": {"amenity": "charging_station", "brand": "Tesla Supercharger", "brand:wikidata": "Q17089620", "capacity": "4", "name": "Tesla Supercharger", "operator": "Tesla, Inc.", "operator:wikidata": "Q478214", "operator:wikipedia": "en:Tesla, Inc.", "short_name": "Tesla"}}, {"type": "node", "id": 6911019764, "lat": 38.5796494, "lon": -109.5529738}, {"type": "node", "id": 6911019765, "lat": 38.5796473, "lon": -109.5532662}, {"type": "node", "id": 6911019766, "lat": 38.5798203, "lon": -109.5532702}, {"type": "node", "id": 6911019767, "lat": 38.5798203, "lon": -109.5535518}, {"type": "node", "id": 6911019768, "lat": 38.5795026, "lon": -109.5534204}, {"type": "node", "id": 6911019769, "lat": 38.5794838, "lon": -109.5533989}, {"type": "node", "id": 6911019770, "lat": 38.5794911, "lon": -109.5529698}, {"type": "node", "id": 6911019780, "lat": 38.5795118, "lon": -109.553414}, {"type": "node", "id": 6911019782, "lat": 38.5803843, "lon": -109.5537972}, {"type": "node", "id": 6911019783, "lat": 38.5803718, "lon": -109.5526693}, {"type": "node", "id": 6911019784, "lat": 38.5795622, "lon": -109.5526722}, {"type": "node", "id": 6911039985, "lat": 38.5795144, "lon": -109.5527101}, {"type": "node", "id": 6933487918, "lat": 38.5772926, "lon": -109.551212, "tags": {"addr:city": "Moab", "addr:housenumber": "267", "addr:postcode": "84532", "addr:state": "UT", "addr:street": "North Main Street", "amenity": "restaurant", "cuisine": "pizza;italian", "name": "Antica Forma", "opening_hours": "Mo-Su 11:00-21:00", "phone": "+1 435 355 0167", "website": "http://www.anticaforma.com/"}}, {"type": "node", "id": 7670842076, "lat": 38.5672347, "lon": -109.549448, "tags": {"amenity": "pharmacy", "dispensing": "yes", "healthcare": "pharmacy", "operator": "City Market"}}, {"type": "node", "id": 7748138297, "lat": 38.5651862, "lon": -109.5376906}, {"type": "node", "id": 7748138298, "lat": 38.5651804, "lon": -109.537583}, {"type": "node", "id": 7748138299, "lat": 38.5650305, "lon": -109.5375962}, {"type": "node", "id": 7748138300, "lat": 38.5650363, "lon": -109.5377038}, {"type": "node", "id": 7755927091, "lat": 38.5708214, "lon": -109.5516565}, {"type": "node", "id": 7755927092, "lat": 38.5711854, "lon": -109.5516546}, {"type": "node", "id": 7755927093, "lat": 38.5703659, "lon": -109.551911}, {"type": "node", "id": 7755927094, "lat": 38.5705659, "lon": -109.5516908}, {"type": "node", "id": 7755927095, "lat": 38.5703673, "lon": -109.5516922}, {"type": "node", "id": 7755927096, "lat": 38.5705586, "lon": -109.5511965}, {"type": "node", "id": 7755927097, "lat": 38.5703462, "lon": -109.5509694}, {"type": "node", "id": 7755927098, "lat": 38.5705738, "lon": -109.5509753}, {"type": "node", "id": 7755927100, "lat": 38.5703667, "lon": -109.5517808}, {"type": "node", "id": 7755927104, "lat": 38.5660006, "lon": -109.547326}, {"type": "node", "id": 7755927105, "lat": 38.5657797, "lon": -109.5473213}, {"type": "node", "id": 7755927106, "lat": 38.5657998, "lon": -109.5462613}, {"type": "node", "id": 7755927107, "lat": 38.5659952, "lon": -109.5462753}, {"type": "node", "id": 7755927108, "lat": 38.5657248, "lon": -109.5509044}, {"type": "node", "id": 7755927109, "lat": 38.5657051, "lon": -109.5510899}, {"type": "node", "id": 7755927110, "lat": 38.5663977, "lon": -109.551319}, {"type": "node", "id": 7755927111, "lat": 38.5664658, "lon": -109.5507301}, {"type": "node", "id": 7755927112, "lat": 38.5657304, "lon": -109.5505075}, {"type": "node", "id": 7755927113, "lat": 38.5657027, "lon": -109.5507442}, {"type": "node", "id": 7869483936, "lat": 38.5674542, "lon": -109.5533504}, {"type": "node", "id": 7869483937, "lat": 38.5675495, "lon": -109.5535003}, {"type": "node", "id": 7869483938, "lat": 38.5675073, "lon": -109.5535442}, {"type": "node", "id": 7869483939, "lat": 38.5676294, "lon": -109.5537362}, {"type": "node", "id": 7869483940, "lat": 38.5676493, "lon": -109.5537156}, {"type": "node", "id": 7869483941, "lat": 38.5676987, "lon": -109.5537932}, {"type": "node", "id": 7869483942, "lat": 38.567568, "lon": -109.5539292}, {"type": "node", "id": 7869483943, "lat": 38.5674066, "lon": -109.5536754}, {"type": "node", "id": 7869483944, "lat": 38.5673935, "lon": -109.553689}, {"type": "node", "id": 7869483945, "lat": 38.5672881, "lon": -109.5535232}, {"type": "node", "id": 7869483946, "lat": 38.5672187, "lon": -109.5528332}, {"type": "node", "id": 7869483947, "lat": 38.5670245, "lon": -109.5528327}, {"type": "node", "id": 7869483948, "lat": 38.5670244, "lon": -109.5528474}, {"type": "node", "id": 7869483949, "lat": 38.5670025, "lon": -109.5528473}, {"type": "node", "id": 7869483950, "lat": 38.5670023, "lon": -109.5529619}, {"type": "node", "id": 7869483951, "lat": 38.5669798, "lon": -109.5529968}, {"type": "node", "id": 7869483952, "lat": 38.5669697, "lon": -109.5530371}, {"type": "node", "id": 7869483953, "lat": 38.5669718, "lon": -109.5530795}, {"type": "node", "id": 7869483954, "lat": 38.5669793, "lon": -109.5531089}, {"type": "node", "id": 7869483955, "lat": 38.5669969, "lon": -109.5531417}, {"type": "node", "id": 7869483956, "lat": 38.5670402, "lon": -109.5531807}, {"type": "node", "id": 7869483957, "lat": 38.5670494, "lon": -109.5531806}, {"type": "node", "id": 7869483958, "lat": 38.5670503, "lon": -109.5532828}, {"type": "node", "id": 7869483959, "lat": 38.5673292, "lon": -109.5532789}, {"type": "node", "id": 7869483960, "lat": 38.5673276, "lon": -109.5530926}, {"type": "node", "id": 7869483961, "lat": 38.567213, "lon": -109.5530942}, {"type": "node", "id": 7869483962, "lat": 38.5672318, "lon": -109.553058}, {"type": "node", "id": 7869483963, "lat": 38.5672045, "lon": -109.5530026}, {"type": "node", "id": 7869483964, "lat": 38.5672046, "lon": -109.552946}, {"type": "node", "id": 7869483965, "lat": 38.5672185, "lon": -109.552946}, {"type": "node", "id": 7897107500, "lat": 38.5775837, "lon": -109.5529959, "tags": {"amenity": "shelter", "shelter_type": "picnic_shelter"}}, {"type": "node", "id": 7899021455, "lat": 38.5742304, "lon": -109.55016, "tags": {"amenity": "post_box", "drive_through": "yes", "operator": "United States Postal Service", "operator:type": "public", "operator:wikidata": "Q668687", "operator:wikipedia": "en:United States Postal Service", "short_name": "USPS"}}, {"type": "node", "id": 8175781696, "lat": 38.5624807, "lon": -109.549348, "tags": {"amenity": "fast_food", "brand": "Subway", "brand:wikidata": "Q244457", "cuisine": "sandwich", "name": "Subway", "takeaway": "yes"}}, {"type": "node", "id": 8175781697, "lat": 38.5616948, "lon": -109.54924, "tags": {"addr:city": "Moab", "addr:housenumber": "702", "addr:street": "South Main Street", "amenity": "fast_food", "brand": "Domino's", "brand:wikidata": "Q839466", "cuisine": "pizza", "delivery": "yes", "name": "Domino's", "phone": "+1 435 259 5555", "takeaway": "yes", "website": "https://pizza.dominos.com/utah/moab/702-s-main-st/"}}, {"type": "node", "id": 8261896414, "lat": 38.565032, "lon": -109.5374375}, {"type": "node", "id": 8261956290, "lat": 38.5651729, "lon": -109.5375077}, {"type": "node", "id": 8261956291, "lat": 38.5650417, "lon": -109.5375246}, {"type": "node", "id": 8261956292, "lat": 38.5649993, "lon": -109.5371433}, {"type": "node", "id": 8261956293, "lat": 38.5651292, "lon": -109.5371246}, {"type": "node", "id": 8261956294, "lat": 38.5651025, "lon": -109.5371284}, {"type": "node", "id": 8261956298, "lat": 38.5651373, "lon": -109.5371962}, {"type": "node", "id": 8313095514, "lat": 38.5686393, "lon": -109.5380683}, {"type": "node", "id": 8313095515, "lat": 38.5681612, "lon": -109.5381586}, {"type": "node", "id": 8313095516, "lat": 38.5694174, "lon": -109.5381466}, {"type": "node", "id": 8313095517, "lat": 38.5695442, "lon": -109.5377576}, {"type": "node", "id": 8313095518, "lat": 38.5688795, "lon": -109.5373003}, {"type": "node", "id": 8313095519, "lat": 38.5687598, "lon": -109.5375839}, {"type": "node", "id": 8313095520, "lat": 38.5688054, "lon": -109.5374465}, {"type": "node", "id": 8313095521, "lat": 38.5687892, "lon": -109.5374377}, {"type": "node", "id": 8313095522, "lat": 38.5688371, "lon": -109.5372933}, {"type": "node", "id": 8313095523, "lat": 38.5685576, "lon": -109.5371416}, {"type": "node", "id": 8313095524, "lat": 38.5685094, "lon": -109.5372869}, {"type": "node", "id": 8313095525, "lat": 38.5684015, "lon": -109.5372283}, {"type": "node", "id": 8313095526, "lat": 38.5683579, "lon": -109.5373597}, {"type": "node", "id": 8313095527, "lat": 38.5683894, "lon": -109.5373768}, {"type": "node", "id": 8313095528, "lat": 38.5683521, "lon": -109.5374894}, {"type": "node", "id": 8313095529, "lat": 38.5684453, "lon": -109.53754}, {"type": "node", "id": 8313095530, "lat": 38.5683542, "lon": -109.5378146}, {"type": "node", "id": 8313095531, "lat": 38.5686224, "lon": -109.5379601}, {"type": "node", "id": 8898828006, "lat": 38.6029955, "lon": -109.5744708, "tags": {"access": "yes", "amenity": "bicycle_parking", "bicycle_parking": "staple", "capacity": "4", "covered": "no", "fee": "no"}}, {"type": "node", "id": 8898831566, "lat": 38.6025834, "lon": -109.5756167, "tags": {"amenity": "waste_basket"}}, {"type": "node", "id": 8898837072, "lat": 38.6027138, "lon": -109.5760715, "tags": {"amenity": "waste_basket"}}, {"type": "node", "id": 8898875507, "lat": 38.60307, "lon": -109.5747628, "tags": {"amenity": "waste_basket"}}, {"type": "node", "id": 8898875509, "lat": 38.5651814, "lon": -109.537471, "tags": {"amenity": "recycling", "recycling_type": "container"}}, {"type": "node", "id": 8898880863, "lat": 38.6024919, "lon": -109.5758093, "tags": {"amenity": "waste_basket"}}, {"type": "node", "id": 8898880864, "lat": 38.6027381, "lon": -109.5751754, "tags": {"amenity": "waste_basket"}}, {"type": "node", "id": 8898884820, "lat": 38.5649338, "lon": -109.5375453, "tags": {"amenity": "bbq"}}, {"type": "node", "id": 8898886570, "lat": 38.6025811, "lon": -109.5756309, "tags": {"amenity": "waste_basket"}}, {"type": "node", "id": 8898886571, "lat": 38.6030535, "lon": -109.5748302, "tags": {"access": "yes", "amenity": "bicycle_parking", "bicycle_parking": "staple", "capacity": "8", "covered": "no", "fee": "no"}}, {"type": "node", "id": 8898889470, "lat": 38.6024908, "lon": -109.575567, "tags": {"access": "yes", "amenity": "bicycle_parking", "bicycle_parking": "staple", "capacity": "12", "covered": "no", "fee": "no"}}, {"type": "node", "id": 8898889553, "lat": 38.6020675, "lon": -109.5748795, "tags": {"amenity": "bicycle_parking", "bicycle_parking": "wall_loops", "covered": "no"}}, {"type": "node", "id": 8898894377, "lat": 38.6027126, "lon": -109.5762026, "tags": {"amenity": "waste_basket"}}, {"type": "node", "id": 8898895860, "lat": 38.6028071, "lon": -109.5762433, "tags": {"amenity": "bbq"}}, {"type": "node", "id": 8898897245, "lat": 38.6028845, "lon": -109.576206, "tags": {"access": "yes", "amenity": "bicycle_parking", "bicycle_parking": "staple", "capacity": "6", "covered": "no", "fee": "no"}}, {"type": "node", "id": 8898897323, "lat": 38.6025824, "lon": -109.575623, "tags": {"amenity": "recycling", "recycling_type": "container"}}, {"type": "node", "id": 8898898745, "lat": 38.6027127, "lon": -109.576196, "tags": {"amenity": "recycling", "recycling:beverage_cartons": "no", "recycling:cans": "yes", "recycling:glass_bottles": "yes", "recycling:plastic": "no", "recycling:plastic_bottles": "yes", "recycling:plastic_packaging": "no", "recycling_type": "container"}}, {"type": "node", "id": 8898900033, "lat": 38.6028805, "lon": -109.5762451, "tags": {"amenity": "waste_basket"}}, {"type": "node", "id": 8898900394, "lat": 38.6020699, "lon": -109.5749192, "tags": {"amenity": "drinking_water", "fountain": "bubbler"}}, {"type": "node", "id": 8898900395, "lat": 38.5651575, "lon": -109.5375274, "tags": {"amenity": "waste_disposal"}}, {"type": "node", "id": 8899489952, "lat": 38.5645945, "lon": -109.5371486, "tags": {"amenity": "waste_basket"}}, {"type": "node", "id": 8899517488, "lat": 38.5648996, "lon": -109.537738, "tags": {"amenity": "bbq"}}, {"type": "node", "id": 8899536114, "lat": 38.5648992, "lon": -109.5381306, "tags": {"amenity": "waste_basket"}}, {"type": "node", "id": 8899541969, "lat": 38.5734566, "lon": -109.54581, "tags": {"amenity": "bicycle_parking"}}, {"type": "node", "id": 8899549142, "lat": 38.5649084, "lon": -109.5381263, "tags": {"amenity": "bench"}}, {"type": "node", "id": 8899552091, "lat": 38.5648655, "lon": -109.5374932, "tags": {"amenity": "bbq"}}, {"type": "node", "id": 8899552283, "lat": 38.5734521, "lon": -109.5457332, "tags": {"amenity": "bench"}}, {"type": "node", "id": 8899565307, "lat": 38.5734935, "lon": -109.5457453, "tags": {"amenity": "bench"}}, {"type": "node", "id": 8899566871, "lat": 38.5647882, "lon": -109.5373331, "tags": {"amenity": "bbq"}}, {"type": "node", "id": 8899566945, "lat": 38.5646007, "lon": -109.5371407, "tags": {"amenity": "bench", "backrest": "yes"}}, {"type": "node", "id": 8899568641, "lat": 38.5649001, "lon": -109.5380359, "tags": {"amenity": "bbq"}}, {"type": "node", "id": 8899574036, "lat": 38.5734729, "lon": -109.5457392, "tags": {"amenity": "bench"}}, {"type": "node", "id": 8899583328, "lat": 38.5735067, "lon": -109.545782, "tags": {"access": "yes", "entrance": "yes"}}, {"type": "node", "id": 8899583329, "lat": 38.5735021, "lon": -109.5457569, "tags": {"amenity": "waste_basket"}}, {"type": "node", "id": 8902052735, "lat": 38.6025899, "lon": -109.5754527, "tags": {"access": "yes", "amenity": "toilets", "changing_table": "yes", "female": "yes", "toilets:disposal": "flush"}}, {"type": "node", "id": 8902052764, "lat": 38.6028724, "lon": -109.5760568}, {"type": "node", "id": 8902052765, "lat": 38.6028722, "lon": -109.5762085}, {"type": "node", "id": 8902052766, "lat": 38.6027581, "lon": -109.5762083}, {"type": "node", "id": 8902052767, "lat": 38.6027583, "lon": -109.5760801}, {"type": "node", "id": 8902052768, "lat": 38.6027937, "lon": -109.5760802}, {"type": "node", "id": 8902052769, "lat": 38.6027937, "lon": -109.5760566}, {"type": "node", "id": 8902052812, "lat": 38.6019019, "lon": -109.5757608}, {"type": "node", "id": 8902052815, "lat": 38.6024171, "lon": -109.5757976}, {"type": "node", "id": 8902052816, "lat": 38.6024575, "lon": -109.5755263}, {"type": "node", "id": 8902058318, "lat": 38.6025013, "lon": -109.5752153}, {"type": "node", "id": 8902058319, "lat": 38.6027476, "lon": -109.5748943}, {"type": "node", "id": 8902058320, "lat": 38.6027722, "lon": -109.574891}, {"type": "node", "id": 8902058321, "lat": 38.6027951, "lon": -109.574891}, {"type": "node", "id": 8902058322, "lat": 38.6028157, "lon": -109.5749025}, {"type": "node", "id": 8902058323, "lat": 38.602833, "lon": -109.5749157}, {"type": "node", "id": 8902058324, "lat": 38.6028571, "lon": -109.5749719}, {"type": "node", "id": 8902058354, "lat": 38.602439, "lon": -109.5756591}, {"type": "node", "id": 8902058356, "lat": 38.6027592, "lon": -109.5754019}, {"type": "node", "id": 8902058357, "lat": 38.6019968, "lon": -109.5749111}, {"type": "node", "id": 8902058358, "lat": 38.6021205, "lon": -109.5748857}, {"type": "node", "id": 8902058359, "lat": 38.6020792, "lon": -109.5749365}, {"type": "node", "id": 8902058360, "lat": 38.6020573, "lon": -109.5749104}, {"type": "node", "id": 8902058361, "lat": 38.602098, "lon": -109.5748567}, {"type": "node", "id": 8902058362, "lat": 38.6020683, "lon": -109.5749235}, {"type": "node", "id": 8902058372, "lat": 38.6015977, "lon": -109.5754114}, {"type": "node", "id": 8902058375, "lat": 38.60292, "lon": -109.5749755}, {"type": "node", "id": 8902058377, "lat": 38.6030206, "lon": -109.574948}, {"type": "node", "id": 8902058379, "lat": 38.6030697, "lon": -109.574888, "tags": {"highway": "trailhead"}}, {"type": "node", "id": 8902095767, "lat": 38.5648519, "lon": -109.5359695}, {"type": "node", "id": 8902095768, "lat": 38.5648538, "lon": -109.5361045}, {"type": "node", "id": 8902095769, "lat": 38.5647544, "lon": -109.5361068}, {"type": "node", "id": 8902095770, "lat": 38.5647526, "lon": -109.5359717}, {"type": "node", "id": 8902095772, "lat": 38.5649708, "lon": -109.5362423}, {"type": "node", "id": 8902095773, "lat": 38.5649711, "lon": -109.5363646}, {"type": "node", "id": 8902095774, "lat": 38.5647127, "lon": -109.5363655}, {"type": "node", "id": 8902095775, "lat": 38.5647124, "lon": -109.5362431}, {"type": "node", "id": 8902095776, "lat": 38.56472, "lon": -109.536101, "tags": {"access": "yes", "amenity": "drinking_water", "fee": "no"}}, {"type": "node", "id": 8902095805, "lat": 38.5651326, "lon": -109.537154}, {"type": "node", "id": 8902920411, "lat": 38.5707889, "lon": -109.5487191, "tags": {"access": "yes", "amenity": "toilets", "unisex": "yes"}}, {"type": "node", "id": 8902920412, "lat": 38.570756, "lon": -109.5486984, "tags": {"amenity": "drinking_water", "bottle": "no", "indoor": "no"}}, {"type": "node", "id": 8902920413, "lat": 38.5707519, "lon": -109.5487319, "tags": {"amenity": "waste_basket", "waste": "trash"}}, {"type": "node", "id": 8905149675, "lat": 38.5656101, "lon": -109.5382068}, {"type": "node", "id": 8905149676, "lat": 38.5655024, "lon": -109.538271}, {"type": "node", "id": 8905149677, "lat": 38.5654217, "lon": -109.5380497}, {"type": "node", "id": 8905149678, "lat": 38.5655294, "lon": -109.5379855}, {"type": "node", "id": 8905149680, "lat": 38.5655674, "lon": -109.5380898}, {"type": "node", "id": 8908273164, "lat": 38.6020545, "lon": -109.5748982, "tags": {"amenity": "waste_basket", "material": "metal"}}, {"type": "node", "id": 9070898611, "lat": 38.565934, "lon": -109.5486039}, {"type": "node", "id": 9208610035, "lat": 38.5746026, "lon": -109.549572, "tags": {"addr:city": "Moab", "addr:housenumber": "62", "addr:postcode": "84532", "addr:state": "UT", "addr:street": "East 100 North", "amenity": "ranger_station", "building": "yes", "name": "Moab Ranger District", "operator": "USDA", "operator:type": "public", "website": "https://www.fs.usda.gov/organization/Moab%20Ranger%20District"}}, {"type": "node", "id": 9245011420, "lat": 38.5791115, "lon": -109.560966, "tags": {"addr:housenumber": "495", "addr:postcode": "84532", "addr:state": "UT", "addr:street": "West 400 North", "amenity": "cafe", "cuisine": "coffee_shop", "name": "Snake Oil Coffee Company", "opening_hours": "Mo-Su 07:00-14:00", "website": "https://snakeoilcoffeeco.com/"}}, {"type": "node", "id": 9387265067, "lat": 38.5811766, "lon": -109.5512922, "tags": {"amenity": "charging_station"}}, {"type": "node", "id": 9392477923, "lat": 38.5815221, "lon": -109.5517106, "tags": {"amenity": "post_box", "brand": "FedEx", "brand:wikidata": "Q459477", "operator": "FedEx", "operator:wikidata": "Q459477", "operator:wikipedia": "en:FedEx"}}, {"type": "node", "id": 9514652485, "lat": 38.5757148, "lon": -109.5575885}, {"type": "node", "id": 9699465284, "lat": 38.5747044, "lon": -109.5513853}, {"type": "node", "id": 9699465285, "lat": 38.5743214, "lon": -109.5521409}, {"type": "node", "id": 9699465286, "lat": 38.5743184, "lon": -109.5513878}, {"type": "node", "id": 9699465287, "lat": 38.5747074, "lon": -109.5521384}, {"type": "node", "id": 9704088318, "lat": 38.5722058, "lon": -109.5517764}, {"type": "node", "id": 9704088319, "lat": 38.5719136, "lon": -109.5520094}, {"type": "node", "id": 9704088320, "lat": 38.5722077, "lon": -109.5520054}, {"type": "node", "id": 9704088321, "lat": 38.5719117, "lon": -109.5517803}, {"type": "node", "id": 9705626947, "lat": 38.5775569, "lon": -109.5532423, "tags": {"amenity": "shelter", "shelter_type": "picnic_shelter"}}, {"type": "node", "id": 9705626948, "lat": 38.578106, "lon": -109.5546559, "tags": {"amenity": "shelter", "shelter_type": "picnic_shelter"}}, {"type": "node", "id": 9705626949, "lat": 38.5775562, "lon": -109.5543251, "tags": {"amenity": "shelter", "shelter_type": "picnic_shelter"}}, {"type": "node", "id": 9705626950, "lat": 38.5775886, "lon": -109.5546243, "tags": {"amenity": "shelter", "shelter_type": "picnic_shelter"}}, {"type": "node", "id": 9705626951, "lat": 38.5775572, "lon": -109.5540873, "tags": {"amenity": "shelter", "shelter_type": "picnic_shelter"}}, {"type": "node", "id": 9705626952, "lat": 38.5783211, "lon": -109.5546553, "tags": {"amenity": "shelter", "shelter_type": "picnic_shelter"}}, {"type": "node", "id": 9705626953, "lat": 38.5775589, "lon": -109.553766, "tags": {"amenity": "shelter", "shelter_type": "picnic_shelter"}}, {"type": "node", "id": 9705626954, "lat": 38.5775577, "lon": -109.5535429, "tags": {"amenity": "shelter", "shelter_type": "picnic_shelter"}}, {"type": "node", "id": 9705626955, "lat": 38.5778891, "lon": -109.5546554, "tags": {"amenity": "shelter", "shelter_type": "picnic_shelter"}}, {"type": "node", "id": 9717278420, "lat": 38.5844095, "lon": -109.556001, "tags": {"amenity": "bank", "name": "Desert"}}, {"type": "node", "id": 9770314917, "lat": 38.573123, "lon": -109.5549579}, {"type": "node", "id": 9770314918, "lat": 38.5731257, "lon": -109.5551488}, {"type": "node", "id": 9770314919, "lat": 38.5732087, "lon": -109.5551468}, {"type": "node", "id": 9770314920, "lat": 38.573206, "lon": -109.5549559}, {"type": "node", "id": 9780174337, "lat": 38.5737108, "lon": -109.5539833, "tags": {"addr:city": "Moab", "addr:housenumber": "180", "addr:postcode": "84532", "addr:state": "UT", "addr:street": "West Center Street", "amenity": "restaurant", "contact:facebook": "moabkitchen", "contact:instagram": "moabkitchen", "diet:vegan": "only", "email": "moabkitchen@gmail.com", "name": "Moab Kitchen", "opening_hours": "Th-Sa 15:00-21:00; Su 10:00-15:00", "outdoor_seating": "yes", "website": "https://moabkitchen.com/"}}, {"type": "node", "id": 9948381908, "lat": 38.5627379, "lon": -109.5453296}, {"type": "node", "id": 9978830996, "lat": 38.5693268, "lon": -109.5512612, "tags": {"amenity": "parking"}}, {"type": "node", "id": 9980811537, "lat": 38.5742671, "lon": -109.550356, "tags": {"amenity": "pub", "name": "The raven room", "opening_hours": "Th-Su 06:30-22:30"}}, {"type": "node", "id": 9980839135, "lat": 38.5750048, "lon": -109.5505893, "tags": {"amenity": "restaurant", "name": "Trailhead public house & eatery"}}, {"type": "node", "id": 10198502103, "lat": 38.5659604, "lon": -109.5486045}, {"type": "node", "id": 10198502104, "lat": 38.5659158, "lon": -109.5462705}, {"type": "node", "id": 10198510327, "lat": 38.5677502, "lon": -109.5485507}, {"type": "node", "id": 10198510328, "lat": 38.5673569, "lon": -109.5485572}, {"type": "node", "id": 10198510329, "lat": 38.5673479, "lon": -109.5476607}, {"type": "node", "id": 10198510330, "lat": 38.567741, "lon": -109.5476542}, {"type": "node", "id": 10198510331, "lat": 38.5669645, "lon": -109.5462183}, {"type": "node", "id": 10198510332, "lat": 38.5667631, "lon": -109.5461265}, {"type": "node", "id": 10199399030, "lat": 38.5947583, "lon": -109.5694192}, {"type": "node", "id": 10199399031, "lat": 38.5940602, "lon": -109.5691918}, {"type": "node", "id": 10199399032, "lat": 38.594103, "lon": -109.568865}, {"type": "node", "id": 10199399033, "lat": 38.5942204, "lon": -109.5689056}, {"type": "node", "id": 10199399034, "lat": 38.5942173, "lon": -109.569072}, {"type": "node", "id": 10199399035, "lat": 38.5942474, "lon": -109.5691167}, {"type": "node", "id": 10199399036, "lat": 38.5942823, "lon": -109.5691289}, {"type": "node", "id": 10199399037, "lat": 38.5945155, "lon": -109.5691756}, {"type": "node", "id": 10199399038, "lat": 38.5948059, "lon": -109.5685159}, {"type": "node", "id": 10199399039, "lat": 38.5948249, "lon": -109.5684834}, {"type": "node", "id": 10199399040, "lat": 38.5947281, "lon": -109.5683514}, {"type": "node", "id": 10199399041, "lat": 38.5946821, "lon": -109.5683941}, {"type": "node", "id": 10199399042, "lat": 38.5943347, "lon": -109.5678906}, {"type": "node", "id": 10199399043, "lat": 38.5944188, "lon": -109.5677851}, {"type": "node", "id": 10199399044, "lat": 38.5950121, "lon": -109.5686234}, {"type": "node", "id": 10199399045, "lat": 38.5949106, "lon": -109.5687655}, {"type": "node", "id": 10199399046, "lat": 38.5949899, "lon": -109.568865}, {"type": "node", "id": 10199399047, "lat": 38.5948392, "lon": -109.5692182}, {"type": "node", "id": 10199399048, "lat": 38.5947757, "lon": -109.5691938}, {"type": "node", "id": 10199399049, "lat": 38.5947392, "lon": -109.5692994}, {"type": "node", "id": 10199399050, "lat": 38.5947773, "lon": -109.5693136}, {"type": "node", "id": 10199399051, "lat": 38.5945774, "lon": -109.5704179}, {"type": "node", "id": 10199399052, "lat": 38.5941982, "lon": -109.5703144}, {"type": "node", "id": 10199399053, "lat": 38.5941839, "lon": -109.5703956}, {"type": "node", "id": 10199399054, "lat": 38.5940174, "lon": -109.570355}, {"type": "node", "id": 10199399055, "lat": 38.5941316, "lon": -109.5696019}, {"type": "node", "id": 10199399056, "lat": 38.5946742, "lon": -109.5697582}, {"type": "node", "id": 10199399057, "lat": 38.5946187, "lon": -109.5700484}, {"type": "node", "id": 10199399058, "lat": 38.5946932, "lon": -109.5701114}, {"type": "node", "id": 10199399059, "lat": 38.5945044, "lon": -109.5702433}, {"type": "node", "id": 10199399060, "lat": 38.594222, "lon": -109.5701601}, {"type": "node", "id": 10199399061, "lat": 38.5942728, "lon": -109.5698536}, {"type": "node", "id": 10199399062, "lat": 38.5946155, "lon": -109.5699612}, {"type": "node", "id": 10199399063, "lat": 38.5954029, "lon": -109.5708521}, {"type": "node", "id": 10199399064, "lat": 38.5952915, "lon": -109.5708142}, {"type": "node", "id": 10199399065, "lat": 38.595303, "lon": -109.5707586}, {"type": "node", "id": 10199399066, "lat": 38.5952645, "lon": -109.5707455}, {"type": "node", "id": 10199399067, "lat": 38.5954848, "lon": -109.5696852}, {"type": "node", "id": 10199399068, "lat": 38.5956346, "lon": -109.5697362}, {"type": "node", "id": 10199399069, "lat": 38.5955394, "lon": -109.569616}, {"type": "node", "id": 10199399070, "lat": 38.59528, "lon": -109.569234}, {"type": "node", "id": 10199399071, "lat": 38.5953618, "lon": -109.5691431}, {"type": "node", "id": 10199399072, "lat": 38.5956212, "lon": -109.5695251}, {"type": "node", "id": 10199399073, "lat": 38.5953011, "lon": -109.5708522}, {"type": "node", "id": 10199399074, "lat": 38.5950825, "lon": -109.5707086}, {"type": "node", "id": 10199399075, "lat": 38.5950421, "lon": -109.5706626}, {"type": "node", "id": 10199399076, "lat": 38.5950541, "lon": -109.5702815}, {"type": "node", "id": 10199399077, "lat": 38.5951125, "lon": -109.5702853}, {"type": "node", "id": 10199399078, "lat": 38.595111, "lon": -109.569864}, {"type": "node", "id": 10199399079, "lat": 38.5949418, "lon": -109.5698659}, {"type": "node", "id": 10199399080, "lat": 38.5949299, "lon": -109.5707239}, {"type": "node", "id": 10199399081, "lat": 38.5952547, "lon": -109.5709671}, {"type": "node", "id": 10199399245, "lat": 38.5872452, "lon": -109.5580957}, {"type": "node", "id": 10199399246, "lat": 38.5870879, "lon": -109.5580785}, {"type": "node", "id": 10199399247, "lat": 38.5870434, "lon": -109.5580612}, {"type": "node", "id": 10199399248, "lat": 38.5870009, "lon": -109.5580281}, {"type": "node", "id": 10199399249, "lat": 38.5869336, "lon": -109.5579367}, {"type": "node", "id": 10199399250, "lat": 38.5869688, "lon": -109.5578838}, {"type": "node", "id": 10199399251, "lat": 38.5864864, "lon": -109.5572957}, {"type": "node", "id": 10199399252, "lat": 38.5866324, "lon": -109.5570851}, {"type": "node", "id": 10199399253, "lat": 38.5865796, "lon": -109.5570189}, {"type": "node", "id": 10199399254, "lat": 38.5866106, "lon": -109.5569778}, {"type": "node", "id": 10199399255, "lat": 38.5863, "lon": -109.5566123}, {"type": "node", "id": 10199399256, "lat": 38.586059, "lon": -109.556899}, {"type": "node", "id": 10199399257, "lat": 38.5861509, "lon": -109.5570109}, {"type": "node", "id": 10199399258, "lat": 38.5860836, "lon": -109.5570772}, {"type": "node", "id": 10199399259, "lat": 38.5869978, "lon": -109.5582136}, {"type": "node", "id": 10199399260, "lat": 38.587238, "lon": -109.5582334}, {"type": "node", "id": 10236378644, "lat": 38.5874436, "lon": -109.555235}, {"type": "node", "id": 10236378645, "lat": 38.5873567, "lon": -109.5551619}, {"type": "node", "id": 10236378646, "lat": 38.5873008, "lon": -109.5551378}, {"type": "node", "id": 10236378647, "lat": 38.587134, "lon": -109.5552868}, {"type": "node", "id": 10236378648, "lat": 38.5871705, "lon": -109.5553117}, {"type": "node", "id": 10236378649, "lat": 38.5872888, "lon": -109.5555419}, {"type": "node", "id": 10236378650, "lat": 38.5872459, "lon": -109.5556142}, {"type": "node", "id": 10236378651, "lat": 38.5874447, "lon": -109.5557216}, {"type": "node", "id": 10236378652, "lat": 38.587411, "lon": -109.5556354}, {"type": "node", "id": 10236378653, "lat": 38.5873841, "lon": -109.5556113}, {"type": "node", "id": 10236378654, "lat": 38.5873636, "lon": -109.5555733}, {"type": "node", "id": 10236378655, "lat": 38.5873407, "lon": -109.5555134}, {"type": "node", "id": 10236378656, "lat": 38.5873345, "lon": -109.5554366}, {"type": "node", "id": 10236378657, "lat": 38.5873464, "lon": -109.5553497}, {"type": "node", "id": 10236378658, "lat": 38.587375, "lon": -109.5553015}, {"type": "node", "id": 10236378659, "lat": 38.5874053, "lon": -109.5552854}, {"type": "node", "id": 10236378660, "lat": 38.5874344, "lon": -109.5552868}, {"type": "node", "id": 10236378661, "lat": 38.5872061, "lon": -109.5557616}, {"type": "node", "id": 10236378662, "lat": 38.5871959, "lon": -109.5557242}, {"type": "node", "id": 10236378663, "lat": 38.5872337, "lon": -109.5557084}, {"type": "node", "id": 10236378664, "lat": 38.5872353, "lon": -109.5556798}, {"type": "node", "id": 10236378665, "lat": 38.5872768, "lon": -109.5550796}, {"type": "node", "id": 10236378678, "lat": 38.587516, "lon": -109.5549549}, {"type": "node", "id": 10236378679, "lat": 38.5876001, "lon": -109.5547756}, {"type": "node", "id": 10236378680, "lat": 38.5876903, "lon": -109.5546776}, {"type": "node", "id": 10236378681, "lat": 38.5874319, "lon": -109.5544304}, {"type": "node", "id": 10236378682, "lat": 38.5873387, "lon": -109.5546495}, {"type": "node", "id": 10236378683, "lat": 38.5873902, "lon": -109.5546999}, {"type": "node", "id": 10236378684, "lat": 38.5873462, "lon": -109.554795}, {"type": "node", "id": 10236378692, "lat": 38.5873546, "lon": -109.5546651}, {"type": "node", "id": 10236378693, "lat": 38.5880924, "lon": -109.5574295}, {"type": "node", "id": 10236378694, "lat": 38.5880648, "lon": -109.5573908}, {"type": "node", "id": 10236378695, "lat": 38.5880286, "lon": -109.5573555}, {"type": "node", "id": 10236378696, "lat": 38.5879957, "lon": -109.5573395}, {"type": "node", "id": 10236378697, "lat": 38.5879563, "lon": -109.5573353}, {"type": "node", "id": 10236378698, "lat": 38.5879135, "lon": -109.5573571}, {"type": "node", "id": 10236378699, "lat": 38.5878984, "lon": -109.5573706}, {"type": "node", "id": 10236378700, "lat": 38.5878734, "lon": -109.5573209}, {"type": "node", "id": 10236378701, "lat": 38.5879122, "lon": -109.5572982}, {"type": "node", "id": 10236378702, "lat": 38.5879589, "lon": -109.5572847}, {"type": "node", "id": 10236378703, "lat": 38.5879872, "lon": -109.5572839}, {"type": "node", "id": 10236378704, "lat": 38.5880168, "lon": -109.5572839}, {"type": "node", "id": 10236378705, "lat": 38.5880556, "lon": -109.5573075}, {"type": "node", "id": 10236378706, "lat": 38.5880852, "lon": -109.5573353}, {"type": "node", "id": 10236378707, "lat": 38.5881056, "lon": -109.557358}, {"type": "node", "id": 10236378708, "lat": 38.5881227, "lon": -109.5573849}, {"type": "node", "id": 10236400409, "lat": 38.5881299, "lon": -109.5574068}, {"type": "node", "id": 10240857274, "lat": 38.5702597, "lon": -109.5517297}, {"type": "node", "id": 10240857275, "lat": 38.5702608, "lon": -109.5511521}, {"type": "node", "id": 10240857276, "lat": 38.5703147, "lon": -109.5517336}, {"type": "node", "id": 10240857277, "lat": 38.5703151, "lon": -109.5511553}, {"type": "node", "id": 10240875352, "lat": 38.5733517, "lon": -109.5471126, "tags": {"amenity": "parking_space", "parking_space": "disabled"}}, {"type": "node", "id": 10240890468, "lat": 38.573359, "lon": -109.5479316, "tags": {"amenity": "parking_space", "parking_space": "disabled"}}, {"type": "node", "id": 10240890469, "lat": 38.5733575, "lon": -109.5482897, "tags": {"amenity": "parking_space", "parking_space": "disabled"}}, {"type": "node", "id": 10578134704, "lat": 38.572563, "lon": -109.5531196}, {"type": "node", "id": 10578134705, "lat": 38.5725638, "lon": -109.5529279}, {"type": "node", "id": 10578134706, "lat": 38.5727997, "lon": -109.5529295}, {"type": "node", "id": 10585969594, "lat": 38.5789886, "lon": -109.5585283}, {"type": "node", "id": 10585969595, "lat": 38.5789875, "lon": -109.5582505}, {"type": "node", "id": 10585969596, "lat": 38.5789882, "lon": -109.5580916}, {"type": "node", "id": 10585969597, "lat": 38.5788738, "lon": -109.5580908}, {"type": "node", "id": 10585969598, "lat": 38.5788734, "lon": -109.5581874}, {"type": "node", "id": 10585969599, "lat": 38.5786571, "lon": -109.5581859}, {"type": "node", "id": 10585969600, "lat": 38.5786566, "lon": -109.558317}, {"type": "node", "id": 10585969601, "lat": 38.578639, "lon": -109.5583168}, {"type": "node", "id": 10585969602, "lat": 38.5786388, "lon": -109.5583619}, {"type": "node", "id": 10585969603, "lat": 38.5786328, "lon": -109.5583619}, {"type": "node", "id": 10585969604, "lat": 38.5786326, "lon": -109.5584181}, {"type": "node", "id": 10585977505, "lat": 38.5786386, "lon": -109.5584182}, {"type": "node", "id": 10585977506, "lat": 38.5786384, "lon": -109.5584585}, {"type": "node", "id": 10585977507, "lat": 38.5786559, "lon": -109.5584586}, {"type": "node", "id": 10585977508, "lat": 38.5786554, "lon": -109.5585926}, {"type": "node", "id": 10585977509, "lat": 38.5788716, "lon": -109.5585942}, {"type": "node", "id": 10585977510, "lat": 38.5788712, "lon": -109.5586876}, {"type": "node", "id": 10585977511, "lat": 38.5789879, "lon": -109.5586884}, {"type": "node", "id": 10585977512, "lat": 38.5789949, "lon": -109.5584717}, {"type": "node", "id": 10585977513, "lat": 38.5789954, "lon": -109.5583102}, {"type": "node", "id": 10671975578, "lat": 38.5805282, "lon": -109.5546154}, {"type": "node", "id": 10671975579, "lat": 38.579613, "lon": -109.5542226}, {"type": "node", "id": 10671975580, "lat": 38.5797243, "lon": -109.5537982}, {"type": "node", "id": 10671975581, "lat": 38.5806395, "lon": -109.5541909}, {"type": "node", "id": 10671975589, "lat": 38.581888, "lon": -109.555938}, {"type": "node", "id": 10671975590, "lat": 38.5817766, "lon": -109.555938}, {"type": "node", "id": 10671975591, "lat": 38.5817764, "lon": -109.5550641}, {"type": "node", "id": 10671975592, "lat": 38.5818879, "lon": -109.5550641}, {"type": "node", "id": 10681398081, "lat": 38.5705255, "lon": -109.5524647, "tags": {"addr:city": "Moab", "addr:housenumber": "100", "addr:postcode": "84532", "addr:state": "PA", "addr:street": "West 200 South", "amenity": "cafe", "internet_access": "wlan", "internet_access:fee": "no", "name": "Cafe & Lounge Italiano", "opening_hours": "Mo-Su 07:00-11:00", "outdoor_seating": "yes", "phone": "+1 832-482-7946", "takeaway": "yes", "website": "https://www.cafeloungeitaliano.com/"}}, {"type": "node", "id": 10728709227, "lat": 38.5744097, "lon": -109.5612197}, {"type": "node", "id": 10728710751, "lat": 38.5743491, "lon": -109.5611973}, {"type": "node", "id": 10895105871, "lat": 38.5587685, "lon": -109.5436894}, {"type": "node", "id": 10895105872, "lat": 38.5587253, "lon": -109.5436188}, {"type": "node", "id": 10895105873, "lat": 38.5586643, "lon": -109.5436798}, {"type": "node", "id": 10895105874, "lat": 38.5587075, "lon": -109.5437504}, {"type": "node", "id": 10915422944, "lat": 38.5698315, "lon": -109.5510896}, {"type": "node", "id": 10915422945, "lat": 38.5698522, "lon": -109.5510896}, {"type": "node", "id": 10915422946, "lat": 38.5698295, "lon": -109.5511405}, {"type": "node", "id": 10915422947, "lat": 38.5698295, "lon": -109.5512009}, {"type": "node", "id": 10915422948, "lat": 38.5698522, "lon": -109.5511405}, {"type": "node", "id": 10915422949, "lat": 38.5698522, "lon": -109.5512009}, {"type": "node", "id": 10917188716, "lat": 38.5766534, "lon": -109.5523378}, {"type": "node", "id": 10917188717, "lat": 38.5767061, "lon": -109.5523399}, {"type": "node", "id": 10917188718, "lat": 38.5767068, "lon": -109.552311}, {"type": "node", "id": 10917188719, "lat": 38.5767901, "lon": -109.5523144}, {"type": "node", "id": 10917188720, "lat": 38.5767866, "lon": -109.5524548}, {"type": "node", "id": 11050238808, "lat": 38.5699843, "lon": -109.5512492, "tags": {"amenity": "parking"}}, {"type": "node", "id": 11053974288, "lat": 38.5734556, "lon": -109.5492824, "tags": {"amenity": "fast_food", "cuisine": "donut"}}, {"type": "node", "id": 11142014740, "lat": 38.5584446, "lon": -109.543097, "tags": {"amenity": "vending_machine", "bin": "yes", "brand": "Doggie Walk Bags", "vending": "excrement_bags"}}, {"type": "node", "id": 11142014743, "lat": 38.5583937, "lon": -109.5431441, "tags": {"amenity": "waste_basket", "waste": "trash"}}, {"type": "node", "id": 11142014744, "lat": 38.5584027, "lon": -109.5431588, "tags": {"amenity": "waste_basket", "waste": "dog_excrement"}}, {"type": "node", "id": 11155618211, "lat": 38.5650089, "lon": -109.548892}, {"type": "node", "id": 11155618212, "lat": 38.565007, "lon": -109.5488206}, {"type": "node", "id": 11155618213, "lat": 38.5650712, "lon": -109.5488204}, {"type": "node", "id": 11155618214, "lat": 38.5650707, "lon": -109.5487705}, {"type": "node", "id": 11155618217, "lat": 38.565363, "lon": -109.548592}, {"type": "node", "id": 11347373898, "lat": 38.5778608, "lon": -109.5525446, "tags": {"amenity": "charging_station", "brand": "ChargePoint", "brand:wikidata": "Q5176149", "name": "ChargePoint", "operator": "ChargePoint", "operator:wikidata": "Q5176149"}}, {"type": "node", "id": 11541673379, "lat": 38.5765322, "lon": -109.5638533}, {"type": "node", "id": 11541673380, "lat": 38.5770428, "lon": -109.5634818}, {"type": "node", "id": 11541673381, "lat": 38.5770682, "lon": -109.563539}, {"type": "node", "id": 11541673382, "lat": 38.5765576, "lon": -109.5639105}, {"type": "node", "id": 11541673474, "lat": 38.575908, "lon": -109.5584428}, {"type": "node", "id": 11541673475, "lat": 38.5759516, "lon": -109.5581961}, {"type": "node", "id": 11541673476, "lat": 38.5759516, "lon": -109.5581385}, {"type": "node", "id": 11541673477, "lat": 38.5759083, "lon": -109.5581384}, {"type": "node", "id": 11541673478, "lat": 38.5759083, "lon": -109.5581961}, {"type": "node", "id": 11541673479, "lat": 38.5759585, "lon": -109.5584429}, {"type": "node", "id": 11541673480, "lat": 38.5762224, "lon": -109.5586294}, {"type": "node", "id": 11541673481, "lat": 38.5762221, "lon": -109.5588314}, {"type": "node", "id": 11541673482, "lat": 38.5762189, "lon": -109.557901}, {"type": "node", "id": 11541673483, "lat": 38.5762765, "lon": -109.5579011}, {"type": "node", "id": 11541673484, "lat": 38.576219, "lon": -109.557815}, {"type": "node", "id": 11541673485, "lat": 38.5762767, "lon": -109.557815}, {"type": "node", "id": 11541673486, "lat": 38.5763332, "lon": -109.5579009}, {"type": "node", "id": 11541673487, "lat": 38.576391, "lon": -109.557901}, {"type": "node", "id": 11541673488, "lat": 38.5759558, "lon": -109.5579145}, {"type": "node", "id": 11541673489, "lat": 38.5759086, "lon": -109.5579144}, {"type": "node", "id": 11541673490, "lat": 38.5759583, "lon": -109.5586288}, {"type": "node", "id": 11541673491, "lat": 38.5759559, "lon": -109.5578144}, {"type": "node", "id": 11541673492, "lat": 38.5763333, "lon": -109.5578151}, {"type": "node", "id": 11541673493, "lat": 38.5763898, "lon": -109.5588318}, {"type": "node", "id": 11541673560, "lat": 38.5746696, "lon": -109.5543422}, {"type": "node", "id": 11541673561, "lat": 38.5747142, "lon": -109.5542857}, {"type": "node", "id": 11541673562, "lat": 38.5746268, "lon": -109.5542871}, {"type": "node", "id": 11541673563, "lat": 38.5750698, "lon": -109.553725}, {"type": "node", "id": 11541673564, "lat": 38.5751831, "lon": -109.553871}, {"type": "node", "id": 11541673565, "lat": 38.5747847, "lon": -109.5543766}, {"type": "node", "id": 11541673566, "lat": 38.5755234, "lon": -109.554846}, {"type": "node", "id": 11541673567, "lat": 38.5752571, "lon": -109.5548446}, {"type": "node", "id": 11541673568, "lat": 38.5752565, "lon": -109.5550512}, {"type": "node", "id": 11541673569, "lat": 38.5755228, "lon": -109.5550525}, {"type": "node", "id": 11541673629, "lat": 38.5790324, "lon": -109.5510701}, {"type": "node", "id": 11541673630, "lat": 38.5791829, "lon": -109.5510996}, {"type": "node", "id": 11541673631, "lat": 38.5791415, "lon": -109.5514557}, {"type": "node", "id": 11541673632, "lat": 38.5790041, "lon": -109.5514215}, {"type": "node", "id": 11541673633, "lat": 38.5790494, "lon": -109.5510166}, {"type": "node", "id": 11541673634, "lat": 38.5788848, "lon": -109.5509925}, {"type": "node", "id": 11541673635, "lat": 38.5788275, "lon": -109.5511311}, {"type": "node", "id": 11541673636, "lat": 38.5790497, "lon": -109.5512733}, {"type": "node", "id": 11541673637, "lat": 38.5789017, "lon": -109.5518117}, {"type": "node", "id": 11541673638, "lat": 38.5789008, "lon": -109.5517373}, {"type": "node", "id": 11541673639, "lat": 38.579153, "lon": -109.5517323}, {"type": "node", "id": 11541673640, "lat": 38.5787715, "lon": -109.5518143}, {"type": "node", "id": 11541673641, "lat": 38.578768, "lon": -109.5515236}, {"type": "node", "id": 11541673642, "lat": 38.5791504, "lon": -109.551516}, {"type": "node", "id": 11541673652, "lat": 38.5760698, "lon": -109.5521387}, {"type": "node", "id": 11541673653, "lat": 38.5761265, "lon": -109.552138}, {"type": "node", "id": 11541673654, "lat": 38.5760727, "lon": -109.5525039}, {"type": "node", "id": 11541673655, "lat": 38.5761241, "lon": -109.5518379}, {"type": "node", "id": 11541673656, "lat": 38.5762316, "lon": -109.5518366}, {"type": "node", "id": 11541673657, "lat": 38.5762368, "lon": -109.5525017}, {"type": "node", "id": 11541673680, "lat": 38.5740293, "lon": -109.5522245}, {"type": "node", "id": 11541673681, "lat": 38.5741043, "lon": -109.5522228}, {"type": "node", "id": 11541673682, "lat": 38.5740679, "lon": -109.5516267}, {"type": "node", "id": 11541673683, "lat": 38.5740959, "lon": -109.551626}, {"type": "node", "id": 11541673684, "lat": 38.5738174, "lon": -109.5515677}, {"type": "node", "id": 11541673685, "lat": 38.5738202, "lon": -109.5517658}, {"type": "node", "id": 11541673686, "lat": 38.574067, "lon": -109.551562}, {"type": "node", "id": 11541673687, "lat": 38.5740302, "lon": -109.5522842}, {"type": "node", "id": 11541673688, "lat": 38.5737844, "lon": -109.5522898}, {"type": "node", "id": 11541673689, "lat": 38.5737771, "lon": -109.5517668}, {"type": "node", "id": 11541673698, "lat": 38.5784747, "lon": -109.5512284}, {"type": "node", "id": 11541673699, "lat": 38.5783069, "lon": -109.5512284}, {"type": "node", "id": 11541673700, "lat": 38.5783069, "lon": -109.5514932}, {"type": "node", "id": 11541673701, "lat": 38.5784747, "lon": -109.5514932}, {"type": "node", "id": 11541673728, "lat": 38.5781573, "lon": -109.5520604}, {"type": "node", "id": 11541673729, "lat": 38.5780825, "lon": -109.5520619}, {"type": "node", "id": 11541673730, "lat": 38.5778083, "lon": -109.5522874}, {"type": "node", "id": 11541673731, "lat": 38.5777999, "lon": -109.5516102}, {"type": "node", "id": 11541673732, "lat": 38.5781517, "lon": -109.551603}, {"type": "node", "id": 11541673733, "lat": 38.5780852, "lon": -109.5522818}, {"type": "node", "id": 11541673734, "lat": 38.5780953, "lon": -109.5525165}, {"type": "node", "id": 11541673735, "lat": 38.5778, "lon": -109.5525205}, {"type": "node", "id": 11541673736, "lat": 38.5777983, "lon": -109.552318}, {"type": "node", "id": 11541673737, "lat": 38.5780936, "lon": -109.552314}, {"type": "node", "id": 11541673979, "lat": 38.5797846, "lon": -109.5645357}, {"type": "node", "id": 11541673980, "lat": 38.5797841, "lon": -109.5641515}, {"type": "node", "id": 11541673981, "lat": 38.5798921, "lon": -109.5641512}, {"type": "node", "id": 11541673982, "lat": 38.5798926, "lon": -109.5645355}, {"type": "node", "id": 11541673997, "lat": 38.5794659, "lon": -109.5635844}, {"type": "node", "id": 11541673998, "lat": 38.5794654, "lon": -109.5633618}, {"type": "node", "id": 11541673999, "lat": 38.579586, "lon": -109.5633613}, {"type": "node", "id": 11541674000, "lat": 38.5795865, "lon": -109.563584}, {"type": "node", "id": 11541674271, "lat": 38.5784836, "lon": -109.5535989}, {"type": "node", "id": 11541674272, "lat": 38.5784555, "lon": -109.5535482}, {"type": "node", "id": 11541674273, "lat": 38.5784637, "lon": -109.5534869}, {"type": "node", "id": 11541674274, "lat": 38.5785033, "lon": -109.553451}, {"type": "node", "id": 11541674275, "lat": 38.5785512, "lon": -109.5534614}, {"type": "node", "id": 11541674276, "lat": 38.5785793, "lon": -109.5535121}, {"type": "node", "id": 11541674277, "lat": 38.5785712, "lon": -109.5535734}, {"type": "node", "id": 11541674278, "lat": 38.5785315, "lon": -109.5536093}, {"type": "node", "id": 11541674291, "lat": 38.5795939, "lon": -109.5506109}, {"type": "node", "id": 11541674292, "lat": 38.5795887, "lon": -109.5496319}, {"type": "node", "id": 11541674293, "lat": 38.5797564, "lon": -109.5496304}, {"type": "node", "id": 11541674294, "lat": 38.5797616, "lon": -109.5506094}, {"type": "node", "id": 11592228342, "lat": 38.6017476, "lon": -109.5749628}, {"type": "node", "id": 11592228343, "lat": 38.6016483, "lon": -109.5749605}, {"type": "node", "id": 11592228344, "lat": 38.6016398, "lon": -109.5749589}, {"type": "node", "id": 11592228345, "lat": 38.601632, "lon": -109.5749551}, {"type": "node", "id": 11592228346, "lat": 38.6016272, "lon": -109.5749474}, {"type": "node", "id": 11592228347, "lat": 38.6016284, "lon": -109.5749343}, {"type": "node", "id": 11592228348, "lat": 38.601635, "lon": -109.5749274}, {"type": "node", "id": 11592228349, "lat": 38.6016446, "lon": -109.5749258}, {"type": "node", "id": 11592228350, "lat": 38.6017452, "lon": -109.5749297}, {"type": "node", "id": 11592228351, "lat": 38.6017548, "lon": -109.5749351}, {"type": "node", "id": 11592228352, "lat": 38.6017572, "lon": -109.5749443}, {"type": "node", "id": 11592228353, "lat": 38.6017566, "lon": -109.5749551}, {"type": "node", "id": 11592228354, "lat": 38.6017367, "lon": -109.5752054}, {"type": "node", "id": 11592228355, "lat": 38.601682, "lon": -109.5752046}, {"type": "node", "id": 11592228356, "lat": 38.601679, "lon": -109.5752686}, {"type": "node", "id": 11592228357, "lat": 38.6016278, "lon": -109.5752686}, {"type": "node", "id": 11592228358, "lat": 38.6016206, "lon": -109.5752709}, {"type": "node", "id": 11592228359, "lat": 38.6016145, "lon": -109.5752801}, {"type": "node", "id": 11592228360, "lat": 38.6016145, "lon": -109.5752925}, {"type": "node", "id": 11592228361, "lat": 38.6016194, "lon": -109.5753071}, {"type": "node", "id": 11592228362, "lat": 38.6016296, "lon": -109.5753163}, {"type": "node", "id": 11592228363, "lat": 38.6016398, "lon": -109.5753194}, {"type": "node", "id": 11592228364, "lat": 38.6016561, "lon": -109.5753194}, {"type": "node", "id": 11592228365, "lat": 38.6016645, "lon": -109.5753148}, {"type": "node", "id": 11592228366, "lat": 38.601741, "lon": -109.5752486}, {"type": "node", "id": 11592228367, "lat": 38.6017464, "lon": -109.5752393}, {"type": "node", "id": 11592228368, "lat": 38.6017488, "lon": -109.5752293}, {"type": "node", "id": 11592245163, "lat": 38.602253, "lon": -109.5752762}, {"type": "node", "id": 11592245164, "lat": 38.6022528, "lon": -109.5752988}, {"type": "node", "id": 11592245165, "lat": 38.6022608, "lon": -109.5753191}, {"type": "node", "id": 11592245166, "lat": 38.6022663, "lon": -109.5753323}, {"type": "node", "id": 11592245167, "lat": 38.6022806, "lon": -109.5753506}, {"type": "node", "id": 11592245168, "lat": 38.6022933, "lon": -109.5753577}, {"type": "node", "id": 11592245169, "lat": 38.6023132, "lon": -109.5753587}, {"type": "node", "id": 11592245170, "lat": 38.6023338, "lon": -109.5753476}, {"type": "node", "id": 11592245171, "lat": 38.6023521, "lon": -109.5753242}, {"type": "node", "id": 11592245172, "lat": 38.6025288, "lon": -109.5750671}, {"type": "node", "id": 11592245173, "lat": 38.6026142, "lon": -109.5749546}, {"type": "node", "id": 11592245174, "lat": 38.6026708, "lon": -109.5748776}, {"type": "node", "id": 11592245175, "lat": 38.6026973, "lon": -109.5748437}, {"type": "node", "id": 11592245176, "lat": 38.602719, "lon": -109.5748237}, {"type": "node", "id": 11592245177, "lat": 38.6027455, "lon": -109.5748129}, {"type": "node", "id": 11592245178, "lat": 38.602796, "lon": -109.5748083}, {"type": "node", "id": 11592245179, "lat": 38.6028249, "lon": -109.5748129}, {"type": "node", "id": 11592245180, "lat": 38.6028589, "lon": -109.5748179}, {"type": "node", "id": 11592245181, "lat": 38.6028715, "lon": -109.5748109}, {"type": "node", "id": 11592245182, "lat": 38.602877, "lon": -109.5748009}, {"type": "node", "id": 11592245183, "lat": 38.6028842, "lon": -109.5747616}, {"type": "node", "id": 11592245184, "lat": 38.6030299, "lon": -109.5748032}, {"type": "node", "id": 11592245185, "lat": 38.6030269, "lon": -109.5748448}, {"type": "node", "id": 11592245186, "lat": 38.6030287, "lon": -109.5748625}, {"type": "node", "id": 11592245187, "lat": 38.6030371, "lon": -109.5748733}, {"type": "node", "id": 11592245188, "lat": 38.6030497, "lon": -109.5748803}, {"type": "node", "id": 11592245189, "lat": 38.6030937, "lon": -109.5748972}, {"type": "node", "id": 11592245190, "lat": 38.6030341, "lon": -109.5754564}, {"type": "node", "id": 11592245191, "lat": 38.6030142, "lon": -109.5754533}, {"type": "node", "id": 11592245192, "lat": 38.603007, "lon": -109.5754587}, {"type": "node", "id": 11592245193, "lat": 38.6029955, "lon": -109.5754711}, {"type": "node", "id": 11592245194, "lat": 38.6029799, "lon": -109.5754872}, {"type": "node", "id": 11592245195, "lat": 38.6029642, "lon": -109.5754949}, {"type": "node", "id": 11592245196, "lat": 38.602945, "lon": -109.575498}, {"type": "node", "id": 11592245197, "lat": 38.6029215, "lon": -109.5754949}, {"type": "node", "id": 11592245198, "lat": 38.6028697, "lon": -109.5754811}, {"type": "node", "id": 11592245199, "lat": 38.602842, "lon": -109.5754641}, {"type": "node", "id": 11592245200, "lat": 38.6028252, "lon": -109.5754418}, {"type": "node", "id": 11592245201, "lat": 38.6028156, "lon": -109.5754241}, {"type": "node", "id": 11592245202, "lat": 38.6028083, "lon": -109.5754164}, {"type": "node", "id": 11592245203, "lat": 38.6027933, "lon": -109.5754125}, {"type": "node", "id": 11592245204, "lat": 38.6027987, "lon": -109.5750027}, {"type": "node", "id": 11592245205, "lat": 38.6028276, "lon": -109.5750066}, {"type": "node", "id": 11592245206, "lat": 38.6028457, "lon": -109.5750074}, {"type": "node", "id": 11592245207, "lat": 38.6028547, "lon": -109.5750012}, {"type": "node", "id": 11592245208, "lat": 38.6028565, "lon": -109.5749904}, {"type": "node", "id": 11592245209, "lat": 38.6028491, "lon": -109.5749369}, {"type": "node", "id": 11592245210, "lat": 38.6027325, "lon": -109.5749049}, {"type": "node", "id": 11592245211, "lat": 38.6027174, "lon": -109.5749172}, {"type": "node", "id": 11592245212, "lat": 38.6027012, "lon": -109.5749357}, {"type": "node", "id": 11592245213, "lat": 38.602449, "lon": -109.5752893}, {"type": "node", "id": 11592245214, "lat": 38.6024411, "lon": -109.5753062}, {"type": "node", "id": 11592245215, "lat": 38.6024333, "lon": -109.5753332}, {"type": "node", "id": 11592245216, "lat": 38.6024333, "lon": -109.575347}, {"type": "node", "id": 11592245217, "lat": 38.6024375, "lon": -109.5753532}, {"type": "node", "id": 11592245218, "lat": 38.6024803, "lon": -109.5753663}, {"type": "node", "id": 11592245219, "lat": 38.6024286, "lon": -109.5757251}, {"type": "node", "id": 11592245220, "lat": 38.602411, "lon": -109.5757214}, {"type": "node", "id": 11592245221, "lat": 38.6023966, "lon": -109.5757183}, {"type": "node", "id": 11592245222, "lat": 38.602387, "lon": -109.5757183}, {"type": "node", "id": 11592245223, "lat": 38.6023828, "lon": -109.575726}, {"type": "node", "id": 11592245224, "lat": 38.6023834, "lon": -109.5757353}, {"type": "node", "id": 11592245225, "lat": 38.6022593, "lon": -109.5759286}, {"type": "node", "id": 11592245226, "lat": 38.6022299, "lon": -109.5758739}, {"type": "node", "id": 11592245227, "lat": 38.6021648, "lon": -109.5759255}, {"type": "node", "id": 11592245228, "lat": 38.6021486, "lon": -109.5759163}, {"type": "node", "id": 11592245229, "lat": 38.6021129, "lon": -109.5759666}, {"type": "node", "id": 11592245230, "lat": 38.6019325, "lon": -109.5757152}, {"type": "node", "id": 11592245231, "lat": 38.6019361, "lon": -109.5757021}, {"type": "node", "id": 11592245232, "lat": 38.6019367, "lon": -109.5756898}, {"type": "node", "id": 11592245233, "lat": 38.6019307, "lon": -109.5756798}, {"type": "node", "id": 11592245234, "lat": 38.601915, "lon": -109.5756559}, {"type": "node", "id": 11592245235, "lat": 38.6021516, "lon": -109.5754341}, {"type": "node", "id": 11592245236, "lat": 38.6021751, "lon": -109.5754734}, {"type": "node", "id": 11592245237, "lat": 38.6021823, "lon": -109.5754811}, {"type": "node", "id": 11592245238, "lat": 38.6021919, "lon": -109.5754803}, {"type": "node", "id": 11592245239, "lat": 38.6021992, "lon": -109.5754734}, {"type": "node", "id": 11592245240, "lat": 38.6022016, "lon": -109.5754626}, {"type": "node", "id": 11592245241, "lat": 38.6022028, "lon": -109.5754526}, {"type": "node", "id": 11592245242, "lat": 38.602163, "lon": -109.575384}, {"type": "node", "id": 11592245243, "lat": 38.6021522, "lon": -109.5753771}, {"type": "node", "id": 11592245244, "lat": 38.6021419, "lon": -109.5753753}, {"type": "node", "id": 11592245245, "lat": 38.6022101, "lon": -109.5756716}, {"type": "node", "id": 11592245246, "lat": 38.602195, "lon": -109.5757549}, {"type": "node", "id": 11592245247, "lat": 38.6021863, "lon": -109.5757712}, {"type": "node", "id": 11592245248, "lat": 38.6021736, "lon": -109.5757783}, {"type": "node", "id": 11592245249, "lat": 38.6021585, "lon": -109.5757783}, {"type": "node", "id": 11592245250, "lat": 38.6021426, "lon": -109.5757742}, {"type": "node", "id": 11592245251, "lat": 38.6021323, "lon": -109.5757651}, {"type": "node", "id": 11592245252, "lat": 38.6021204, "lon": -109.5757498}, {"type": "node", "id": 11592245253, "lat": 38.6021156, "lon": -109.5757356}, {"type": "node", "id": 11592245254, "lat": 38.602118, "lon": -109.5757122}, {"type": "node", "id": 11592245255, "lat": 38.6021418, "lon": -109.5757224}, {"type": "node", "id": 11592245256, "lat": 38.6021474, "lon": -109.5756909}, {"type": "node", "id": 11592245257, "lat": 38.602176, "lon": -109.575696}, {"type": "node", "id": 11592245258, "lat": 38.6021815, "lon": -109.5756614}, {"type": "node", "id": 11592245259, "lat": 38.6030237, "lon": -109.5749668}, {"type": "node", "id": 11592245260, "lat": 38.6030188, "lon": -109.575026}, {"type": "node", "id": 11592245261, "lat": 38.6030147, "lon": -109.5750367}, {"type": "node", "id": 11592245262, "lat": 38.6030057, "lon": -109.575042}, {"type": "node", "id": 11592245263, "lat": 38.6029843, "lon": -109.5750384}, {"type": "node", "id": 11592245264, "lat": 38.6029283, "lon": -109.5750278}, {"type": "node", "id": 11592245265, "lat": 38.6029213, "lon": -109.5750225}, {"type": "node", "id": 11592245266, "lat": 38.6029172, "lon": -109.5750119}, {"type": "node", "id": 11592245267, "lat": 38.602922, "lon": -109.5749482}, {"type": "node", "id": 11592245268, "lat": 38.6029248, "lon": -109.5749358}, {"type": "node", "id": 11592245269, "lat": 38.6029324, "lon": -109.5749287}, {"type": "node", "id": 11592245270, "lat": 38.6029455, "lon": -109.5749305}, {"type": "node", "id": 11592245271, "lat": 38.6030092, "lon": -109.5749384}, {"type": "node", "id": 11592245272, "lat": 38.6030161, "lon": -109.5749429}, {"type": "node", "id": 11592245273, "lat": 38.602978, "lon": -109.5753587}, {"type": "node", "id": 11592245274, "lat": 38.6029801, "lon": -109.575372}, {"type": "node", "id": 11592245275, "lat": 38.6029753, "lon": -109.5753844}, {"type": "node", "id": 11592245276, "lat": 38.6029642, "lon": -109.5753932}, {"type": "node", "id": 11592245277, "lat": 38.602949, "lon": -109.5753915}, {"type": "node", "id": 11592245278, "lat": 38.6028882, "lon": -109.5753738}, {"type": "node", "id": 11592245279, "lat": 38.6028812, "lon": -109.5753658}, {"type": "node", "id": 11592245280, "lat": 38.6028778, "lon": -109.5753525}, {"type": "node", "id": 11592245281, "lat": 38.6028812, "lon": -109.5753428}, {"type": "node", "id": 11592245282, "lat": 38.6028902, "lon": -109.5753375}, {"type": "node", "id": 11592245283, "lat": 38.6029013, "lon": -109.5753375}, {"type": "node", "id": 11592245284, "lat": 38.6029677, "lon": -109.5753508}, {"type": "node", "id": 11592245293, "lat": 38.6022265, "lon": -109.5759268, "tags": {"amenity": "waste_disposal"}}, {"type": "node", "id": 11592245294, "lat": 38.6022072, "lon": -109.5759422, "tags": {"amenity": "waste_disposal"}}, {"type": "node", "id": 11592245295, "lat": 38.6028543, "lon": -109.5749513}, {"type": "node", "id": 11592245300, "lat": 38.6030232, "lon": -109.5749553}, {"type": "node", "id": 11592272269, "lat": 38.6017464, "lon": -109.575217}, {"type": "node", "id": 11592272270, "lat": 38.6017422, "lon": -109.57521}, {"type": "node", "id": 11592272271, "lat": 38.6015447, "lon": -109.575227}, {"type": "node", "id": 11592272272, "lat": 38.6014984, "lon": -109.5752254}, {"type": "node", "id": 11592272273, "lat": 38.6014978, "lon": -109.5751754}, {"type": "node", "id": 11592272274, "lat": 38.6014948, "lon": -109.5751669}, {"type": "node", "id": 11592272275, "lat": 38.6014887, "lon": -109.5751623}, {"type": "node", "id": 11592272276, "lat": 38.6014472, "lon": -109.5751607}, {"type": "node", "id": 11592272277, "lat": 38.601437, "lon": -109.5751631}, {"type": "node", "id": 11592272278, "lat": 38.6015519, "lon": -109.5752293}, {"type": "node", "id": 11592272279, "lat": 38.601555, "lon": -109.5752378}, {"type": "node", "id": 11592272280, "lat": 38.6015543, "lon": -109.5752462}, {"type": "node", "id": 11592272281, "lat": 38.6015489, "lon": -109.5752524}, {"type": "node", "id": 11592272282, "lat": 38.6015375, "lon": -109.5752547}, {"type": "node", "id": 11592272283, "lat": 38.6014936, "lon": -109.5752509}, {"type": "node", "id": 11592272284, "lat": 38.6014809, "lon": -109.5752462}, {"type": "node", "id": 11592272285, "lat": 38.6014695, "lon": -109.5752385}, {"type": "node", "id": 11592272286, "lat": 38.6014394, "lon": -109.5752116}, {"type": "node", "id": 11592272287, "lat": 38.6014334, "lon": -109.5752031}, {"type": "node", "id": 11592272288, "lat": 38.6014303, "lon": -109.5751869}, {"type": "node", "id": 11592272289, "lat": 38.6014315, "lon": -109.5751731}, {"type": "node", "id": 11592272290, "lat": 38.6015411, "lon": -109.5749851}, {"type": "node", "id": 11592272291, "lat": 38.6015507, "lon": -109.5749805}, {"type": "node", "id": 11592272292, "lat": 38.6015592, "lon": -109.5749682}, {"type": "node", "id": 11592272293, "lat": 38.6015628, "lon": -109.5749543}, {"type": "node", "id": 11592272294, "lat": 38.6015616, "lon": -109.5749412}, {"type": "node", "id": 11592272295, "lat": 38.6015574, "lon": -109.5749335}, {"type": "node", "id": 11592272296, "lat": 38.6015489, "lon": -109.574925}, {"type": "node", "id": 11592272297, "lat": 38.6015369, "lon": -109.5749227}, {"type": "node", "id": 11592272298, "lat": 38.6014936, "lon": -109.574925}, {"type": "node", "id": 11592272299, "lat": 38.6014568, "lon": -109.5749304}, {"type": "node", "id": 11592272300, "lat": 38.6014412, "lon": -109.5749366}, {"type": "node", "id": 11592272301, "lat": 38.6014315, "lon": -109.574952}, {"type": "node", "id": 11592272302, "lat": 38.6014315, "lon": -109.5749643}, {"type": "node", "id": 11592272303, "lat": 38.6014376, "lon": -109.5749743}, {"type": "node", "id": 11592272304, "lat": 38.6014466, "lon": -109.574979}, {"type": "node", "id": 11592272305, "lat": 38.6016299, "lon": -109.5754421}, {"type": "node", "id": 11592272306, "lat": 38.6018595, "lon": -109.5752544}, {"type": "node", "id": 11592272307, "lat": 38.6018951, "lon": -109.5752155}, {"type": "node", "id": 11592272308, "lat": 38.601914, "lon": -109.5751833}, {"type": "node", "id": 11592272309, "lat": 38.6019454, "lon": -109.5751283}, {"type": "node", "id": 11592272310, "lat": 38.6019622, "lon": -109.5751096}, {"type": "node", "id": 11592272311, "lat": 38.6019842, "lon": -109.5750988}, {"type": "node", "id": 11592272312, "lat": 38.6020072, "lon": -109.5751028}, {"type": "node", "id": 11592272313, "lat": 38.6020209, "lon": -109.5751149}, {"type": "node", "id": 11592272314, "lat": 38.6020251, "lon": -109.5751337}, {"type": "node", "id": 11592272315, "lat": 38.6020272, "lon": -109.5751686}, {"type": "node", "id": 11592272316, "lat": 38.6020282, "lon": -109.5752034}, {"type": "node", "id": 11592272317, "lat": 38.6022011, "lon": -109.575072}, {"type": "node", "id": 11592272318, "lat": 38.6021707, "lon": -109.575076}, {"type": "node", "id": 11592272319, "lat": 38.6021477, "lon": -109.575072}, {"type": "node", "id": 11592272320, "lat": 38.6021257, "lon": -109.5750666}, {"type": "node", "id": 11592272321, "lat": 38.6021089, "lon": -109.5750519}, {"type": "node", "id": 11592272322, "lat": 38.6020796, "lon": -109.5750251}, {"type": "node", "id": 11592272323, "lat": 38.6020324, "lon": -109.5749593}, {"type": "node", "id": 11592272324, "lat": 38.6019611, "lon": -109.5748789}, {"type": "node", "id": 11592272325, "lat": 38.6019161, "lon": -109.5748413}, {"type": "node", "id": 11592272326, "lat": 38.6018605, "lon": -109.5748091}, {"type": "node", "id": 11592272327, "lat": 38.6018322, "lon": -109.5747957}, {"type": "node", "id": 11592272328, "lat": 38.6017987, "lon": -109.5747877}, {"type": "node", "id": 11592272329, "lat": 38.6015492, "lon": -109.5747783}, {"type": "node", "id": 11592272330, "lat": 38.6014837, "lon": -109.5747813}, {"type": "node", "id": 11592272331, "lat": 38.6014276, "lon": -109.5747998}, {"type": "node", "id": 11592272332, "lat": 38.6013731, "lon": -109.5748266}, {"type": "node", "id": 11592272333, "lat": 38.6013281, "lon": -109.5748601}, {"type": "node", "id": 11592272334, "lat": 38.6012872, "lon": -109.574899}, {"type": "node", "id": 11592272335, "lat": 38.6012442, "lon": -109.57495}, {"type": "node", "id": 11592272336, "lat": 38.6012107, "lon": -109.5749915}, {"type": "node", "id": 11592272337, "lat": 38.6011855, "lon": -109.5750264}, {"type": "node", "id": 11592272338, "lat": 38.6011593, "lon": -109.5750519}, {"type": "node", "id": 11592272339, "lat": 38.6011279, "lon": -109.5750707}, {"type": "node", "id": 11592272340, "lat": 38.6010943, "lon": -109.57508}, {"type": "node", "id": 11592272341, "lat": 38.6010398, "lon": -109.575072}, {"type": "node", "id": 11592272342, "lat": 38.6011495, "lon": -109.5751733}, {"type": "node", "id": 11592272343, "lat": 38.6011458, "lon": -109.5751639}, {"type": "node", "id": 11592272344, "lat": 38.6011458, "lon": -109.5751558}, {"type": "node", "id": 11592272345, "lat": 38.601151, "lon": -109.5751458}, {"type": "node", "id": 11592272346, "lat": 38.601162, "lon": -109.575137}, {"type": "node", "id": 11592272347, "lat": 38.601184, "lon": -109.5751223}, {"type": "node", "id": 11592272348, "lat": 38.6012076, "lon": -109.5750995}, {"type": "node", "id": 11592272349, "lat": 38.6012233, "lon": -109.5750821}, {"type": "node", "id": 11592272350, "lat": 38.6012333, "lon": -109.5750754}, {"type": "node", "id": 11592272351, "lat": 38.6012433, "lon": -109.57508}, {"type": "node", "id": 11592272352, "lat": 38.6012731, "lon": -109.5751082}, {"type": "node", "id": 11592272353, "lat": 38.6012768, "lon": -109.5751176}, {"type": "node", "id": 11592272354, "lat": 38.6012763, "lon": -109.5751256}, {"type": "node", "id": 11592272355, "lat": 38.6012726, "lon": -109.5751303}, {"type": "node", "id": 11592272356, "lat": 38.601215, "lon": -109.5751619}, {"type": "node", "id": 11592272361, "lat": 38.6010943, "lon": -109.5751223}, {"type": "node", "id": 11592272389, "lat": 38.6016359, "lon": -109.5749709, "tags": {"amenity": "parking_space", "parking_space": "disabled"}}, {"type": "node", "id": 11592272390, "lat": 38.6016305, "lon": -109.5750305, "tags": {"amenity": "parking_space", "parking_space": "disabled"}}, {"type": "node", "id": 11592272391, "lat": 38.6023878, "lon": -109.5756934, "tags": {"amenity": "parking_space", "parking_space": "disabled"}}, {"type": "node", "id": 11592272392, "lat": 38.6024015, "lon": -109.5756317, "tags": {"amenity": "parking_space", "parking_space": "disabled"}}, {"type": "node", "id": 11592272393, "lat": 38.6027798, "lon": -109.5753877, "tags": {"amenity": "parking_space", "parking_space": "disabled"}}, {"type": "node", "id": 11592272394, "lat": 38.6027913, "lon": -109.5753273, "tags": {"amenity": "parking_space", "parking_space": "disabled"}}, {"type": "node", "id": 11592272427, "lat": 38.6017319, "lon": -109.5747958}, {"type": "node", "id": 11592272428, "lat": 38.6017345, "lon": -109.57475}, {"type": "node", "id": 11592272429, "lat": 38.6016631, "lon": -109.5747433}, {"type": "node", "id": 11592272430, "lat": 38.6016605, "lon": -109.5747891}, {"type": "node", "id": 11592272431, "lat": 38.6016466, "lon": -109.5747919}, {"type": "node", "id": 11592272432, "lat": 38.6016458, "lon": -109.5747451}, {"type": "node", "id": 11592272433, "lat": 38.6015771, "lon": -109.5747471}, {"type": "node", "id": 11592272434, "lat": 38.6015779, "lon": -109.5747939}, {"type": "node", "id": 11612549212, "lat": 38.5706345, "lon": -109.5414247}, {"type": "node", "id": 11612549213, "lat": 38.5703847, "lon": -109.5414356}, {"type": "node", "id": 11612549214, "lat": 38.5703783, "lon": -109.541199}, {"type": "node", "id": 11612549215, "lat": 38.5706281, "lon": -109.541188}, {"type": "node", "id": 11612549226, "lat": 38.5717771, "lon": -109.5400461}, {"type": "node", "id": 11612549227, "lat": 38.5714834, "lon": -109.5400515}, {"type": "node", "id": 11612549228, "lat": 38.5714825, "lon": -109.5399691}, {"type": "node", "id": 11612549229, "lat": 38.5717762, "lon": -109.5399637}, {"type": "node", "id": 11612549455, "lat": 38.5685138, "lon": -109.54278}, {"type": "node", "id": 11612549456, "lat": 38.5684991, "lon": -109.5424639}, {"type": "node", "id": 11612549457, "lat": 38.5684057, "lon": -109.5427882}, {"type": "node", "id": 11612549458, "lat": 38.5689776, "lon": -109.5424276}, {"type": "node", "id": 11612549459, "lat": 38.5691123, "lon": -109.5427792}, {"type": "node", "id": 11612549460, "lat": 38.5690858, "lon": -109.5422089}, {"type": "node", "id": 11612549461, "lat": 38.5683813, "lon": -109.5422625}, {"type": "node", "id": 11612549462, "lat": 38.5689944, "lon": -109.5427881}, {"type": "node", "id": 11612549875, "lat": 38.5683893, "lon": -109.5473867}, {"type": "node", "id": 11612549876, "lat": 38.5683877, "lon": -109.547093}, {"type": "node", "id": 11612549877, "lat": 38.5685303, "lon": -109.5470917}, {"type": "node", "id": 11612549878, "lat": 38.5685319, "lon": -109.5473854}, {"type": "node", "id": 11612549879, "lat": 38.5682095, "lon": -109.5469484}, {"type": "node", "id": 11612549880, "lat": 38.5681508, "lon": -109.5468652}, {"type": "node", "id": 11612549881, "lat": 38.5680999, "lon": -109.5469241}, {"type": "node", "id": 11612549882, "lat": 38.5681586, "lon": -109.5470072}, {"type": "node", "id": 11612550219, "lat": 38.5648249, "lon": -109.532199}, {"type": "node", "id": 11612550220, "lat": 38.5648254, "lon": -109.5322506}, {"type": "node", "id": 11612550221, "lat": 38.5648728, "lon": -109.5321983}, {"type": "node", "id": 11612550222, "lat": 38.5646195, "lon": -109.5322539}, {"type": "node", "id": 11612550223, "lat": 38.5646212, "lon": -109.5324254}, {"type": "node", "id": 11612550224, "lat": 38.5648749, "lon": -109.5324214}, {"type": "way", "id": 108693059, "nodes": [1246330371, 1246330246, 1246330223, 1246330890, 1246330310, 1246330661, 1246330827, 1246330290, 1246330427, 1246330470, 1246330576, 1246330659, 1246330371], "tags": {"amenity": "townhall", "building": "yes", "ele": "1224", "gnis:feature_id": "2055919", "name": "Moab City Hall"}}, {"type": "way", "id": 108693070, "nodes": [1246330508, 1246330485, 8899583328, 1246330693, 1246330953, 1246330431, 1246330912, 1246330955, 1246330986, 1246330947, 1246330608, 1246330842, 1246330250, 1246330234, 1246330468, 1246330539, 1246330425, 1246330508], "tags": {"addr:housenumber": "257", "addr:street": "East Center Street", "amenity": "library", "building": "yes", "ele": "1229", "gnis:feature_id": "2055921", "internet_access": "wlan", "internet_access:fee": "no", "internet_access:ssid": "Grand County Library", "name": "Grand County Public Library", "opening_hours": "Mo-Fr 09:00-20:00; Sa 09:00-17:00"}}, {"type": "way", "id": 118386111, "nodes": [1331420670, 4815499744, 4815499743, 1331420660, 1331420690, 4815499740, 4815499742, 4815499741, 1331420700, 1331420670], "tags": {"amenity": "fast_food", "brand": "McDonald's", "brand:wikidata": "Q38076", "building": "yes", "cuisine": "burger", "internet_access": "wlan", "internet_access:fee": "no", "name": "McDonald's", "takeaway": "yes", "website": "https://www.mcdonalds.com/us/en-us/location/ut/moab/640-s-main/11735.html"}}, {"type": "way", "id": 125548650, "nodes": [4470461789, 1394127708, 1394127702, 1394127772, 4470461789], "tags": {"amenity": "restaurant", "building": "yes", "cuisine": "mexican", "name": "El Tapatio", "name:zh": "\u56db\u5ddd\u6995\u4e2d\u9910\u9986"}}, {"type": "way", "id": 130513805, "nodes": [1437232665, 1437232670, 1437232669, 1437232671, 1437232665], "tags": {"amenity": "restaurant", "building": "yes", "cuisine": "american", "name": "Moab Diner"}}, {"type": "way", "id": 130513821, "nodes": [1437234354, 1437234350, 1437234353, 1437234346, 1437234348, 1899509112, 1437234356, 1437234351, 1437234354], "tags": {"addr:city": "Moab", "addr:housenumber": "4", "addr:postcode": "84532", "addr:state": "UT", "addr:street": "South Main Street", "amenity": "restaurant", "building": "yes", "name": "Pasta Jay's", "phone": "+1-435-259-2900", "website": "https://www.pastajays.com/"}}, {"type": "way", "id": 131372565, "nodes": [1446006484, 1446006464, 1446006497, 1446006483, 1446006463, 1446006485, 1446006493, 1446006487, 11155618214, 11155618213, 11155618212, 11155618211, 1446006502, 1446006471, 1446006472, 1446006479, 1446006481, 1446006499, 1446006498, 1446006484], "tags": {"access": "customers", "amenity": "parking", "fee": "no", "parking": "surface"}}, {"type": "way", "id": 131372922, "nodes": [1446006754, 1446006750, 1446006757, 1446006753, 1446006756, 1446006755, 1446006752, 1446006751, 1446006754], "tags": {"addr:city": "Moab", "addr:housenumber": "540", "addr:state": "UT", "addr:street": "South Main Street", "amenity": "restaurant", "contact:phone": "+1 435-259-4848", "contact:website": "https://www.moabgrillrestaurant.com", "cuisine": "american;burger;fish;fish_and_chips;pasta;pizza;sandwich", "diet:vegetarian": "yes", "name": "Moab Grill", "opening_hours": "Mo-Su 07:00-22:00", "opening_hours:url": "https://www.moabgrillrestaurant.com/", "outdoor_seating": "yes", "smoking": "no", "takeaway": "yes"}}, {"type": "way", "id": 131378714, "nodes": [1446010331, 1446010342, 1446010332, 1446010341, 1757802834, 1446010338, 1446010331], "tags": {"amenity": "parking", "parking": "surface"}}, {"type": "way", "id": 185544336, "nodes": [1961683733, 1961683711, 1961683647, 1961683623, 1961683629, 1961683733], "tags": {"addr:city": "Moab", "addr:postcode": "84532", "addr:state": "UT", "addr:street": "Sand Flats Road", "amenity": "grave_yard", "landuse": "cemetery", "name": "Grand Valley Cemetery", "operator": "Grand County Cemetery District", "phone": "+1-435-259-6855", "start_date": "1860"}}, {"type": "way", "id": 185544338, "nodes": [1961684118, 1961684115, 1961684065, 1961684067, 1961684105, 1961684108, 1961684216, 1961684213, 1961684118], "tags": {"addr:street": "125 W 200 S", "amenity": "university", "building": "yes", "name": "Moab Education Center"}}, {"type": "way", "id": 185544339, "nodes": [1961684205, 1961684202, 1961684133, 1961684131, 1961684037, 1961684042, 1961683995, 1961683998, 1961684205], "tags": {"addr:street": "125 W 200 S", "amenity": "university", "building": "yes", "name": "Moab Education Center"}}, {"type": "way", "id": 185544363, "nodes": [1961683504, 1961683507, 1961683501, 1961683498, 1961683504], "tags": {"addr:city": "Moab", "addr:housenumber": "811", "addr:postcode": "84532", "addr:state": "UT", "addr:street": "South Main Street", "amenity": "restaurant", "building": "yes", "name": "Blu Pig", "phone": "+1 435 2593333", "website": "http://www.blupigbbq.com"}}, {"type": "way", "id": 185544367, "nodes": [1961683752, 1961683749, 1961683707, 1961683709, 1961683752], "tags": {"addr:city": "Moab", "addr:housenumber": "425", "addr:postcode": "84532", "addr:state": "UT", "addr:street": "South Main Street", "amenity": "fuel", "building": "roof", "fixme": "Please add and verify tags:\n fuel:octane_XX; hours; phone; website", "fuel:diesel": "yes", "fuel:gasoline": "yes", "fuel:octane_85": "unknown", "fuel:octane_86": "unknown", "fuel:octane_87": "unknown", "fuel:octane_88": "unknown", "fuel:octane_89": "unknown", "fuel:octane_90": "unknown", "fuel:octane_91": "unknown", "fuel:octane_92": "unknown", "fuel:octane_93": "unknown", "name": "City Market Fuel", "operator": "City Market", "payment:cash": "yes", "payment:contactless": "unknown", "payment:credit_cards": "yes", "wheelchair": "yes"}}, {"type": "way", "id": 185544370, "nodes": [1961683321, 1961683311, 1961683278, 1961683316, 1961683321], "tags": {"addr:city": "Moab", "addr:housenumber": "985", "addr:postcode": "84532", "addr:state": "UT", "addr:street": "South Main Street", "amenity": "fuel", "brand": "Maverik", "brand:wikidata": "Q64149010", "building": "yes", "compressed_air": "yes", "fixme": "Please add and verify tags:\n fuel:octane_XX; hours; phone; website", "fuel:diesel": "unknown", "fuel:octane_85": "unknown", "fuel:octane_86": "unknown", "fuel:octane_87": "unknown", "fuel:octane_88": "unknown", "fuel:octane_89": "unknown", "fuel:octane_90": "unknown", "fuel:octane_91": "unknown", "fuel:octane_92": "unknown", "fuel:octane_93": "unknown", "name": "Maverik", "payment:contactless": "unknown"}}, {"type": "way", "id": 185544379, "nodes": [1961683596, 1961683600, 1961683584, 1961683581, 1961683596], "tags": {"amenity": "fast_food", "brand": "Burger King", "brand:wikidata": "Q177054", "building": "yes", "cuisine": "burger", "name": "Burger King", "takeaway": "yes"}}, {"type": "way", "id": 185544385, "nodes": [1961684294, 1961684292, 1961684283, 1961684285, 1961684294], "tags": {"amenity": "pub", "building": "yes", "name": "Woody's Tavern", "outdoor_seating": "yes"}}, {"type": "way", "id": 185544390, "nodes": [1961683415, 1961683419, 1961683429, 1961683426, 1961683415], "tags": {"amenity": "restaurant", "building": "retail", "cuisine": "mexican", "name": "El Charro Loco"}}, {"type": "way", "id": 185544412, "nodes": [1961684857, 1961684859, 1961684853, 1961684849, 1961684857], "tags": {"addr:city": "Moab", "addr:housenumber": "435", "addr:postcode": "84532", "addr:state": "UT", "addr:street": "North Main Street", "amenity": "fuel", "brand": "Maverik", "brand:wikidata": "Q64149010", "building": "roof", "fixme": "Please add and verify tags: fuel:octane_XX; hours; phone; website", "fuel:diesel": "yes", "fuel:octane_85": "unknown", "fuel:octane_86": "unknown", "fuel:octane_87": "unknown", "fuel:octane_88": "unknown", "fuel:octane_89": "unknown", "fuel:octane_90": "unknown", "fuel:octane_91": "unknown", "fuel:octane_92": "unknown", "fuel:octane_93": "unknown", "layer": "1", "name": "Maverik", "operator": "Maverik", "payment:contactless": "unknown"}}, {"type": "way", "id": 185544413, "nodes": [1961684669, 1961684667, 917068329, 1961684664, 1961684669], "tags": {"addr:city": "Moab", "addr:housenumber": "260", "addr:state": "UT", "addr:street": "North Main Street", "amenity": "fast_food", "brand": "Wendy's", "brand:wikidata": "Q550258", "building": "retail", "cuisine": "burger", "drive_through": "yes", "internet_access": "wlan", "name": "Wendy's", "phone": "+1 (435) 259-2595", "ref": "00005374", "takeaway": "yes"}}, {"type": "way", "id": 185544426, "nodes": [1961683530, 1961683540, 1961683525, 1961683522, 1961683530], "tags": {"amenity": "car_wash", "building": "yes", "name": "Wash-it Express"}}, {"type": "way", "id": 185544439, "nodes": [1961683271, 1961683254, 1961683211, 1961683238, 1961683271], "tags": {"amenity": "bank", "building": "yes"}}, {"type": "way", "id": 185544445, "nodes": [1961684058, 1961684056, 917068299, 1961684013, 1961684058], "tags": {"amenity": "restaurant", "brand": "Pizza Hut", "brand:wikidata": "Q191615", "building": "commercial", "contact:website": "https://locations.pizzahut.com/ut/moab/265-s-main-st", "cuisine": "pizza", "name": "Pizza Hut"}}, {"type": "way", "id": 185544452, "nodes": [917068394, 1961684113, 1961684128, 10915422949, 10915422947, 10915422946, 10915422948, 10915422945, 10915422944, 1961684124, 1961684085, 1961684088, 917068394], "tags": {"addr:city": "Moab", "addr:housenumber": "202", "addr:street": "South Main Street", "amenity": "restaurant", "building": "yes", "building:levels": "1", "cuisine": "mexican", "name": "Fiesta Mexicana"}}, {"type": "way", "id": 185544465, "nodes": [1961684487, 1961684498, 1961684494, 1961684484, 1961684482, 1961684476, 1961684479, 1961684490, 1961684487], "tags": {"addr:city": "Moab", "addr:housenumber": "4", "addr:postcode": "84532", "addr:state": "UT", "addr:street": "North Main Street", "amenity": "bank", "brand": "Wells Fargo", "brand:wikidata": "Q744149", "building": "commercial", "building:levels": "1", "description": "Bank with ATM on street plus drive-thru ATM.", "name": "Wells Fargo"}}, {"type": "way", "id": 185544468, "nodes": [1961683924, 1961683922, 1961683957, 1961683961, 1961683969, 1961683973, 1961683920, 1961683918, 1961683924], "tags": {"amenity": "bank", "atm": "yes", "building": "commercial", "name": "Zions First National Bank"}}, {"type": "way", "id": 185544470, "nodes": [1961684543, 1961684544, 1961684555, 1961684553, 1961684552, 1961684550, 1961684541, 1961684542, 1961684543], "tags": {"addr:city": "Moab", "addr:housenumber": "50", "addr:postcode": "84532", "addr:state": "UT", "addr:street": "East 100 North", "amenity": "post_office", "building": "yes", "name": "Moab Post Office", "operator": "United States Postal Service", "operator:type": "public", "operator:wikidata": "Q668687", "operator:wikipedia": "en:United States Postal Service", "short_name": "USPS"}}, {"type": "way", "id": 192315976, "nodes": [2028762897, 2028762896, 2028762887, 2028762888, 2028762897], "tags": {"amenity": "car_wash", "automated": "no", "building": "commercial", "self_service": "yes"}}, {"type": "way", "id": 192315983, "nodes": [2028762977, 2028762964, 2028762963, 2028762966, 2028762969, 2028762974, 2028762977], "tags": {"addr:city": "Moab", "addr:housenumber": "1393", "addr:postcode": "84532", "addr:state": "UT", "addr:street": "US 191", "amenity": "restaurant", "bar": "yes", "building": "yes", "cuisine": "burger", "microbrewery": "yes", "name": "Proper Brewing", "outdoor_seating": "yes", "start_date": "2023-02"}}, {"type": "way", "id": 196618375, "nodes": [2069297007, 2069297013, 2069297011, 2069297003, 2069296993, 2069297006, 2069297004, 2069297007], "tags": {"access": "customers", "amenity": "parking", "fee": "no", "parking": "surface"}}, {"type": "way", "id": 196618376, "nodes": [2069296996, 2069296987, 2069296985, 2069296984, 2069296979, 2069296981, 2069296982, 2069297002, 2069296996], "tags": {"access": "customers", "amenity": "parking", "fee": "no", "parking": "surface"}}, {"type": "way", "id": 263068715, "nodes": [2686960542, 2686960543, 2686960544, 2686960545, 2686960574, 2686960546, 2686960547, 2686960548, 2686960549, 2686960542], "tags": {"amenity": "parking", "parking": "surface"}}, {"type": "way", "id": 263068717, "nodes": [2686960550, 2686960578, 2686960551, 2686960552, 2686960553, 2686960554, 2686960572, 2686960555, 2686960556, 2686960557, 2686960550], "tags": {"amenity": "parking", "parking": "surface"}}, {"type": "way", "id": 263068718, "nodes": [2686960558, 2686960559, 2686960560, 2686960573, 2686960561, 2686960562, 2686960563, 2686960564, 2686960565, 2686960558], "tags": {"amenity": "parking", "parking": "surface"}}, {"type": "way", "id": 263068720, "nodes": [2686960566, 2686960576, 2686960567, 2686960568, 2686960569, 2686960566], "tags": {"amenity": "parking", "parking": "surface"}}, {"type": "way", "id": 263070988, "nodes": [2686965996, 2686965997, 2686965998, 2686965999, 2686966000, 2686966001, 2686966002, 2686966003, 2686966004, 2686966005, 2686966006, 2686966007, 2686966008, 2686966009, 2686966010, 2686966011, 2686966012, 2686966013, 2686966014, 2686966015, 2686965996], "tags": {"amenity": "public_building", "building": "yes"}}, {"type": "way", "id": 283879503, "nodes": [2876923781, 2876923789, 2876923782, 2876923783, 2876923784, 2876923785, 2876923786, 2876923797, 2876923787, 2876923781], "tags": {"amenity": "parking", "parking": "surface"}}, {"type": "way", "id": 304653450, "nodes": [3092279963, 3092279964, 3092279965, 3092279966, 3092279967, 3092279968, 4815518302, 4815518303, 3092279969, 3092279970, 3092279971, 4815518304, 4815518305, 4815518306, 4815518307, 3092279972, 4815518308, 4815518309, 3092279973, 3092279974, 3092279975, 3092279976, 3092279977, 3092279963], "tags": {"access": "customers", "amenity": "parking", "fee": "no", "parking": "surface"}}, {"type": "way", "id": 304653452, "nodes": [3092279984, 3092279985, 3092279986, 3092279987, 3092279984], "tags": {"addr:city": "Moab", "addr:housenumber": "555", "addr:postcode": "84532", "addr:state": "UT", "addr:street": "South Main Street", "amenity": "fuel", "brand": "Texaco", "brand:wikidata": "Q775060", "building": "yes", "fixme": "Please add and verify tags: fuel:octane_XX; hours; phone; website", "fuel:diesel": "unknown", "fuel:gasoline": "yes", "fuel:octane_85": "unknown", "fuel:octane_86": "unknown", "fuel:octane_87": "unknown", "fuel:octane_88": "unknown", "fuel:octane_89": "unknown", "fuel:octane_90": "unknown", "fuel:octane_91": "unknown", "fuel:octane_92": "unknown", "fuel:octane_93": "unknown", "name": "Texaco", "payment:contactless": "unknown"}}, {"type": "way", "id": 325356758, "nodes": [3320261484, 3320261485, 3320261486, 3320261487, 3320261484], "tags": {"addr:city": "Moab", "addr:housenumber": "299", "addr:postcode": "84532", "addr:state": "UT", "addr:street": "South Main Street", "amenity": "fuel", "brand": "Exxon", "building": "roof", "fixme": "Please add and verify tags: fuel:octane_XX; hours; phone; website", "fuel:diesel": "unknown", "fuel:octane_85": "unknown", "fuel:octane_86": "unknown", "fuel:octane_87": "unknown", "fuel:octane_88": "unknown", "fuel:octane_89": "unknown", "fuel:octane_90": "unknown", "fuel:octane_91": "unknown", "fuel:octane_92": "unknown", "fuel:octane_93": "unknown", "layer": "1", "payment:contactless": "unknown"}}, {"type": "way", "id": 421113639, "nodes": [4209342962, 4209342963, 4209342964, 10198510332, 10198510331, 4209342965, 4209342966, 4209342968, 4209342962], "tags": {"amenity": "school", "name": "Grand County Middle School"}}, {"type": "way", "id": 421113640, "nodes": [4209342963, 10198502103, 9070898611, 11155618217, 4209342969, 4209342970, 4209342985, 4209342971, 4209342972, 4209342973, 4209342974, 9948381908, 4209342975, 4209342976, 4209342977, 4209342978, 4209342979, 4209342980, 4209342964, 4209342963], "tags": {"amenity": "school", "name": "Grand County High School", "wikidata": "Q5594476"}}, {"type": "way", "id": 421113642, "nodes": [4209342986, 4209342987, 4209342988, 4209343289, 4209342986], "tags": {"addr:city": "Moab", "addr:housenumber": "505", "addr:postcode": "84532", "addr:state": "UT", "addr:street": "North MiVida Drive", "amenity": "school", "fax": "+1-435-259-8094", "grades": "K-6", "name": "Helen M. Knight Elementary School", "operator": "Grand County School District", "operator:type": "public", "phone": "+1-435-719-4827", "short_name": "HMK Elementary School", "website": "https://hmk.grandschools.org/"}}, {"type": "way", "id": 421116709, "nodes": [4209371618, 5110188126, 4209371619, 4209371620, 4209371621, 4209371618], "tags": {"amenity": "university", "name": "Utah State University Moab"}}, {"type": "way", "id": 421119288, "nodes": [2328084726, 4209392100, 4209392101, 4209392102, 2328084726], "tags": {"addr:city": "Moab", "addr:housenumber": "111", "addr:postcode": "84532", "addr:state": "UT", "addr:street": "East 100 North", "amenity": "arts_centre", "building": "yes", "name": "Moab Arts & Recreation Center", "short_name": "The MARC", "website": "https://moabcity.org/marc/"}}, {"type": "way", "id": 459276057, "nodes": [4551702146, 9514652485, 4551702145, 4551702144, 4551702143, 2334987295, 4551702142, 4551702141, 4551702140, 10728709227, 10728710751, 368981774, 4551702146], "tags": {"addr:city": "Moab", "addr:housenumber": "450", "addr:postcode": "84532", "addr:street": "West Williams Way", "amenity": "hospital", "beds": "17", "emergency": "yes", "healthcare": "hospital", "name": "Moab Regional Hospital", "opening_hours": "24/7", "phone": "+1 435 719 3500", "website": "https://mrhmoab.org/", "wheelchair": "yes", "wikidata": "Q6886325"}}, {"type": "way", "id": 489296202, "nodes": [4815497187, 4815497186, 4815497185, 4815497184, 4815497187], "tags": {"amenity": "parking", "parking": "surface"}}, {"type": "way", "id": 489296210, "nodes": [4815497219, 4815497217, 4815497216, 4815497218, 4815497219], "tags": {"amenity": "parking", "parking": "surface"}}, {"type": "way", "id": 489296211, "nodes": [4815499725, 4815499721, 4815497220, 4815499724, 4815499723, 4815499722, 4815499725], "tags": {"access": "yes", "amenity": "parking", "fee": "no+", "parking": "surface"}}, {"type": "way", "id": 489305244, "nodes": [4815571813, 4815571812, 4815571811, 4815571810, 4815571813], "tags": {"amenity": "parking", "fee": "no", "parking": "surface"}}, {"type": "way", "id": 489305247, "nodes": [4815571821, 6443919266, 4815571820, 4815571819, 4815571818, 4815571821], "tags": {"amenity": "parking", "fee": "no", "parking": "surface"}}, {"type": "way", "id": 500381833, "nodes": [4914505949, 4914505953, 4914505950, 4914505960, 4914505961, 4914505963, 4914505962, 4914505952, 4914505957, 4914505965, 4914505949], "tags": {"amenity": "place_of_worship", "building": "yes", "denomination": "jehovahs_witness", "religion": "christian"}}, {"type": "way", "id": 580847782, "nodes": [5559135382, 5559135381, 5559135383, 5559135384, 5559135382], "tags": {"addr:city": "Moab", "addr:housenumber": "60", "addr:postcode": "84532", "addr:state": "UT", "addr:street": "North 100 West", "amenity": "restaurant", "building": "yes", "cuisine": "thai", "email": "archesthai@gmail.com", "name": "Arches Thai", "opening_hours": "We-Mo 11:00-21:00", "phone": "+1-435-355-0533", "website": "http://www.archesthai.com"}}, {"type": "way", "id": 580847783, "nodes": [5559135387, 1961684632, 5559135385, 5559135386, 5559135388, 5559135387], "tags": {"addr:city": "Moab", "addr:housenumber": "220", "addr:postcode": "84532", "addr:state": "UT", "addr:street": "North Main Street", "amenity": "fuel", "brand": "Exxon", "brand:wikidata": "Q109675651", "building": "roof", "fixme": "Please add and verify tags: fuel:octane_XX; hours; phone; website", "fuel:diesel": "unknown", "fuel:octane_85": "unknown", "fuel:octane_86": "unknown", "fuel:octane_87": "unknown", "fuel:octane_88": "unknown", "fuel:octane_89": "unknown", "fuel:octane_90": "unknown", "fuel:octane_91": "unknown", "fuel:octane_92": "unknown", "fuel:octane_93": "unknown", "layer": "1", "name": "Exxon", "payment:contactless": "unknown"}}, {"type": "way", "id": 603894801, "nodes": [5731324483, 5731324482, 5731324481, 5731324480, 5731324479, 5731324478, 5731324477, 5731324476, 916955252, 5731324475, 5731324474, 5731324473, 5731324472, 5731324483], "tags": {"amenity": "recycling", "landuse": "industrial", "name": "Recycle Center", "recycling_type": "centre"}}, {"type": "way", "id": 605096636, "nodes": [5739994366, 5739994367, 5739994375, 5739994368, 5739994369, 5739994366], "tags": {"amenity": "parking"}}, {"type": "way", "id": 605096639, "nodes": [5739994383, 5739994389, 5739994384, 5739994385, 5739994387, 5739994386, 5739994383], "tags": {"amenity": "parking"}}, {"type": "way", "id": 605096647, "nodes": [5739994414, 5739994415, 5739994416, 5739994417, 5739994414], "tags": {"amenity": "parking"}}, {"type": "way", "id": 690655510, "nodes": [11592272322, 11592272321, 11592272320, 11592272319, 11592272318, 11592272317, 11592272316, 11592272315, 11592272314, 11592272313, 11592272312, 11592272311, 11592272310, 11592272309, 11592272308, 11592272307, 11592272306, 11592272305, 8902058372, 6480073992, 6480073993, 11592272356, 11592272355, 11592272354, 11592272353, 11592272352, 11592272351, 11592272350, 11592272349, 11592272348, 11592272347, 11592272346, 11592272345, 11592272344, 11592272343, 11592272342, 11592272361, 11592272341, 11592272340, 11592272339, 11592272338, 11592272337, 11592272336, 11592272335, 11592272334, 11592272333, 11592272332, 11592272331, 11592272330]}, {"type": "way", "id": 694515326, "nodes": [6521409380, 6521409364, 6521409363, 6521409362, 6521409380], "tags": {"amenity": "parking"}}, {"type": "way", "id": 694515329, "nodes": [6521409376, 6521409373, 6521409371, 1961683491, 1961683483, 6521409372, 6521409376], "tags": {"amenity": "parking"}}, {"type": "way", "id": 694515330, "nodes": [6521409376, 6521409378, 6521409375, 6521409374, 6521409376], "tags": {"amenity": "parking"}}, {"type": "way", "id": 694515336, "nodes": [6521414587, 6521414586, 6521409382, 6521414585, 6521409384, 6521409367, 6521414587], "tags": {"addr:city": "Moab", "addr:housenumber": "817", "addr:postcode": "84532", "addr:state": "UT", "addr:street": "South Main Street", "amenity": "fuel", "brand": "Chevron", "brand:wikidata": "Q319642", "building": "yes", "fixme": "Please add and verify tags: fuel:octane_XX; hours; phone; website", "fuel:diesel": "unknown", "fuel:octane_85": "unknown", "fuel:octane_86": "unknown", "fuel:octane_87": "unknown", "fuel:octane_88": "unknown", "fuel:octane_89": "unknown", "fuel:octane_90": "unknown", "fuel:octane_91": "unknown", "fuel:octane_92": "unknown", "fuel:octane_93": "unknown", "name": "Chevron", "payment:contactless": "unknown"}}, {"type": "way", "id": 697148616, "nodes": [6547681172, 6547681171, 6547681170, 6547681169, 6547681168, 6547681167, 6547681166, 6547681165, 6547681164, 6547681163, 6547681162, 6547681161, 6547681160, 6547681159, 6547681158, 6547681157, 6547681156, 6547681155, 6547681154, 6547681153, 6547681152, 6547681151, 6547681150, 6547681149, 6547681148, 6547681172], "tags": {"access": "customers", "amenity": "parking", "fee": "no", "parking": "surface", "surface": "asphalt"}}, {"type": "way", "id": 697148622, "nodes": [6547688199, 6547688198, 6547688197, 6547688196, 6547688195, 6547688194, 6547688193, 6547688192, 6547688191, 6547688190, 6547688189, 6547688199], "tags": {"access": "customers", "amenity": "parking", "fee": "no", "parking": "surface", "surface": "asphalt"}}, {"type": "way", "id": 697149883, "nodes": [6547698238, 6547698235, 6547698234, 6547698233, 6547698232, 6547698231, 6547698236, 10236378664, 10236378663, 10236378662, 10236378661, 6547698237, 6547698229, 6547698230, 6547698238], "tags": {"amenity": "restaurant", "brand": "Sunset Grill", "brand:wikidata": "Q62112489", "building": "yes", "cuisine": "american", "name": "Sunset Grill", "opening_hours": "Mo-Sa 16:00-21:30", "phone": "+1 435 259 7146", "website": "https://moabsunsetgrill.com/"}}, {"type": "way", "id": 699797499, "nodes": [6571382845, 6571382844, 6571382843, 6571382842, 6571382841, 6571382840, 6571382839, 6571382838, 6571382837, 6571382836, 6571382835, 6571382834, 6571382833, 6571382832, 6571382831, 6571382830, 6571382829, 6571382828, 6571382827, 6571382826, 6571382825, 6571382824, 6571382823, 6571382822, 6571382821, 6571382820, 6571382819, 6571382818, 6571382845], "tags": {"amenity": "parking"}}, {"type": "way", "id": 699797500, "nodes": [6571382852, 6571382851, 6571382850, 6571382849, 6571382848, 6571382847, 6571382846, 6571382852], "tags": {"amenity": "parking"}}, {"type": "way", "id": 699968764, "nodes": [6573239235, 6573239246, 6573239245, 6573239244, 6573239243, 6573239242, 6573239241, 6573239240, 6573239239, 6573239238, 6573239237, 6573239236, 6573239235], "tags": {"amenity": "parking"}}, {"type": "way", "id": 699968769, "nodes": [6573255518, 6573255517, 6573255516, 6573255515, 6573255514, 6573255513, 6573255512, 6573255511, 6573255510, 6573255509, 6573255518], "tags": {"amenity": "parking"}}, {"type": "way", "id": 738097711, "nodes": [6911019770, 6911019769, 6911019768, 6911019767, 6911019766, 6911019765, 6911019764, 6911019770], "tags": {"access": "destination", "amenity": "parking", "capacity:disabled": "yes", "surface": "asphalt"}}, {"type": "way", "id": 738097712, "nodes": [6911039985, 6911019784, 6911019783, 6911019782, 6911019780, 6911039985], "tags": {"addr:city": "Moab", "addr:country": "US", "addr:housenumber": "122", "addr:postcode": "84532", "addr:street": "West 400 North", "amenity": "place_of_worship", "denomination": "roman_catholic", "ele": "1226", "fax": "+1 435-259-3984", "gnis:county_id": "019", "gnis:created": "02/25/1989", "gnis:feature_id": "1436773", "gnis:state_id": "49", "name": "Saint Pius X Catholic Church", "note": "Also serves Moab and Monticello Hospitals", "phone": "+1 435-259-5211", "religion": "christian", "website": "https://www.stpiusxmoab.org/"}}, {"type": "way", "id": 830185866, "nodes": [7748138297, 7748138298, 7748138299, 7748138300, 7748138297], "tags": {"amenity": "shelter", "building": "yes", "shelter_type": "picnic_shelter"}}, {"type": "way", "id": 830667884, "nodes": [7755927091, 7755927092, 1961684307, 1961684310, 6573239278, 6573239277, 6573239279, 6573239280, 6573239276, 6573239274, 6573239272, 6573239271, 6573239273, 7755927093, 7755927100, 7755927095, 7755927094, 1961684237, 1961684288, 1961684290, 1961684303, 7755927091], "tags": {"access": "customers", "amenity": "parking", "fee": "no", "parking": "surface"}}, {"type": "way", "id": 830667885, "nodes": [7755927096, 1961684229, 1961684224, 7755927097, 7755927098, 1961684271, 1961684274, 1961684234, 7755927096], "tags": {"amenity": "parking"}}, {"type": "way", "id": 830667889, "nodes": [7755927104, 7755927105, 7755927106, 10198502104, 7755927107, 7755927104], "tags": {"amenity": "parking"}}, {"type": "way", "id": 830667890, "nodes": [7755927108, 7755927109, 7755927110, 7755927111, 7755927112, 7755927113, 1961683685, 1961683689, 1961683696, 1961683693, 7755927108], "tags": {"amenity": "parking"}}, {"type": "way", "id": 843639502, "nodes": [7869483936, 7869483937, 7869483938, 7869483939, 7869483940, 7869483941, 7869483942, 7869483943, 7869483944, 7869483945, 7869483936], "tags": {"amenity": "place_of_worship", "building": "yes", "name": "Moab Baptist Church", "religion": "christian"}}, {"type": "way", "id": 843639503, "nodes": [7869483946, 7869483947, 7869483948, 7869483949, 7869483950, 7869483951, 7869483952, 7869483953, 7869483954, 7869483955, 7869483956, 7869483957, 7869483958, 7869483959, 7869483960, 7869483961, 7869483962, 7869483963, 7869483964, 7869483965, 7869483946], "tags": {"amenity": "place_of_worship", "building": "yes", "name": "Episcopal Church of St Francis", "religion": "christian"}}, {"type": "way", "id": 888660801, "nodes": [8261956290, 8261956291, 8261896414, 8261956292, 8261956294, 8261956293, 8902095805, 8261956298, 8261956290], "tags": {"access": "yes", "amenity": "parking", "fee": "no", "operator": "Moab City", "operator:type": "public", "parking": "surface", "surface": "concrete"}}, {"type": "way", "id": 894390358, "nodes": [8313095518, 8313095517, 8313095516, 8313095515, 1961683916, 8313095514, 8313095518], "tags": {"amenity": "parking", "parking": "surface", "surface": "paved"}}, {"type": "way", "id": 894390359, "nodes": [8313095531, 8313095530, 8313095529, 8313095528, 8313095527, 8313095526, 8313095525, 8313095524, 8313095523, 8313095522, 8313095521, 8313095520, 8313095519, 356676913, 8313095531], "tags": {"amenity": "place_of_worship", "building": "yes", "denomination": "mormon", "ele": "1252", "gnis:county_id": "019", "gnis:created": "02/25/1989", "gnis:feature_id": "1437004", "gnis:state_id": "49", "name": "The Church of Jesus Christ of Latter-day Saints", "religion": "christian"}}, {"type": "way", "id": 962380228, "nodes": [8902052764, 8902052765, 8902052766, 8902052767, 8902052768, 8902052769, 8902052764], "tags": {"amenity": "shelter", "bin": "yes", "building": "yes", "shelter_type": "picnic_shelter"}}, {"type": "way", "id": 962380243, "nodes": [8902058358, 8902058359, 8902058362, 8902058360, 8902058361, 8902058358], "tags": {"amenity": "toilets", "building": "yes"}}, {"type": "way", "id": 962393978, "nodes": [8902095767, 8902095768, 8902095769, 8902095770, 8902095767], "tags": {"amenity": "toilets", "building": "yes"}}, {"type": "way", "id": 962393980, "nodes": [8902095772, 8902095773, 8902095774, 8902095775, 8902095772], "tags": {"amenity": "parking", "parking": "surface", "surface": "paved"}}, {"type": "way", "id": 962694622, "nodes": [8905149675, 8905149676, 8905149677, 8905149678, 8905149680, 8905149675], "tags": {"access": "yes", "amenity": "parking", "fee": "no", "parking": "surface", "surface": "paved"}}, {"type": "way", "id": 1055579271, "nodes": [9699465287, 9699465285, 9699465286, 9699465284, 9699465287], "tags": {"addr:city": "Moab", "addr:housenumber": "39", "addr:postcode": "84532", "addr:state": "UT", "addr:street": "West 100 North", "amenity": "food_court", "contact:facebook": "226521991282302", "email": "MoabFoodPark@Gmail.com", "location": "outdoor", "name": "Moab Food Truck Park", "outdoor_seating": "yes", "phone": "+1 435-261-7880", "website": "https://www.moabfoodpark.com/"}}, {"type": "way", "id": 1056097829, "nodes": [9704088319, 9704088321, 9704088318, 9704088320, 9704088319], "tags": {"amenity": "theatre", "name": "Moab's Backyard Theater", "theatre:type": "open_air", "website": "http://www.moabbackyardtheater.com/"}}, {"type": "way", "id": 1063695685, "nodes": [9770314917, 9770314918, 9770314919, 9770314920, 9770314917], "tags": {"addr:city": "Moab", "addr:housenumber": "239", "addr:postcode": "84532", "addr:state": "UT", "addr:street": "West Center Street", "amenity": "community_centre", "building": "yes", "contact:instagram": "hearthspacemoab", "email": "hearthspace.moab@gmail.com", "loc_name": "Helipad", "name": "Hearthspace Moab", "official_name": "Temple Hearthspace of the Unified Field", "website": "https://www.hearthspacemoab.org/"}}, {"type": "way", "id": 1115094782, "nodes": [10198510327, 10198510328, 10198510329, 10198510330, 10198510327], "tags": {"amenity": "parking"}}, {"type": "way", "id": 1115202287, "nodes": [10199399030, 10199399031, 10199399032, 10199399033, 10199399034, 10199399035, 10199399036, 10199399037, 10199399038, 10199399039, 10199399040, 10199399041, 10199399042, 10199399043, 10199399044, 10199399045, 10199399046, 10199399047, 10199399048, 10199399049, 10199399050, 10199399030], "tags": {"amenity": "parking"}}, {"type": "way", "id": 1115202288, "nodes": [10199399051, 10199399052, 10199399053, 10199399054, 10199399055, 10199399056, 10199399057, 10199399058, 10199399051]}, {"type": "way", "id": 1115202289, "nodes": [10199399059, 10199399060, 10199399061, 10199399062, 10199399059]}, {"type": "way", "id": 1115202290, "nodes": [10199399063, 10199399064, 10199399065, 10199399066, 10199399067, 10199399068, 10199399063], "tags": {"amenity": "parking"}}, {"type": "way", "id": 1115202291, "nodes": [10199399069, 10199399070, 10199399071, 10199399072, 10199399069], "tags": {"amenity": "parking"}}, {"type": "way", "id": 1115202292, "nodes": [10199399073, 10199399074, 10199399075, 10199399076, 10199399077, 10199399078, 10199399079, 10199399080, 10199399081, 10199399073], "tags": {"amenity": "parking"}}, {"type": "way", "id": 1115202319, "nodes": [10199399245, 10199399246, 10199399247, 10199399248, 10199399249, 10199399250, 10199399251, 10199399252, 10199399253, 10199399254, 10199399255, 10199399256, 10199399257, 10199399258, 10199399259, 10199399260, 10199399245], "tags": {"amenity": "parking"}}, {"type": "way", "id": 1119261136, "nodes": [10236378644, 10236378645, 10236378646, 10236378665, 6547698222, 6547698226, 10236378647, 10236378648, 10236378649, 10236378650, 6547698236, 6547698231, 10236378651, 10236378652, 10236378653, 10236378654, 10236378655, 10236378656, 10236378657, 10236378658, 10236378659, 10236378660, 10236378644], "tags": {"amenity": "parking"}}, {"type": "way", "id": 1119261138, "nodes": [10236378678, 10236378679, 10236378680, 10236378681, 10236378682, 10236378692, 10236378683, 10236378684, 10236378678], "tags": {"amenity": "parking"}}, {"type": "way", "id": 1119261140, "nodes": [10236378693, 10236378694, 10236378695, 10236378696, 10236378697, 10236378698, 10236378699, 10236378700, 10236378701, 10236378702, 10236378703, 10236378704, 10236378705, 10236378706, 10236378707, 10236378708, 10236400409, 10236378693], "tags": {"amenity": "parking"}}, {"type": "way", "id": 1119682614, "nodes": [10240857275, 10240857274, 10240857276, 10240857277, 10240857275], "tags": {"amenity": "parking", "parking": "street_side"}}, {"type": "way", "id": 1134693858, "nodes": [5235016527, 10578134704, 10578134705, 10578134706, 5235016527], "tags": {"addr:city": "Moab", "addr:housenumber": "36", "addr:postcode": "84532", "addr:state": "UT", "addr:street": "South 100 West", "amenity": "restaurant", "cuisine": "regional", "name": "Desert Bistro", "phone": "+1-435-259-0756"}}, {"type": "way", "id": 1135611310, "nodes": [10585969595, 10585969596, 10585969597, 10585969598, 10585969599, 10585969600, 10585969601, 10585969602, 10585969603, 10585969604, 10585977505, 10585977506, 10585977507, 10585977508, 10585977509, 10585977510, 10585977511, 10585969594, 10585977512, 6573239222, 6573239221, 10585977513, 10585969595], "tags": {"amenity": "place_of_worship", "building": "yes", "denomination": "mormon", "ele": "1218", "gnis:county_id": "019", "gnis:created": "02/25/1989", "gnis:feature_id": "1437003", "gnis:state_id": "49", "name": "The Church of Jesus Christ of Latter-day Saints", "religion": "christian"}}, {"type": "way", "id": 1146844336, "nodes": [10671975578, 10671975579, 10671975580, 10671975581, 10671975578], "tags": {"access": "private", "amenity": "parking", "parking": "surface", "surface": "asphalt"}}, {"type": "way", "id": 1146844339, "nodes": [10671975589, 10671975590, 10671975591, 10671975592, 10671975589], "tags": {"access": "private", "amenity": "parking", "parking": "surface", "surface": "asphalt"}}, {"type": "way", "id": 1172637409, "nodes": [10895105871, 10895105872, 10895105873, 10895105874, 10895105871], "tags": {"addr:city": "Moab", "addr:housenumber": "985", "addr:postcode": "84532", "addr:state": "UT", "addr:street": "South Main Street", "amenity": "fuel", "area": "yes", "brand": "Maverik", "brand:wikidata": "Q64149010", "building": "yes", "fixme": "Please add and verify tags:\n fuel:octane_XX; hours; phone; website", "fuel:diesel": "unknown", "fuel:octane_85": "unknown", "fuel:octane_86": "unknown", "fuel:octane_87": "unknown", "fuel:octane_88": "unknown", "fuel:octane_89": "unknown", "fuel:octane_90": "unknown", "fuel:octane_91": "unknown", "fuel:octane_92": "unknown", "fuel:octane_93": "unknown", "name": "Maverik", "payment:contactless": "unknown"}}, {"type": "way", "id": 1174898621, "nodes": [10917188720, 10917188719, 10917188718, 10917188717, 10917188716, 917068308, 10917188720], "tags": {"addr:city": "Moab", "addr:housenumber": "218", "addr:postcode": "84532", "addr:state": "UT", "addr:street": "North 100 West", "amenity": "restaurant", "building": "detached", "building:levels": "2", "cuisine": "thai", "name": "Thai Bella", "outdoor_seating": "yes", "phone": "+1-435-355-0555", "takeaway": "yes"}}, {"type": "way", "id": 1242082033, "nodes": [11541673382, 11541673381, 11541673380, 11541673379, 11541673382], "tags": {"amenity": "parking"}}, {"type": "way", "id": 1242082045, "nodes": [11541673493, 11541673487, 11541673486, 11541673492, 11541673485, 11541673483, 11541673482, 11541673484, 11541673491, 11541673488, 11541673489, 11541673477, 11541673476, 11541673475, 11541673478, 11541673474, 11541673479, 11541673490, 11541673480, 11541673481, 11541673493], "tags": {"amenity": "parking"}}, {"type": "way", "id": 1242082056, "nodes": [11541673565, 11541673564, 11541673563, 11541673562, 11541673560, 11541673561, 11541673565], "tags": {"amenity": "parking"}}, {"type": "way", "id": 1242082057, "nodes": [11541673569, 11541673566, 11541673567, 11541673568, 11541673569], "tags": {"amenity": "parking"}}, {"type": "way", "id": 1242082069, "nodes": [11541673636, 11541673632, 11541673631, 11541673630, 11541673633, 11541673629, 11541673634, 11541673635, 11541673636], "tags": {"amenity": "parking"}}, {"type": "way", "id": 1242082070, "nodes": [11541673642, 11541673641, 11541673640, 11541673637, 11541673638, 11541673639, 11541673642], "tags": {"amenity": "parking"}}, {"type": "way", "id": 1242082073, "nodes": [11541673657, 11541673656, 11541673655, 11541673653, 11541673652, 11541673654, 11541673657], "tags": {"amenity": "parking"}}, {"type": "way", "id": 1242082079, "nodes": [11541673689, 11541673688, 11541673687, 11541673680, 11541673681, 11541673683, 11541673682, 11541673686, 11541673684, 11541673685, 11541673689], "tags": {"access": "yes", "amenity": "parking", "operator": "City of Moab", "parking": "surface"}}, {"type": "way", "id": 1242082082, "nodes": [11541673701, 11541673698, 11541673699, 11541673700, 11541673701], "tags": {"amenity": "parking"}}, {"type": "way", "id": 1242082089, "nodes": [11541673733, 11541673729, 11541673728, 11541673732, 11541673731, 11541673730, 11541673733], "tags": {"amenity": "parking"}}, {"type": "way", "id": 1242082090, "nodes": [11541673737, 11541673736, 11541673735, 11541673734, 11541673737], "tags": {"amenity": "parking"}}, {"type": "way", "id": 1242082137, "nodes": [11541673982, 11541673981, 11541673980, 11541673979, 11541673982], "tags": {"amenity": "parking"}}, {"type": "way", "id": 1242082142, "nodes": [11541674000, 11541673999, 11541673998, 11541673997, 11541674000], "tags": {"amenity": "parking"}}, {"type": "way", "id": 1242082181, "nodes": [11541674278, 11541674277, 11541674276, 11541674275, 11541674274, 11541674273, 11541674272, 11541674271, 11541674278], "tags": {"amenity": "shelter", "shelter_type": "gazebo"}}, {"type": "way", "id": 1242082183, "nodes": [11541674294, 11541674293, 11541674292, 11541674291, 11541674294], "tags": {"amenity": "parking"}}, {"type": "way", "id": 1246911563, "nodes": [11592245244, 11592245163, 11592245164, 11592245165, 11592245166, 11592245167, 11592245168, 11592245169, 11592245170, 11592245171, 11592245172, 11592245173, 11592245174, 11592245175, 11592245176, 11592245177, 11592245178, 11592245179, 11592245180, 11592245181, 11592245182, 11592245183, 11592245184, 11592245185, 11592245186, 11592245187, 11592245188, 8902058379, 11592245189, 11592245190, 11592245191, 11592245192, 11592245193, 11592245194, 11592245195, 11592245196, 11592245197, 11592245198, 11592245199, 11592245200, 11592245201, 11592245202, 11592245203, 8902058356, 11592245204, 11592245205, 11592245206, 11592245207, 11592245208, 8902058324, 11592245295, 11592245209, 8902058323, 8902058322, 8902058321, 8902058320, 8902058319, 11592245210, 11592245211, 11592245212, 8902058318, 11592245213, 11592245214, 11592245215, 11592245216, 11592245217, 11592245218, 8902052816, 8902058354, 11592245219, 11592245220, 11592245221, 11592245222, 11592245223, 11592245224, 8902052815, 11592245225, 11592245226, 11592245227, 11592245228, 11592245229, 8902052812, 11592245230, 11592245231, 11592245232, 11592245233, 11592245234, 11592245235, 11592245236, 11592245237, 11592245238, 11592245239, 11592245240, 11592245241, 11592245242, 11592245243, 11592245244]}, {"type": "way", "id": 1246911564, "nodes": [11592245245, 11592245246, 11592245247, 11592245248, 11592245249, 11592245250, 11592245251, 11592245252, 11592245253, 11592245254, 11592245255, 11592245256, 11592245257, 11592245258, 11592245245]}, {"type": "way", "id": 1246911565, "nodes": [11592245259, 11592245260, 11592245261, 11592245262, 11592245263, 11592245264, 11592245265, 11592245266, 8902058375, 11592245267, 11592245268, 11592245269, 11592245270, 11592245271, 11592245272, 8902058377, 11592245300, 11592245259]}, {"type": "way", "id": 1246911566, "nodes": [11592245273, 11592245274, 11592245275, 11592245276, 11592245277, 11592245278, 11592245279, 11592245280, 11592245281, 11592245282, 11592245283, 11592245284, 11592245273]}, {"type": "way", "id": 1246915118, "nodes": [11592228342, 11592228343, 11592228344, 11592228345, 11592228346, 11592228347, 11592228348, 11592228349, 11592228350, 11592228351, 11592228352, 11592228353, 11592228342], "tags": {"natural": "sand"}}, {"type": "way", "id": 1246915119, "nodes": [11592228354, 11592228355, 11592228356, 11592228357, 11592228358, 11592228359, 11592228360, 11592228361, 11592228362, 11592228363, 11592228364, 11592228365, 11592228366, 11592228367, 11592228368, 11592272269, 11592272270, 11592228354], "tags": {"natural": "sand"}}, {"type": "way", "id": 1246915120, "nodes": [11592272277, 11592272289, 11592272288, 11592272287, 11592272286, 11592272285, 11592272284, 11592272283, 11592272282, 11592272281, 11592272280, 11592272279, 11592272278, 11592272271, 11592272272, 11592272273, 11592272274, 11592272275, 11592272276, 11592272277], "tags": {"natural": "sand"}}, {"type": "way", "id": 1246915121, "nodes": [11592272290, 11592272291, 11592272292, 11592272293, 11592272294, 11592272295, 11592272296, 11592272297, 11592272298, 11592272299, 11592272300, 11592272301, 11592272302, 11592272303, 11592272304, 11592272290], "tags": {"natural": "sand"}}, {"type": "way", "id": 1246915122, "nodes": [11592272330, 11592272329, 11592272328, 11592272327, 11592272326, 11592272325, 11592272324, 8902058357, 11592272323, 11592272322], "tags": {"footway": "sidewalk", "highway": "footway"}}, {"type": "way", "id": 1246915131, "nodes": [11592272427, 11592272428, 11592272429, 11592272430, 11592272427], "tags": {"amenity": "shelter", "building": "yes", "layer": "1", "shelter_type": "public_transport"}}, {"type": "way", "id": 1246915132, "nodes": [11592272431, 11592272432, 11592272433, 11592272434, 11592272431], "tags": {"amenity": "shelter", "building": "yes", "layer": "1", "shelter_type": "public_transport"}}, {"type": "way", "id": 1249373890, "nodes": [11612549215, 11612549214, 11612549213, 11612549212, 11612549215], "tags": {"amenity": "parking", "parking": "surface"}}, {"type": "way", "id": 1249373892, "nodes": [11612549229, 11612549228, 11612549227, 11612549226, 11612549229], "tags": {"amenity": "parking"}}, {"type": "way", "id": 1249373937, "nodes": [11612549462, 11612549459, 11612549460, 11612549461, 11612549457, 11612549455, 11612549456, 11612549458, 11612549462], "tags": {"amenity": "parking", "parking": "surface"}}, {"type": "way", "id": 1249374014, "nodes": [11612549878, 11612549877, 11612549876, 11612549875, 11612549878], "tags": {"amenity": "parking", "parking": "surface"}}, {"type": "way", "id": 1249374015, "nodes": [11612549882, 11612549879, 11612549880, 11612549881, 11612549882], "tags": {"amenity": "toilets", "building": "yes"}}, {"type": "way", "id": 1249374053, "nodes": [11612550224, 11612550221, 11612550219, 11612550220, 11612550222, 11612550223, 11612550224], "tags": {"amenity": "parking", "parking": "surface"}}, {"type": "relation", "id": 12929258, "members": [{"type": "way", "ref": 1246911563, "role": "outer"}, {"type": "way", "ref": 1246911564, "role": "inner"}, {"type": "way", "ref": 1246911566, "role": "inner"}, {"type": "way", "ref": 1246911565, "role": "inner"}], "tags": {"access": "yes", "amenity": "parking", "fee": "no", "name": "Lions Park Transit Hub", "parking": "surface", "surface": "asphalt", "type": "multipolygon"}}, {"type": "relation", "id": 14904280, "members": [{"type": "way", "ref": 1115202288, "role": "outer"}, {"type": "way", "ref": 1115202289, "role": "inner"}], "tags": {"amenity": "parking", "type": "multipolygon"}}, {"type": "relation", "id": 17164193, "members": [{"type": "way", "ref": 1246915122, "role": "outer"}, {"type": "way", "ref": 690655510, "role": "outer"}, {"type": "way", "ref": 1246915121, "role": "inner"}, {"type": "way", "ref": 1246915120, "role": "inner"}, {"type": "way", "ref": 1246915119, "role": "inner"}, {"type": "way", "ref": 1246915118, "role": "inner"}], "tags": {"access": "yes", "amenity": "parking", "fee": "no", "parking": "surface", "source": "Bing", "type": "multipolygon"}}]}