{"version": 0.6, "generator": "Overpass API 0.7.61.5 4133829e", "osm3s": {"timestamp_osm_base": "2024-03-12T19:26:20Z", "copyright": "The data included in this document is from www.openstreetmap.org. The data is made available under ODbL."}, "elements": [{"type": "node", "id": 1288521180, "lat": 37.2715146, "lon": -107.8838421, "tags": {"amenity": "restaurant", "brand": "Denny's", "brand:wikidata": "Q1189695", "cuisine": "american", "name": "Denny's"}}, {"type": "node", "id": 1288521253, "lat": 37.2694947, "lon": -107.8822337, "tags": {"amenity": "restaurant", "cuisine": "thai", "name": "Sizzling Siam"}}, {"type": "node", "id": 1301314938, "lat": 37.270017, "lon": -107.880548}, {"type": "node", "id": 1301314950, "lat": 37.27154, "lon": -107.8845128, "tags": {"amenity": "restaurant", "cuisine": "mexican", "name": "Cocina Linda"}}, {"type": "node", "id": 1301314958, "lat": 37.2697377, "lon": -107.881723, "tags": {"addr:city": "Durango", "addr:housenumber": "558", "addr:postcode": "81301", "addr:state": "CO", "addr:street": "Main Avenue", "amenity": "cafe", "internet_access": "wlan", "name": "Mountain Monk Coffee", "opening_hours": "Mo-Su 09:00-20:00", "website": "https://mountainmonkcoffee.com", "wheelchair": "yes"}}, {"type": "node", "id": 1301314960, "lat": 37.2711165, "lon": -107.8856601, "tags": {"amenity": "restaurant", "cuisine": "steak_house", "name": "Ore House"}}, {"type": "node", "id": 1301314961, "lat": 37.2724515, "lon": -107.880148}, {"type": "node", "id": 1833062189, "lat": 37.2689847, "lon": -107.8856711}, {"type": "node", "id": 1833062190, "lat": 37.2690447, "lon": -107.8854361}, {"type": "node", "id": 1833062194, "lat": 37.26953, "lon": -107.8859589}, {"type": "node", "id": 1833062195, "lat": 37.2695664, "lon": -107.8856453}, {"type": "node", "id": 1833062196, "lat": 37.2695765, "lon": -107.8855578}, {"type": "node", "id": 1833062198, "lat": 37.2699577, "lon": -107.8860372}, {"type": "node", "id": 1833062199, "lat": 37.2699666, "lon": -107.8859605}, {"type": "node", "id": 1833062200, "lat": 37.2699929, "lon": -107.8856346}, {"type": "node", "id": 1833062201, "lat": 37.2699981, "lon": -107.8856894}, {"type": "node", "id": 1833062205, "lat": 37.2705414, "lon": -107.8859637}, {"type": "node", "id": 1833062206, "lat": 37.2705466, "lon": -107.8856947}, {"type": "node", "id": 2945313430, "lat": 37.2699093, "lon": -107.8856187}, {"type": "node", "id": 2945313937, "lat": 37.2697715, "lon": -107.8855935}, {"type": "node", "id": 3042563705, "lat": 37.2722519, "lon": -107.8802137}, {"type": "node", "id": 3042563706, "lat": 37.272169, "lon": -107.8798262}, {"type": "node", "id": 3042563707, "lat": 37.2723659, "lon": -107.8797545}, {"type": "node", "id": 3042654278, "lat": 37.2712954, "lon": -107.8822044}, {"type": "node", "id": 3042654279, "lat": 37.2711813, "lon": -107.8822435}, {"type": "node", "id": 3042654280, "lat": 37.2711476, "lon": -107.8820807}, {"type": "node", "id": 3042654281, "lat": 37.2710673, "lon": -107.8821116}, {"type": "node", "id": 3042654282, "lat": 37.2710725, "lon": -107.8821556}, {"type": "node", "id": 3042654283, "lat": 37.2710012, "lon": -107.88218}, {"type": "node", "id": 3042654284, "lat": 37.2708975, "lon": -107.881685}, {"type": "node", "id": 3042654285, "lat": 37.2711438, "lon": -107.8815938}, {"type": "node", "id": 3042654286, "lat": 37.2711723, "lon": -107.8816133}, {"type": "node", "id": 3094959429, "lat": 37.2705769, "lon": -107.8818532, "tags": {"amenity": "restaurant", "name": "Francisco's", "wheelchair": "limited"}}, {"type": "node", "id": 3487821944, "lat": 37.2697802, "lon": -107.8810542, "tags": {"addr:city": "Durango", "addr:housenumber": "128", "addr:postcode": "81301", "addr:state": "CO", "addr:street": "East College Drive", "amenity": "restaurant", "cuisine": "chicken", "name": "Cuckoo's", "opening_hours": "11:30-23:00", "takeaway": "yes"}}, {"type": "node", "id": 4075416648, "lat": 37.2870465, "lon": -107.8759211, "tags": {"name": "Vagabond Inn", "tourism": "motel"}}, {"type": "node", "id": 4218512164, "lat": 37.2749738, "lon": -107.8800174, "tags": {"addr:city": "Durango", "addr:housenumber": "1050", "addr:state": "CO", "addr:street": "Main Avenue", "amenity": "restaurant", "cuisine": "oriental", "name": "Rice Monkeys", "opening_hours": "Mo-Su 11:00-15:00,17:00-21:00", "phone": "+1-970-403-3852", "website": "https://www.ricemonkeysdurango.com/"}}, {"type": "node", "id": 4218512166, "lat": 37.2748415, "lon": -107.8800415, "tags": {"addr:city": "Durango", "addr:housenumber": "1022", "addr:state": "CO", "addr:street": "Main Avenue", "amenity": "restaurant", "cuisine": "regional", "name": "Carver Brewing Co", "opening_hours": "6:30-10:00"}}, {"type": "node", "id": 4218512169, "lat": 37.2745747, "lon": -107.8801542, "tags": {"addr:city": "Durango", "addr:housenumber": "1000", "addr:state": "CO", "addr:street": "Main Avenue", "amenity": "restaurant", "cuisine": "regional", "name": "Old Tymers Cafe", "opening_hours": "11:00-10:00"}}, {"type": "node", "id": 4382789989, "lat": 37.2740023, "lon": -107.8803169, "tags": {"addr:housenumber": "948", "addr:street": "Main Avenue", "amenity": "restaurant", "cuisine": "mexican", "name": "Tequila's", "smoking": "no"}}, {"type": "node", "id": 4385410894, "lat": 37.270569, "lon": -107.8814356, "tags": {"addr:housenumber": "636", "addr:postcode": "81301", "addr:street": "Main Avenue", "amenity": "restaurant", "contact:phone": "+1 970 385 1810", "contact:website": "www.kenandsues.com", "cuisine": "fusion", "name": "Ken & Sue's"}}, {"type": "node", "id": 4385801191, "lat": 37.2711289, "lon": -107.8816777, "tags": {"amenity": "pub", "check_date": "2023-07-20", "name": "The Diamond Belle Saloon"}}, {"type": "node", "id": 4424459389, "lat": 37.2717782, "lon": -107.881042, "tags": {"addr:housenumber": "730", "addr:postcode": "81301", "addr:street": "Main Avenue", "amenity": "cafe", "cuisine": "cake;tea;sandwich;coffee_shop;breakfast;bagel", "internet_access": "wlan", "name": "Durango Coffee Company", "name:en": "Durango Coffee Company", "phone": "+1-970-259-2059", "smoking": "no", "website": "https://www.cooksandcoffee.com/"}}, {"type": "node", "id": 4482529277, "lat": 37.2747957, "lon": -107.88198, "tags": {"amenity": "restaurant", "capacity": "50", "cuisine": "diner", "delivery": "no", "name": "Oscar's Cafe", "opening_hours": "06:00-14:00", "phone": "+1-970-247-0526", "ref": "18 Town Plaza", "website": "http://www.oscarsdurango.com/"}}, {"type": "node", "id": 4706767180, "lat": 37.293428, "lon": -107.874005}, {"type": "node", "id": 5549275621, "lat": 37.2679352, "lon": -107.8812328, "tags": {"amenity": "restaurant", "cuisine": "mexican", "name": "Gazpacho"}}, {"type": "node", "id": 6868810415, "lat": 37.2394494, "lon": -107.8690903}, {"type": "node", "id": 6868810416, "lat": 37.2394781, "lon": -107.8690994}, {"type": "node", "id": 6868810417, "lat": 37.2394238, "lon": -107.8690656}, {"type": "node", "id": 6868810418, "lat": 37.2394963, "lon": -107.869118}, {"type": "node", "id": 6868810423, "lat": 37.2396106, "lon": -107.869476}, {"type": "node", "id": 6868810424, "lat": 37.2398642, "lon": -107.869569}, {"type": "node", "id": 6868810425, "lat": 37.239942, "lon": -107.869606}, {"type": "node", "id": 6868810426, "lat": 37.2399225, "lon": -107.869375}, {"type": "node", "id": 6868810427, "lat": 37.2400002, "lon": -107.869412}, {"type": "node", "id": 6868810428, "lat": 37.2396847, "lon": -107.869484}, {"type": "node", "id": 6868810429, "lat": 37.239743, "lon": -107.86929}, {"type": "node", "id": 6868810430, "lat": 37.2396703, "lon": -107.869256}, {"type": "node", "id": 6868810431, "lat": 37.2395424, "lon": -107.869417}, {"type": "node", "id": 6868810432, "lat": 37.2393429, "lon": -107.869322}, {"type": "node", "id": 6868810433, "lat": 37.2394154, "lon": -107.869357}, {"type": "node", "id": 6868810434, "lat": 37.2394873, "lon": -107.869135}, {"type": "node", "id": 6868810435, "lat": 37.2394784, "lon": -107.869165}, {"type": "node", "id": 6868810436, "lat": 37.2394108, "lon": -107.869372}, {"type": "node", "id": 6868810437, "lat": 37.2393382, "lon": -107.869338}, {"type": "node", "id": 6868810438, "lat": 37.2396061, "lon": -107.869491}, {"type": "node", "id": 6868810439, "lat": 37.239531, "lon": -107.869455}, {"type": "node", "id": 6868810440, "lat": 37.2397516, "lon": -107.869262}, {"type": "node", "id": 6868810441, "lat": 37.2396778, "lon": -107.869508}, {"type": "node", "id": 6868810442, "lat": 37.2396788, "lon": -107.869227}, {"type": "node", "id": 6868810443, "lat": 37.239319, "lon": -107.869213}, {"type": "node", "id": 6868810444, "lat": 37.2393342, "lon": -107.869221}, {"type": "node", "id": 6868810445, "lat": 37.2393465, "lon": -107.869122}, {"type": "node", "id": 6868810446, "lat": 37.2393628, "lon": -107.869086}, {"type": "node", "id": 6868810447, "lat": 37.2393086, "lon": -107.869306}, {"type": "node", "id": 6868810448, "lat": 37.2394122, "lon": -107.8691}, {"type": "node", "id": 6868810449, "lat": 37.2400638, "lon": -107.869442}, {"type": "node", "id": 6868810450, "lat": 37.2400055, "lon": -107.869636}, {"type": "node", "id": 6868810451, "lat": 37.2399359, "lon": -107.869626}, {"type": "node", "id": 6868810452, "lat": 37.2400096, "lon": -107.869381}, {"type": "node", "id": 6868810453, "lat": 37.2399319, "lon": -107.869344}, {"type": "node", "id": 6868810454, "lat": 37.2398582, "lon": -107.869589}, {"type": "node", "id": 6883979085, "lat": 37.2742746, "lon": -107.8806637, "tags": {"addr:housenumber": "957", "addr:street": "Main Avenue", "amenity": "restaurant", "name": "Durango Diner"}}, {"type": "node", "id": 6884043685, "lat": 37.2703961, "lon": -107.8819317, "tags": {"addr:housenumber": "601", "addr:street": "Main Avenue", "amenity": "restaurant", "check_date": "2023-07-20", "name": "Jean Pierre Bakery"}}, {"type": "node", "id": 7092628983, "lat": 37.2709872, "lon": -107.8817042, "tags": {"amenity": "bar", "brewery": "yes", "name": "The Office Spiritorium", "opening_hours": "Mo-Su 16:00-unknown"}}, {"type": "node", "id": 7255814542, "lat": 37.3012783, "lon": -107.869992, "tags": {"addr:housenumber": "3206", "addr:street": "Main Avenue", "addr:unit": "1", "amenity": "restaurant", "name": "The Yellow Carrot", "website": "https://theyellowcarrot.com/"}}, {"type": "node", "id": 7255948233, "lat": 37.296286, "lon": -107.853263}, {"type": "node", "id": 7255951208, "lat": 37.2453798, "lon": -107.874597}, {"type": "node", "id": 7255951373, "lat": 37.2978027, "lon": -107.8714551}, {"type": "node", "id": 7255952253, "lat": 37.2715609, "lon": -107.881617, "tags": {"addr:housenumber": "707", "addr:street": "Main Avenue", "amenity": "cafe", "internet_access": "wlan", "name": "Magpies Newsstand & Cafe", "opening_hours": "Mo-Su 07:00-19:00", "phone": "+1-970-259-1159", "website": "https://www.facebook.com/MagpiesNewsstand/"}}, {"type": "node", "id": 7255952307, "lat": 37.2742859, "lon": -107.880213, "tags": {"addr:housenumber": "992", "addr:street": "Main Avenue", "amenity": "restaurant", "cuisine": "indian;nepalese", "name": "Himalayan Kitchen", "phone": "+1-970-259-0956", "smoking": "no", "website": "http://www.himkitchen.com"}}, {"type": "node", "id": 7255954423, "lat": 37.2695412, "lon": -107.8858626}, {"type": "node", "id": 7258530948, "lat": 37.3025338, "lon": -107.8700759}, {"type": "node", "id": 7258552993, "lat": 37.323175, "lon": -107.850683}, {"type": "node", "id": 7258552994, "lat": 37.3249012, "lon": -107.8508078}, {"type": "node", "id": 7258552996, "lat": 37.323167, "lon": -107.850865}, {"type": "node", "id": 7258552997, "lat": 37.3248918, "lon": -107.8509872}, {"type": "node", "id": 7258553591, "lat": 37.300296, "lon": -107.871366}, {"type": "node", "id": 7258553594, "lat": 37.300578, "lon": -107.871262}, {"type": "node", "id": 7258553595, "lat": 37.300557, "lon": -107.871176}, {"type": "node", "id": 7258553596, "lat": 37.300275, "lon": -107.87128}, {"type": "node", "id": 7258555276, "lat": 37.3026488, "lon": -107.8702629}, {"type": "node", "id": 7258555278, "lat": 37.3027218, "lon": -107.8701909}, {"type": "node", "id": 7258555343, "lat": 37.3026068, "lon": -107.8700039}, {"type": "node", "id": 7258724784, "lat": 37.267613, "lon": -107.881307}, {"type": "node", "id": 7258770701, "lat": 37.29367, "lon": -107.87425}, {"type": "node", "id": 7258770704, "lat": 37.293486, "lon": -107.874306}, {"type": "node", "id": 7258770712, "lat": 37.293612, "lon": -107.873949}, {"type": "node", "id": 7258778089, "lat": 37.270047, "lon": -107.880687}, {"type": "node", "id": 7258778153, "lat": 37.270129, "lon": -107.880659}, {"type": "node", "id": 7258778155, "lat": 37.270098, "lon": -107.880519}, {"type": "node", "id": 7258781409, "lat": 37.2763, "lon": -107.882119}, {"type": "node", "id": 7258781410, "lat": 37.2766777, "lon": -107.8825359}, {"type": "node", "id": 7258781411, "lat": 37.27589, "lon": -107.882621}, {"type": "node", "id": 7258781424, "lat": 37.2761396, "lon": -107.8828787}, {"type": "node", "id": 7258781594, "lat": 37.296315, "lon": -107.853573}, {"type": "node", "id": 7258781595, "lat": 37.296238, "lon": -107.853544}, {"type": "node", "id": 7258781596, "lat": 37.296282, "lon": -107.853364}, {"type": "node", "id": 7258781597, "lat": 37.296263, "lon": -107.853356}, {"type": "node", "id": 7258781602, "lat": 37.296382, "lon": -107.8533}, {"type": "node", "id": 7258783291, "lat": 37.2687521, "lon": -107.8812923}, {"type": "node", "id": 7258783292, "lat": 37.2687231, "lon": -107.8812568}, {"type": "node", "id": 7258783293, "lat": 37.2687374, "lon": -107.8809694}, {"type": "node", "id": 7258783294, "lat": 37.2687958, "lon": -107.8812771}, {"type": "node", "id": 7258783297, "lat": 37.2686969, "lon": -107.8812544}, {"type": "node", "id": 7258783298, "lat": 37.2686869, "lon": -107.8812229}, {"type": "node", "id": 7258783303, "lat": 37.2684152, "lon": -107.8813206}, {"type": "node", "id": 7258783304, "lat": 37.2683692, "lon": -107.8811117}, {"type": "node", "id": 7258783357, "lat": 37.2981873, "lon": -107.8716423}, {"type": "node", "id": 7258783358, "lat": 37.298293, "lon": -107.871604}, {"type": "node", "id": 7258783359, "lat": 37.2982239, "lon": -107.8713025}, {"type": "node", "id": 7258783360, "lat": 37.2977372, "lon": -107.8713589}, {"type": "node", "id": 7258783361, "lat": 37.2982875, "lon": -107.8711592}, {"type": "node", "id": 7258783362, "lat": 37.2984, "lon": -107.8716491}, {"type": "node", "id": 7258783363, "lat": 37.2982051, "lon": -107.8717198}, {"type": "node", "id": 7258783365, "lat": 37.2978136, "lon": -107.8715024}, {"type": "node", "id": 7258783366, "lat": 37.2977735, "lon": -107.8715169}, {"type": "node", "id": 7258783367, "lat": 37.286752, "lon": -107.8761351}, {"type": "node", "id": 7258783368, "lat": 37.2866185, "lon": -107.8761798}, {"type": "node", "id": 7258783369, "lat": 37.2865927, "lon": -107.8760578}, {"type": "node", "id": 7258783370, "lat": 37.2866391, "lon": -107.8760423}, {"type": "node", "id": 7258783371, "lat": 37.2865671, "lon": -107.8757021}, {"type": "node", "id": 7258783372, "lat": 37.2866543, "lon": -107.875673}, {"type": "node", "id": 7258787603, "lat": 37.2711984, "lon": -107.8795218}, {"type": "node", "id": 7258787605, "lat": 37.2713711, "lon": -107.8798241}, {"type": "node", "id": 7258787606, "lat": 37.2712713, "lon": -107.8798583}, {"type": "node", "id": 7258787608, "lat": 37.2712983, "lon": -107.8794877}, {"type": "node", "id": 7258787960, "lat": 37.295213, "lon": -107.873325}, {"type": "node", "id": 7258787961, "lat": 37.295264, "lon": -107.87356}, {"type": "node", "id": 7258787962, "lat": 37.295349, "lon": -107.873531}, {"type": "node", "id": 7258787963, "lat": 37.295298, "lon": -107.873296}, {"type": "node", "id": 7258788485, "lat": 37.280284, "lon": -107.87859}, {"type": "node", "id": 7258788498, "lat": 37.280327, "lon": -107.878802}, {"type": "node", "id": 7258788500, "lat": 37.280393, "lon": -107.878781}, {"type": "node", "id": 7258788502, "lat": 37.28035, "lon": -107.878569}, {"type": "node", "id": 7258789285, "lat": 37.267772, "lon": -107.881394}, {"type": "node", "id": 7258789286, "lat": 37.267424, "lon": -107.881416}, {"type": "node", "id": 7258789287, "lat": 37.267445, "lon": -107.881355}, {"type": "node", "id": 7258789294, "lat": 37.26777, "lon": -107.881656}, {"type": "node", "id": 7258789295, "lat": 37.267434, "lon": -107.881472}, {"type": "node", "id": 7258789296, "lat": 37.267802, "lon": -107.881562}, {"type": "node", "id": 7258790061, "lat": 37.250454, "lon": -107.869265}, {"type": "node", "id": 7258790067, "lat": 37.25054, "lon": -107.869293}, {"type": "node", "id": 7258790068, "lat": 37.250491, "lon": -107.869093}, {"type": "node", "id": 7258790069, "lat": 37.250577, "lon": -107.869122}, {"type": "node", "id": 7258790841, "lat": 37.2967151, "lon": -107.8722842}, {"type": "node", "id": 7258790842, "lat": 37.2965869, "lon": -107.871848}, {"type": "node", "id": 7258790848, "lat": 37.296499, "lon": -107.871878}, {"type": "node", "id": 7258790849, "lat": 37.296587, "lon": -107.872257}, {"type": "node", "id": 7258790851, "lat": 37.2964958, "lon": -107.8723001}, {"type": "node", "id": 7258790852, "lat": 37.2965172, "lon": -107.8723714}, {"type": "node", "id": 7258791049, "lat": 37.2682653, "lon": -107.881122}, {"type": "node", "id": 7258791051, "lat": 37.268321, "lon": -107.881107}, {"type": "node", "id": 7258791058, "lat": 37.2684251, "lon": -107.8815384}, {"type": "node", "id": 7258791059, "lat": 37.2683569, "lon": -107.8815563}, {"type": "node", "id": 7258791187, "lat": 37.297685, "lon": -107.871554}, {"type": "node", "id": 7258791188, "lat": 37.29755, "lon": -107.871598}, {"type": "node", "id": 7258791189, "lat": 37.297621, "lon": -107.871944}, {"type": "node", "id": 7258791203, "lat": 37.297756, "lon": -107.8719}, {"type": "node", "id": 7258793826, "lat": 37.285758, "lon": -107.8759888}, {"type": "node", "id": 7258793829, "lat": 37.2852366, "lon": -107.8761548}, {"type": "node", "id": 7258793832, "lat": 37.2853234, "lon": -107.8765918}, {"type": "node", "id": 7258793912, "lat": 37.2857162, "lon": -107.8760629}, {"type": "node", "id": 7258793917, "lat": 37.2858412, "lon": -107.8764118}, {"type": "node", "id": 7258793922, "lat": 37.2854831, "lon": -107.8765418}, {"type": "node", "id": 7258793925, "lat": 37.2854656, "lon": -107.8764538}, {"type": "node", "id": 7258793927, "lat": 37.2853856, "lon": -107.8764788}, {"type": "node", "id": 7258793929, "lat": 37.2853308, "lon": -107.8762051}, {"type": "node", "id": 7258798937, "lat": 37.2448486, "lon": -107.874302}, {"type": "node", "id": 7258798938, "lat": 37.2448612, "lon": -107.8742646}, {"type": "node", "id": 7258798940, "lat": 37.2448322, "lon": -107.8743611}, {"type": "node", "id": 7258798941, "lat": 37.2495502, "lon": -107.8761363}, {"type": "node", "id": 7258798942, "lat": 37.2495422, "lon": -107.8761763}, {"type": "node", "id": 7258798943, "lat": 37.2490402, "lon": -107.8761928}, {"type": "node", "id": 7258798944, "lat": 37.2490892, "lon": -107.8759893}, {"type": "node", "id": 7258798947, "lat": 37.2454352, "lon": -107.8744158}, {"type": "node", "id": 7258798948, "lat": 37.245426, "lon": -107.874472}, {"type": "node", "id": 7258798949, "lat": 37.2448749, "lon": -107.874188}, {"type": "node", "id": 7258798950, "lat": 37.245414, "lon": -107.87441}, {"type": "node", "id": 7258798951, "lat": 37.2499374, "lon": -107.8763236}, {"type": "node", "id": 7258798952, "lat": 37.2498666, "lon": -107.8765279}, {"type": "node", "id": 7737846101, "lat": 37.2385786, "lon": -107.8692734}, {"type": "node", "id": 7737846102, "lat": 37.2385768, "lon": -107.8692655}, {"type": "node", "id": 7737846103, "lat": 37.2384171, "lon": -107.8693169}, {"type": "node", "id": 7737846104, "lat": 37.2383404, "lon": -107.8691104}, {"type": "node", "id": 7737846105, "lat": 37.2381773, "lon": -107.8691746}, {"type": "node", "id": 7737846106, "lat": 37.2383845, "lon": -107.8699578}, {"type": "node", "id": 7737846107, "lat": 37.2384503, "lon": -107.8695673}, {"type": "node", "id": 7737846108, "lat": 37.2386464, "lon": -107.8692543}, {"type": "node", "id": 8390933887, "lat": 37.2676193, "lon": -107.8810702}, {"type": "node", "id": 8390933888, "lat": 37.2674746, "lon": -107.8811198}, {"type": "node", "id": 8390933889, "lat": 37.2674484, "lon": -107.8810151}, {"type": "node", "id": 8390933890, "lat": 37.2673266, "lon": -107.8810578}, {"type": "node", "id": 8390933891, "lat": 37.267345, "lon": -107.8811627}, {"type": "node", "id": 8390933892, "lat": 37.2671954, "lon": -107.8812073}, {"type": "node", "id": 8390933893, "lat": 37.2671324, "lon": -107.8809438}, {"type": "node", "id": 8390933894, "lat": 37.2671618, "lon": -107.8809355}, {"type": "node", "id": 8390933895, "lat": 37.2671679, "lon": -107.8809594}, {"type": "node", "id": 8390933896, "lat": 37.2671992, "lon": -107.8809474}, {"type": "node", "id": 8390933897, "lat": 37.2671665, "lon": -107.8807842}, {"type": "node", "id": 8390933898, "lat": 37.2671432, "lon": -107.8807949}, {"type": "node", "id": 8390933899, "lat": 37.2671353, "lon": -107.880756}, {"type": "node", "id": 8390933900, "lat": 37.267168, "lon": -107.8807432}, {"type": "node", "id": 8390933901, "lat": 37.2671498, "lon": -107.8806716}, {"type": "node", "id": 8390933902, "lat": 37.2674519, "lon": -107.8805774}, {"type": "node", "id": 8390933903, "lat": 37.2675113, "lon": -107.8808542}, {"type": "node", "id": 8390933904, "lat": 37.2675683, "lon": -107.8808353}, {"type": "node", "id": 8487883954, "lat": 37.2392081, "lon": -107.8722342}, {"type": "node", "id": 8487883955, "lat": 37.239742, "lon": -107.8724625}, {"type": "node", "id": 8487883956, "lat": 37.2400168, "lon": -107.8725758}, {"type": "node", "id": 8487883957, "lat": 37.2400632, "lon": -107.8724183}, {"type": "node", "id": 8487883958, "lat": 37.2400322, "lon": -107.8723988}, {"type": "node", "id": 8487883959, "lat": 37.2400731, "lon": -107.8722271}, {"type": "node", "id": 8487883960, "lat": 37.2400492, "lon": -107.8722024}, {"type": "node", "id": 8487883961, "lat": 37.2398026, "lon": -107.8720927}, {"type": "node", "id": 8487883962, "lat": 37.2397561, "lon": -107.8722236}, {"type": "node", "id": 8487883963, "lat": 37.2398477, "lon": -107.8722643}, {"type": "node", "id": 8487883964, "lat": 37.2398421, "lon": -107.8722802}, {"type": "node", "id": 8487883965, "lat": 37.2396462, "lon": -107.8721917}, {"type": "node", "id": 8487883966, "lat": 37.239356, "lon": -107.8720431}, {"type": "node", "id": 8487883967, "lat": 37.2393462, "lon": -107.8720696}, {"type": "node", "id": 8487883968, "lat": 37.2392616, "lon": -107.8720431}, {"type": "node", "id": 8498408430, "lat": 37.2700818, "lon": -107.8917849}, {"type": "node", "id": 8498408431, "lat": 37.2698726, "lon": -107.8917741}, {"type": "node", "id": 8498408432, "lat": 37.2698619, "lon": -107.8917312}, {"type": "node", "id": 8498408433, "lat": 37.2698192, "lon": -107.8917259}, {"type": "node", "id": 8498408434, "lat": 37.269832, "lon": -107.8914308}, {"type": "node", "id": 8498408435, "lat": 37.2698705, "lon": -107.8914281}, {"type": "node", "id": 8498408436, "lat": 37.2698833, "lon": -107.8908032}, {"type": "node", "id": 8498408437, "lat": 37.2700284, "lon": -107.8908005}, {"type": "node", "id": 8498408438, "lat": 37.2701117, "lon": -107.8908005}, {"type": "node", "id": 8498408439, "lat": 37.2701031, "lon": -107.891227}, {"type": "node", "id": 8498408440, "lat": 37.2701181, "lon": -107.8913584}, {"type": "node", "id": 8498408441, "lat": 37.2701159, "lon": -107.8914925}, {"type": "node", "id": 8498408442, "lat": 37.2701074, "lon": -107.8915864}, {"type": "node", "id": 8498408443, "lat": 37.2700903, "lon": -107.8917366}, {"type": "node", "id": 8498701886, "lat": 37.3042448, "lon": -107.8688916}, {"type": "node", "id": 8498701887, "lat": 37.3043668, "lon": -107.8690883}, {"type": "node", "id": 8498701888, "lat": 37.3046754, "lon": -107.8688122}, {"type": "node", "id": 8498701889, "lat": 37.3046366, "lon": -107.8687383}, {"type": "node", "id": 8498701890, "lat": 37.304651, "lon": -107.868722}, {"type": "node", "id": 8498701891, "lat": 37.3045146, "lon": -107.868473}, {"type": "node", "id": 8498701892, "lat": 37.3044084, "lon": -107.8685434}, {"type": "node", "id": 8498701893, "lat": 37.3043639, "lon": -107.8685109}, {"type": "node", "id": 8498701894, "lat": 37.3042965, "lon": -107.8685777}, {"type": "node", "id": 8498701895, "lat": 37.3043525, "lon": -107.8686643}, {"type": "node", "id": 8498701896, "lat": 37.3044587, "lon": -107.8685542}, {"type": "node", "id": 8498701897, "lat": 37.3045692, "lon": -107.8687707}, {"type": "node", "id": 8498701898, "lat": 37.304562, "lon": -107.8687978}, {"type": "node", "id": 8498701899, "lat": 37.304384, "lon": -107.868944}, {"type": "node", "id": 8498701900, "lat": 37.3043194, "lon": -107.8688122}, {"type": "node", "id": 8498711330, "lat": 37.3013589, "lon": -107.8707658}, {"type": "node", "id": 8498711331, "lat": 37.3014426, "lon": -107.8707229}, {"type": "node", "id": 8498711332, "lat": 37.301533, "lon": -107.8710855}, {"type": "node", "id": 8498711333, "lat": 37.3021031, "lon": -107.8708581}, {"type": "node", "id": 8498711334, "lat": 37.3020076, "lon": -107.870489}, {"type": "node", "id": 8498711335, "lat": 37.3020912, "lon": -107.8704482}, {"type": "node", "id": 8498711336, "lat": 37.3022124, "lon": -107.8709375}, {"type": "node", "id": 8498711337, "lat": 37.3014835, "lon": -107.8712422}, {"type": "node", "id": 8498739364, "lat": 37.296983, "lon": -107.8721152}, {"type": "node", "id": 8498739365, "lat": 37.2970106, "lon": -107.8722121}, {"type": "node", "id": 8498739366, "lat": 37.2971532, "lon": -107.8721483}, {"type": "node", "id": 8498739367, "lat": 37.2971685, "lon": -107.8720947}, {"type": "node", "id": 8498739368, "lat": 37.2970977, "lon": -107.8718456}, {"type": "node", "id": 8498739369, "lat": 37.2970079, "lon": -107.871886}, {"type": "node", "id": 8498739370, "lat": 37.297063, "lon": -107.8720792}, {"type": "node", "id": 8498739989, "lat": 37.2966213, "lon": -107.8723299}, {"type": "node", "id": 8498739990, "lat": 37.2966467, "lon": -107.8720543}, {"type": "node", "id": 8498754913, "lat": 37.2701854, "lon": -107.882378}, {"type": "node", "id": 8498754915, "lat": 37.2698861, "lon": -107.8820151}, {"type": "node", "id": 8498754916, "lat": 37.2700894, "lon": -107.881944}, {"type": "node", "id": 8498806145, "lat": 37.245094, "lon": -107.8744771}, {"type": "node", "id": 8498840047, "lat": 37.2385169, "lon": -107.8695419}, {"type": "node", "id": 8498840048, "lat": 37.2385236, "lon": -107.8695542}, {"type": "node", "id": 8498840049, "lat": 37.2386304, "lon": -107.8695189}, {"type": "node", "id": 8498840050, "lat": 37.2386307, "lon": -107.8694998}, {"type": "node", "id": 8498840051, "lat": 37.2386487, "lon": -107.8692681}, {"type": "node", "id": 8498840052, "lat": 37.2386905, "lon": -107.8692551}, {"type": "node", "id": 8498840053, "lat": 37.238727, "lon": -107.8694234}, {"type": "node", "id": 8498840054, "lat": 37.238715, "lon": -107.8694353}, {"type": "node", "id": 8498840055, "lat": 37.2387075, "lon": -107.8694597}, {"type": "node", "id": 8498840056, "lat": 37.2386929, "lon": -107.8694672}, {"type": "node", "id": 8498840057, "lat": 37.238685, "lon": -107.8694906}, {"type": "node", "id": 8498840058, "lat": 37.2384667, "lon": -107.8696789}, {"type": "node", "id": 8498840059, "lat": 37.2384823, "lon": -107.8696788}, {"type": "node", "id": 8498840060, "lat": 37.2385114, "lon": -107.8698115}, {"type": "node", "id": 8498840061, "lat": 37.2385011, "lon": -107.8698181}, {"type": "node", "id": 8498840062, "lat": 37.2385083, "lon": -107.8698634}, {"type": "node", "id": 8498840063, "lat": 37.2385052, "lon": -107.8699114}, {"type": "node", "id": 8498840064, "lat": 37.2383443, "lon": -107.8699457}, {"type": "node", "id": 8498840065, "lat": 37.2383381, "lon": -107.8699189}, {"type": "node", "id": 8498840066, "lat": 37.2383256, "lon": -107.8699209}, {"type": "node", "id": 8498840067, "lat": 37.2383207, "lon": -107.8698841}, {"type": "node", "id": 8498840068, "lat": 37.2383057, "lon": -107.869886}, {"type": "node", "id": 8498840069, "lat": 37.2382785, "lon": -107.8697524}, {"type": "node", "id": 8498840070, "lat": 37.2382894, "lon": -107.8697447}, {"type": "node", "id": 8498840071, "lat": 37.2382661, "lon": -107.8696408}, {"type": "node", "id": 8498840072, "lat": 37.2382287, "lon": -107.8696501}, {"type": "node", "id": 8498840073, "lat": 37.2382054, "lon": -107.8695306}, {"type": "node", "id": 8498840074, "lat": 37.2381869, "lon": -107.8695326}, {"type": "node", "id": 8498840075, "lat": 37.2381538, "lon": -107.8693867}, {"type": "node", "id": 8498840076, "lat": 37.238179, "lon": -107.8693732}, {"type": "node", "id": 8498840077, "lat": 37.2381659, "lon": -107.8693039}, {"type": "node", "id": 8498840078, "lat": 37.2381801, "lon": -107.8692942}, {"type": "node", "id": 8498840079, "lat": 37.2381621, "lon": -107.8691902}, {"type": "node", "id": 8498840080, "lat": 37.2381725, "lon": -107.8691385}, {"type": "node", "id": 8498840081, "lat": 37.2382967, "lon": -107.8690964}, {"type": "node", "id": 8498840082, "lat": 37.2383663, "lon": -107.8691141}, {"type": "node", "id": 8498840083, "lat": 37.238402, "lon": -107.869238}, {"type": "node", "id": 8498840084, "lat": 37.2383908, "lon": -107.8692335}, {"type": "node", "id": 8499888537, "lat": 37.2711336, "lon": -107.8902472}, {"type": "node", "id": 8499888538, "lat": 37.2712857, "lon": -107.8901049}, {"type": "node", "id": 8499888539, "lat": 37.2709589, "lon": -107.8895317}, {"type": "node", "id": 8499888540, "lat": 37.270836, "lon": -107.8896415}, {"type": "node", "id": 8499888541, "lat": 37.2709686, "lon": -107.8898935}, {"type": "node", "id": 8499888542, "lat": 37.2709622, "lon": -107.8899078}, {"type": "node", "id": 8499888543, "lat": 37.2709266, "lon": -107.8899342}, {"type": "node", "id": 8499888544, "lat": 37.2708392, "lon": -107.8897797}, {"type": "node", "id": 8499888545, "lat": 37.2707454, "lon": -107.889861}, {"type": "node", "id": 8499888546, "lat": 37.2708328, "lon": -107.8900257}, {"type": "node", "id": 8499888547, "lat": 37.2707858, "lon": -107.8900622}, {"type": "node", "id": 8499888548, "lat": 37.2708004, "lon": -107.8901009}, {"type": "node", "id": 8499888549, "lat": 37.2708522, "lon": -107.8901923}, {"type": "node", "id": 8499888550, "lat": 37.2708813, "lon": -107.8901862}, {"type": "node", "id": 8499888551, "lat": 37.2709088, "lon": -107.8902167}, {"type": "node", "id": 8499888552, "lat": 37.2709994, "lon": -107.8903712}, {"type": "node", "id": 8500617082, "lat": 37.2702142, "lon": -107.8891058}, {"type": "node", "id": 8500617083, "lat": 37.2702642, "lon": -107.8889638}, {"type": "node", "id": 8500617084, "lat": 37.2702382, "lon": -107.8889415}, {"type": "node", "id": 8500617085, "lat": 37.2702432, "lon": -107.8889152}, {"type": "node", "id": 8500617086, "lat": 37.2701824, "lon": -107.8888728}, {"type": "node", "id": 8500617087, "lat": 37.270172, "lon": -107.8888913}, {"type": "node", "id": 8500617088, "lat": 37.270145, "lon": -107.8888738}, {"type": "node", "id": 8500617089, "lat": 37.2701493, "lon": -107.8888423}, {"type": "node", "id": 8500617090, "lat": 37.2701247, "lon": -107.8888253}, {"type": "node", "id": 8500617091, "lat": 37.270025, "lon": -107.888768}, {"type": "node", "id": 8500617092, "lat": 37.2700073, "lon": -107.888805}, {"type": "node", "id": 8500617093, "lat": 37.269874, "lon": -107.8887177}, {"type": "node", "id": 8500617094, "lat": 37.2697124, "lon": -107.8886184}, {"type": "node", "id": 8500617095, "lat": 37.2697019, "lon": -107.8886585}, {"type": "node", "id": 8500617096, "lat": 37.2696498, "lon": -107.8886231}, {"type": "node", "id": 8500617097, "lat": 37.2695978, "lon": -107.8887748}, {"type": "node", "id": 8500617098, "lat": 37.2696498, "lon": -107.8888085}, {"type": "node", "id": 8500617099, "lat": 37.2696454, "lon": -107.8888332}, {"type": "node", "id": 8500617100, "lat": 37.2698476, "lon": -107.8889381}, {"type": "node", "id": 8500617101, "lat": 37.2698543, "lon": -107.8889194}, {"type": "node", "id": 8500617102, "lat": 37.2699417, "lon": -107.8889719}, {"type": "node", "id": 8500617103, "lat": 37.2699307, "lon": -107.8890077}, {"type": "node", "id": 8500617104, "lat": 37.2700773, "lon": -107.8890959}, {"type": "node", "id": 8500617105, "lat": 37.2700847, "lon": -107.8890595}, {"type": "node", "id": 8500617106, "lat": 37.2701857, "lon": -107.8891334}, {"type": "node", "id": 8500617107, "lat": 37.2701957, "lon": -107.8890987}, {"type": "node", "id": 8670883732, "lat": 37.3027708, "lon": -107.8698376}, {"type": "node", "id": 8670883733, "lat": 37.302374, "lon": -107.8701836}, {"type": "node", "id": 8670883734, "lat": 37.3026257, "lon": -107.8706638}, {"type": "node", "id": 8670883735, "lat": 37.3030418, "lon": -107.8703151}, {"type": "node", "id": 8670883736, "lat": 37.3030098, "lon": -107.8701729}, {"type": "node", "id": 8870147487, "lat": 37.2514246, "lon": -107.8769908}, {"type": "node", "id": 8870147490, "lat": 37.2513589, "lon": -107.877007}, {"type": "node", "id": 8870147491, "lat": 37.2514057, "lon": -107.8770371}, {"type": "node", "id": 8870147495, "lat": 37.2513778, "lon": -107.8769607}, {"type": "node", "id": 9023399014, "lat": 37.298205, "lon": -107.8481335, "tags": {"amenity": "restaurant", "cuisine": "sushi", "name": "Pop Sushi"}}, {"type": "node", "id": 9207108207, "lat": 37.2700806, "lon": -107.8824146}, {"type": "node", "id": 9207108208, "lat": 37.2700506, "lon": -107.882279}, {"type": "node", "id": 9207108209, "lat": 37.2699521, "lon": -107.8823134}, {"type": "node", "id": 9207616012, "lat": 37.2701723, "lon": -107.8823826}, {"type": "node", "id": 9207754208, "lat": 37.2683392, "lon": -107.8811835}, {"type": "node", "id": 9207754209, "lat": 37.2683564, "lon": -107.8811802}, {"type": "node", "id": 9207754211, "lat": 37.268386, "lon": -107.8813287}, {"type": "node", "id": 9207754213, "lat": 37.2686486, "lon": -107.880999}, {"type": "node", "id": 9207754214, "lat": 37.2686506, "lon": -107.8810211}, {"type": "node", "id": 9209258083, "lat": 37.2857928, "lon": -107.8764232}, {"type": "node", "id": 10171328799, "lat": 37.2854437, "lon": -107.8764607}, {"type": "node", "id": 10171328800, "lat": 37.2854473, "lon": -107.876553}, {"type": "node", "id": 10829983363, "lat": 37.2989997, "lon": -107.8718974, "tags": {"name": "Budget Inn", "tourism": "motel", "website": "http://www.budgetinndurango.us/"}}, {"type": "node", "id": 10829983364, "lat": 37.297559, "lon": -107.872572}, {"type": "node", "id": 10829983366, "lat": 37.2975151, "lon": -107.8724048}, {"type": "node", "id": 10829983367, "lat": 37.297406, "lon": -107.87245}, {"type": "node", "id": 10829983368, "lat": 37.2973995, "lon": -107.872425}, {"type": "node", "id": 10829983369, "lat": 37.2972385, "lon": -107.8724917}, {"type": "node", "id": 10829983370, "lat": 37.2972854, "lon": -107.8726706}, {"type": "node", "id": 10829983371, "lat": 37.2973277, "lon": -107.8726531}, {"type": "node", "id": 10829983372, "lat": 37.2973413, "lon": -107.8727052}, {"type": "node", "id": 10829983373, "lat": 37.2973908, "lon": -107.8726847}, {"type": "node", "id": 10829983374, "lat": 37.2973832, "lon": -107.8726555}, {"type": "node", "id": 10829983375, "lat": 37.2974099, "lon": -107.8726444}, {"type": "node", "id": 10829983376, "lat": 37.297416, "lon": -107.8726675}, {"type": "node", "id": 10829983377, "lat": 37.2974594, "lon": -107.8726496}, {"type": "node", "id": 10829983378, "lat": 37.2974509, "lon": -107.872617}, {"type": "node", "id": 10829983381, "lat": 37.2994318, "lon": -107.8719111, "tags": {"addr:unit": "1", "amenity": "cafe", "cuisine": "coffee_shop", "name": "81301 Coffee House and Roasters", "website": "https://81301coffee.com/"}}, {"type": "node", "id": 10848042942, "lat": 37.2758449, "lon": -107.8802867, "tags": {"amenity": "bar", "name": "11th Street Station"}}, {"type": "node", "id": 11043200657, "lat": 37.2787094, "lon": -107.8772437}, {"type": "node", "id": 11043200658, "lat": 37.2787289, "lon": -107.8773062}, {"type": "node", "id": 11043200659, "lat": 37.2786494, "lon": -107.8773412}, {"type": "node", "id": 11043200660, "lat": 37.2786467, "lon": -107.8773295}, {"type": "node", "id": 11043200661, "lat": 37.2785812, "lon": -107.8773576}, {"type": "node", "id": 11043200662, "lat": 37.2785621, "lon": -107.8772998}, {"type": "node", "id": 11057700784, "lat": 37.2689485, "lon": -107.8824301, "tags": {"amenity": "cafe", "check_date": "2023-07-20", "cuisine": "coffee_shop", "name": "The Train Store and Caboose Coffee Shop", "shop": "gift"}}, {"type": "node", "id": 11057737775, "lat": 37.2718285, "lon": -107.8814833, "tags": {"addr:housenumber": "741", "addr:street": "Main Avenue", "amenity": "restaurant", "check_date": "2023-07-20", "cuisine": "mexican", "name": "Switchback (Tacos, Bar, Patio)"}}, {"type": "node", "id": 11057811009, "lat": 37.2704578, "lon": -107.8818563, "tags": {"addr:housenumber": "619", "addr:street": "Main Avenue", "amenity": "cafe", "check_date": "2023-07-20", "name": "Lone Spur Cafe"}}, {"type": "node", "id": 11057811011, "lat": 37.2717043, "lon": -107.8815564, "tags": {"addr:housenumber": "725", "addr:street": "Main Avenue", "amenity": "pub", "check_date": "2023-07-20", "name": "Derailed Pour House"}}, {"type": "node", "id": 11057813331, "lat": 37.2739793, "lon": -107.8807208, "tags": {"addr:housenumber": "937", "addr:street": "Main Avenue", "amenity": "bar", "check_date": "2023-07-20", "name": "Starlight Lounge", "smoking": "outside"}}, {"type": "node", "id": 11057813335, "lat": 37.2782526, "lon": -107.8787549, "tags": {"amenity": "restaurant", "brand": "Pizza Hut", "brand:wikidata": "Q191615", "check_date": "2023-07-20", "cuisine": "pizza", "name": "Pizza Hut"}}, {"type": "way", "id": 172399299, "nodes": [7255954423, 1833062189, 1833062190, 1833062195, 1833062196, 2945313937, 2945313430, 1833062200, 1833062201, 1833062206, 1833062205, 1833062199, 1833062198, 1833062194, 7255954423], "tags": {"addr:housenumber": "501", "addr:street": "Camino del Rio", "brand": "DoubleTree", "brand:wikidata": "Q2504643", "building": "yes", "name": "DoubleTree", "official_name": "DoubleTree by Hilton", "short_name": "DoubleTree", "tourism": "hotel"}}, {"type": "way", "id": 300160137, "nodes": [1301314961, 3042563705, 3042563706, 3042563707, 1301314961], "tags": {"amenity": "pub", "building": "yes", "indoor_seating": "yes", "microbrewery": "yes", "name": "Steamworks Brewing Company", "opening_hours": "Su-Th 11:00-23:00; Fr,Sa 11:00-24:00", "outdoor_seating": "yes"}}, {"type": "way", "id": 300166793, "nodes": [3042654278, 3042654279, 3042654280, 3042654281, 3042654282, 3042654283, 3042654284, 3042654285, 3042654286, 3042654278], "tags": {"addr:housenumber": "699", "addr:street": "Main Avenue", "building": "yes", "name": "Strater Hotel", "tourism": "hotel"}}, {"type": "way", "id": 733459323, "nodes": [6868810418, 6868810416, 6868810415, 6868810417, 6868810448, 6868810446, 6868810445, 6868810443, 6868810444, 6868810447, 6868810432, 6868810437, 6868810436, 6868810433, 6868810431, 6868810439, 6868810438, 6868810423, 6868810441, 6868810428, 6868810424, 6868810454, 6868810451, 6868810425, 6868810450, 6868810449, 6868810427, 6868810452, 6868810453, 6868810426, 6868810429, 6868810440, 6868810442, 6868810430, 6868810435, 6868810434, 6868810418], "tags": {"building": "yes", "name": "La Quinta", "tourism": "hotel"}}, {"type": "way", "id": 777773391, "nodes": [7258552996, 7258552993, 7258552994, 7258552997, 7258552996], "tags": {"building": "yes", "name": "Iron Horse Inn", "tourism": "motel"}}, {"type": "way", "id": 777773517, "nodes": [7258553596, 7258553595, 7258553594, 7258553591, 7258553596], "tags": {"building": "yes", "check_date": "2023-07-20", "name": "Spanish Trails Inn and Suites", "tourism": "motel"}}, {"type": "way", "id": 777773737, "nodes": [7258555276, 7258530948, 7258555343, 7258555278, 7258555276], "tags": {"building": "yes", "tourism": "motel"}}, {"type": "way", "id": 777789574, "nodes": [1301314938, 7258778155, 7258778153, 7258778089, 1301314938], "tags": {"amenity": "restaurant", "building": "yes", "cuisine": "deli;sushi", "name": "2nd Deli & Spirits"}}, {"type": "way", "id": 777789871, "nodes": [4706767180, 7258770712, 7258770701, 7258770704, 4706767180], "tags": {"amenity": "cafe", "building": "yes", "indoor_seating": "yes", "name": "Doughworks", "opening_hours": "Mo-Su 07:00-13:00", "outdoor_seating": "no", "payment:credit_cards": "yes", "payment:debit_cards": "yes"}}, {"type": "way", "id": 777790440, "nodes": [7258781424, 7258781411, 7258781409, 7258781410, 7258781424], "tags": {"addr:city": "Durango", "addr:country": "US", "addr:housenumber": "1111", "addr:postcode": "81301", "addr:state": "CO", "addr:street": "Camino del Rio", "brand": "Holiday Inn Express", "brand:wikidata": "Q5880423", "breakfast": "yes", "building": "yes", "fitness_centre": "yes", "fixme": "Imported, please verify tags", "internet_access": "wlan", "internet_access:fee": "customers", "large_vehicles": "unknown", "name": "Holiday Inn Express Durango", "pets_allowed": "yes", "phone": "+1-970-422-8700", "swimming_pool": "yes", "tourism": "hotel", "website": "https://www.ihg.com/holidayinnexpress/hotels/us/en/durango/drocd/hoteldetail"}}, {"type": "way", "id": 777790476, "nodes": [7255948233, 7258781602, 7258781594, 7258781595, 7258781596, 7258781597, 7255948233], "tags": {"addr:housenumber": "1301", "addr:street": "Florida Road", "amenity": "bar", "building": "yes", "name": "J Bo Pizza"}}, {"type": "way", "id": 777790763, "nodes": [7258783298, 7258783303, 7258783304, 9207754214, 9207754213, 7258783293, 7258783294, 7258783291, 7258783292, 7258783297, 7258783298], "tags": {"building": "yes", "name": "Durango Lodge", "tourism": "motel"}}, {"type": "way", "id": 777790776, "nodes": [7255951373, 7258783365, 7258783366, 7258783360, 7258783361, 7258783362, 7258783363, 7258783357, 7258783358, 7258783359, 7255951373], "tags": {"addr:city": "Durango", "addr:housenumber": "3030", "addr:postcode": "81301", "addr:state": "CO", "addr:street": "Main Avenue", "brand": "Days Inn", "brand:wikidata": "Q1047239", "building": "yes", "name": "Days Inn by Wyndham Durango", "tourism": "hotel", "website": "https://www.wyndhamhotels.com/days-inn/durango-colorado/days-inn-durango/overview"}}, {"type": "way", "id": 777790781, "nodes": [7258783371, 7258783372, 7258783367, 7258783368, 7258783369, 7258783370, 7258783371], "tags": {"addr:city": "Durango", "addr:housenumber": "2178", "addr:postcode": "81301", "addr:state": "CO", "addr:street": "Main Avenue", "building": "yes", "name": "Adobe Inn", "tourism": "motel"}}, {"type": "way", "id": 777791677, "nodes": [7258787606, 7258787603, 7258787608, 7258787605, 7258787606], "tags": {"addr:city": "Durango", "addr:housenumber": "726", "addr:postcode": "81301", "addr:state": "CO", "addr:street": "East 2nd Avenue", "building": "yes", "name": "Rochester Hotel", "tourism": "hotel", "website": "https://rochesterhotel.com/"}}, {"type": "way", "id": 777791750, "nodes": [7258787963, 7258787962, 7258787961, 7258787960, 7258787963], "tags": {"addr:city": "Durango", "addr:housenumber": "2817", "addr:postcode": "81301", "addr:state": "CO", "addr:street": "Main Avenue", "amenity": "cafe", "brand": "Starbucks", "brand:wikidata": "Q37158", "building": "yes", "cuisine": "coffee_shop", "name": "Starbucks", "official_name": "Starbucks Coffee", "takeaway": "yes"}}, {"type": "way", "id": 777791789, "nodes": [7258788485, 7258788502, 7258788500, 7258788498, 7258788485], "tags": {"addr:city": "Durango", "addr:housenumber": "1525", "addr:postcode": "81301", "addr:state": "CO", "addr:street": "Main Avenue", "amenity": "restaurant", "building": "yes", "name": "China Cafe"}}, {"type": "way", "id": 777791966, "nodes": [7258789285, 7258789296, 7258789294, 7258789295, 7258789286, 7258789287, 7258724784, 7258789285], "tags": {"addr:city": "Durango", "addr:housenumber": "401", "addr:postcode": "81301", "addr:state": "CO", "addr:street": "East 2nd Avenue", "building": "yes", "name": "Club Wyndham Durango", "tourism": "hotel"}}, {"type": "way", "id": 777792135, "nodes": [7258790067, 7258790061, 7258790068, 7258790069, 7258790067], "tags": {"addr:city": "Durango", "addr:housenumber": "955", "addr:postcode": "81301", "addr:state": "CO", "addr:street": "CO-3", "amenity": "restaurant", "building": "yes", "name": "Highway 3 Roadhouse & Oyster Bar"}}, {"type": "way", "id": 777792281, "nodes": [7258790842, 8498739990, 7258790841, 8498739989, 7258790852, 7258790851, 7258790849, 7258790848, 7258790842], "tags": {"brand": "Quality Inn", "brand:wikidata": "Q113152195", "building": "yes", "name": "Quality Inn Durango", "tourism": "hotel"}}, {"type": "way", "id": 777792337, "nodes": [7258791049, 7258791051, 9207754208, 9207754209, 9207754211, 7258791058, 7258791059, 7258791049], "tags": {"addr:city": "Durango", "addr:housenumber": "431", "addr:postcode": "81301", "addr:state": "CO", "addr:street": "East 2nd Avenue", "amenity": "restaurant", "building": "yes", "cuisine": "mexican", "name": "Gazpacho Restaurant"}}, {"type": "way", "id": 777792371, "nodes": [7258791203, 7258791189, 7258791188, 7258791187, 7258791203], "tags": {"addr:city": "Durango", "addr:housenumber": "3000", "addr:postcode": "81301", "addr:state": "CO", "addr:street": "Main Avenue", "amenity": "pub", "building": "yes", "microbrewery": "yes", "name": "Durango Beer & Ice Company & High Trestle Brewing Company"}}, {"type": "way", "id": 777792922, "nodes": [7258793826, 7258793917, 9209258083, 7258793912, 7258793929, 7258793927, 10171328799, 7258793925, 7258793922, 10171328800, 7258793832, 7258793829, 7258793826], "tags": {"brand": "Econo Lodge", "brand:wikidata": "Q5333330", "building": "yes", "building:levels": "2", "check_date": "2023-04-27", "internet_access": "wlan", "internet_access:fee": "no", "internet_access:ssid": "Econo Lodge", "name": "EconoLodge Inn & Suites - Durango", "payment:cash": "yes", "payment:credit_cards": "yes", "rooms": "43", "smoking": "no", "tourism": "motel"}}, {"type": "way", "id": 777793949, "nodes": [7258798942, 7258798951, 7258798952, 7258798943, 7258798944, 7258798941, 7258798942], "tags": {"building": "yes", "name": "Comfort Inn and Suites Durango", "tourism": "hotel"}}, {"type": "way", "id": 777793950, "nodes": [7255951208, 8498806145, 7258798940, 7258798937, 7258798938, 7258798949, 7258798950, 7258798947, 7258798948, 7255951208], "tags": {"addr:city": "Durango", "addr:housenumber": "20", "addr:postcode": "81303", "addr:state": "CO", "addr:street": "Stewart Street", "building": "yes", "name": "Super 8 by Wyndham Durango", "tourism": "hotel", "website": "https://www.wyndhamhotels.com/super-8/durango-colorado/super-8-durango-purgatory/overview"}}, {"type": "way", "id": 828921995, "nodes": [7737846101, 7737846102, 7737846103, 8498840083, 8498840084, 8498840082, 7737846104, 8498840081, 8498840080, 7737846105, 8498840079, 8498840078, 8498840077, 8498840076, 8498840075, 8498840074, 8498840073, 8498840072, 8498840071, 8498840070, 8498840069, 8498840068, 8498840067, 8498840066, 8498840065, 8498840064, 7737846106, 8498840063, 8498840062, 8498840061, 8498840060, 8498840059, 8498840058, 7737846107, 8498840047, 8498840048, 8498840049, 8498840050, 8498840057, 8498840056, 8498840055, 8498840054, 8498840053, 8498840052, 8498840051, 7737846108, 7737846101], "tags": {"addr:city": "Durango", "addr:housenumber": "77", "addr:postcode": "81301", "addr:state": "CO", "addr:street": "Mercury Village Drive", "building": "yes", "name": "SpringHill Suites by Durango", "tourism": "hotel"}}, {"type": "way", "id": 903441347, "nodes": [8390933887, 8390933888, 8390933889, 8390933890, 8390933891, 8390933892, 8390933893, 8390933894, 8390933895, 8390933896, 8390933897, 8390933898, 8390933899, 8390933900, 8390933901, 8390933902, 8390933903, 8390933904, 8390933887], "tags": {"addr:city": "Durango", "addr:housenumber": "400", "addr:postcode": "81301", "addr:state": "CO", "addr:street": "East 2nd Avenue", "brand": "Best Western", "brand:wikidata": "Q830334", "building": "yes", "name": "Best Western Rio Grande Inn", "tourism": "hotel", "website": "http://www.bwriograndeinn.com"}}, {"type": "way", "id": 913728634, "nodes": [8487883954, 8487883955, 8487883956, 8487883957, 8487883958, 8487883959, 8487883960, 8487883961, 8487883962, 8487883963, 8487883964, 8487883965, 8487883966, 8487883967, 8487883968, 8487883954], "tags": {"building": "yes", "name": "Homewood Suites by Hilton Durango", "tourism": "hotel"}}, {"type": "way", "id": 914871919, "nodes": [8498408430, 8498408431, 8498408432, 8498408433, 8498408434, 8498408435, 8498408436, 8498408437, 8498408438, 8498408439, 8498408440, 8498408441, 8498408442, 8498408443, 8498408430], "tags": {"addr:city": "Durango", "addr:housenumber": "21636", "addr:postcode": "81301", "addr:state": "CO", "addr:street": "US-160", "brand": "Holiday Inn", "brand:wikidata": "Q2717882", "building": "yes", "internet_access": "yes", "name": "Holiday Inn & Suites Durango Central", "tourism": "hotel"}}, {"type": "way", "id": 914901287, "nodes": [8498701886, 8498701887, 8498701888, 8498701889, 8498701890, 8498701891, 8498701892, 8498701893, 8498701894, 8498701895, 8498701896, 8498701897, 8498701898, 8498701899, 8498701900, 8498701886], "tags": {"building": "yes", "internet_access": "wlan", "name": "Adventure Inn Durango", "tourism": "motel"}}, {"type": "way", "id": 914902225, "nodes": [8498711330, 8498711331, 8498711332, 8498711333, 8498711334, 8498711335, 8498711336, 8498711337, 8498711330], "tags": {"building": "yes", "name": "BEST WESTERN Mountain Shadows", "tourism": "motel"}}, {"type": "way", "id": 914904776, "nodes": [8498739364, 8498739365, 8498739366, 8498739367, 8498739368, 8498739369, 8498739370, 8498739364], "tags": {"brand": "Travelodge", "brand:wikidata": "Q7836087", "building": "yes", "name": "Travelodge Durango", "tourism": "hotel"}}, {"type": "way", "id": 914908346, "nodes": [8498754913, 9207616012, 9207108207, 9207108208, 9207108209, 8498754915, 8498754916, 8498754913], "tags": {"building": "yes", "name": "The General Palmer Hotel", "tourism": "hotel"}}, {"type": "way", "id": 915030819, "nodes": [8499888537, 8499888538, 8499888539, 8499888540, 8499888541, 8499888542, 8499888543, 8499888544, 8499888545, 8499888546, 8499888547, 8499888548, 8499888549, 8499888550, 8499888551, 8499888552, 8499888537], "tags": {"brand": "Residence Inn", "brand:wikidata": "Q7315394", "building": "yes", "name": "Residence Inn by Marriott Durango", "tourism": "hotel"}}, {"type": "way", "id": 915120080, "nodes": [8500617082, 8500617083, 8500617084, 8500617085, 8500617086, 8500617087, 8500617088, 8500617089, 8500617090, 8500617091, 8500617092, 8500617093, 8500617094, 8500617095, 8500617096, 8500617097, 8500617098, 8500617099, 8500617100, 8500617101, 8500617102, 8500617103, 8500617104, 8500617105, 8500617106, 8500617107, 8500617082], "tags": {"addr:city": "Durango", "addr:housenumber": "21719", "addr:postcode": "81301", "addr:state": "CO", "addr:street": "West Us Highway 160", "brand": "Fairfield Inn & Suites", "brand:wikidata": "Q5430314", "building": "yes", "name": "Fairfield Inn & Suites Durango", "tourism": "hotel"}}, {"type": "way", "id": 935701037, "nodes": [8670883732, 8670883733, 8670883734, 8670883735, 8670883736, 8670883732], "tags": {"addr:city": "Durango", "addr:housenumber": "3363", "addr:postcode": "81301", "addr:state": "CO", "addr:street": "Main Avenue", "name": "Caboose Motel", "tourism": "motel"}}, {"type": "way", "id": 958671236, "nodes": [8870147491, 8870147487, 8870147495, 8870147490, 8870147491], "tags": {"addr:city": "Durango", "addr:country": "US", "addr:housenumber": "331", "addr:state": "CO", "addr:street": "Frontage Road", "amenity": "restaurant", "building": "yes", "cuisine": "coffee_shop", "name": "Durango Joes Coffee"}}, {"type": "way", "id": 1164477287, "nodes": [10829983364, 10829983366, 10829983367, 10829983368, 10829983369, 10829983370, 10829983371, 10829983372, 10829983373, 10829983374, 10829983375, 10829983376, 10829983377, 10829983378, 10829983364], "tags": {"addr:housenumber": "2977", "addr:street": "Main Avenue", "amenity": "restaurant", "building": "yes", "cuisine": "mexican", "name": "Zia Taqueria", "website": "https://ziataqueria.com/"}}, {"type": "way", "id": 1189281579, "nodes": [11043200657, 11043200658, 11043200659, 11043200660, 11043200661, 11043200662, 11043200657], "tags": {"addr:city": "Durango", "addr:housenumber": "1400", "addr:postcode": "81301", "addr:state": "CO", "addr:street": "East 2nd Avenue", "amenity": "restaurant", "building": "yes", "name": "Famburger"}}]}