{"version": 0.6, "generator": "Overpass API 0.7.62.1 084b4234", "osm3s": {"timestamp_osm_base": "2024-05-03T13:23:11Z", "copyright": "The data included in this document is from www.openstreetmap.org. The data is made available under ODbL."}, "elements": [{"type": "node", "id": 686572532, "lat": 35.7201803, "lon": -79.1779951, "tags": {"addr:city": "Pittsboro", "addr:housename": "Pittsboro Roadhouse", "addr:housenumber": "39", "addr:postcode": "27312", "addr:state": "NC", "addr:street": "West Street", "amenity": "restaurant", "name": "Pittsboro Roadhouse and General Store", "opening_hours": "Mo-Th 11:00-21:00; Fr-Sa 11:00-22:00", "phone": "(919)-542-2432", "website": "https://pittsbororoadhouse.com/"}}, {"type": "node", "id": 1775722555, "lat": 35.7206939, "lon": -79.1812008, "tags": {"addr:city": "Pittsboro", "addr:housename": "Angelina's Kitchen", "addr:housenumber": "23", "addr:postcode": "27312", "addr:state": "NC", "addr:street": "Rectory Street", "addr:unit": "B", "amenity": "restaurant", "name": "West End Restaurant", "opening_hours": "Mo-We 11:00-07:00, Th-Fr 11:00-08:00, Sa 11:00-04:00", "phone": "(919)-545-5505", "source:addr": "Chatham County GIS"}}, {"type": "node", "id": 2626207566, "lat": 35.7187637, "lon": -79.1667297, "tags": {"addr:city": "Pittsboro", "addr:housename": "San Felipe", "addr:housenumber": "630", "addr:postcode": "27312", "addr:state": "NC", "addr:street": "East Street", "addr:unit": "4", "amenity": "restaurant", "cuisine": "mexican", "name": "San Felipe Mexican Restaurante", "opening_hours": "Mo-Sa 11:00-22:00; Su 12:00-21:00", "phone": "(919) 542-1008", "source:addr": "Chatham County GIS", "website": "https://www.sanfelipenc.com/"}}, {"type": "node", "id": 2626207571, "lat": 35.744289, "lon": -79.1662358, "tags": {"addr:city": "Pittsboro", "addr:housenumber": "90", "addr:postcode": "27312", "addr:state": "NC", "addr:street": "Lowes Drive", "addr:unit": "101", "amenity": "restaurant", "cuisine": "japanese", "name": "New Japan", "phone": "+19195424380", "source:addr": "Chatham County GIS"}}, {"type": "node", "id": 2626207573, "lat": 35.7438715, "lon": -79.1652632, "tags": {"amenity": "restaurant", "name": "Carolina Brewery"}}, {"type": "node", "id": 2627547994, "lat": 35.7197247, "lon": -79.1779076, "tags": {"addr:city": "Pittsboro", "addr:housename": "The Modern Life Deli", "addr:housenumber": "46", "addr:postcode": "27312", "addr:state": "NC", "addr:street": "Sanford Road", "amenity": "restaurant", "name": "The Modern Life Deli", "opening_hours": "Mo-Th 10:30-02:30, Fr-Sa 10:30-02:30,05:30-10:30", "phone": "(919)-533-6883"}}, {"type": "node", "id": 2627547996, "lat": 35.7197334, "lon": -79.1695766, "tags": {"addr:city": "Pittsboro", "addr:housename": "Bella Donna Italian Restaurant", "addr:housenumber": "440", "addr:postcode": "27312", "addr:state": "NC", "addr:street": "East Street", "amenity": "restaurant", "cuisine": "mexican", "name": "Michoacan Mexican Grill", "opening_hours": "Mo-Th 11:00-21:00; Fr-Sa 11:00-22:00", "phone": "(919)-545-0900", "website": "https://belladonnaitalianrestaurant.com/"}}, {"type": "node", "id": 2627547997, "lat": 35.7185004, "lon": -79.1667217, "tags": {"addr:city": "Pittsboro", "addr:housename": "China Inn", "addr:housenumber": "630", "addr:postcode": "27312", "addr:state": "NC", "addr:street": "East Street", "addr:unit": "6", "amenity": "restaurant", "cuisine": "chinese", "name": "China Inn", "phone": "(919)-545-0259"}}, {"type": "node", "id": 2983235770, "lat": 35.7215299, "lon": -79.1772377}, {"type": "node", "id": 2983235771, "lat": 35.7215417, "lon": -79.1775776}, {"type": "node", "id": 2983235773, "lat": 35.721459, "lon": -79.1772549}, {"type": "node", "id": 2983235775, "lat": 35.7215361, "lon": -79.1777045}, {"type": "node", "id": 2983235778, "lat": 35.7214705, "lon": -79.1775855}, {"type": "node", "id": 2983235814, "lat": 35.7226798, "lon": -79.176775}, {"type": "node", "id": 2983235815, "lat": 35.7226742, "lon": -79.1766577}, {"type": "node", "id": 2983235816, "lat": 35.722638, "lon": -79.1766603}, {"type": "node", "id": 2983235817, "lat": 35.722632, "lon": -79.1765346}, {"type": "node", "id": 2983235818, "lat": 35.7225545, "lon": -79.1765402}, {"type": "node", "id": 2983235819, "lat": 35.7225567, "lon": -79.1765873}, {"type": "node", "id": 2983235820, "lat": 35.7225271, "lon": -79.1765894}, {"type": "node", "id": 2983235821, "lat": 35.7225313, "lon": -79.176676}, {"type": "node", "id": 2983235822, "lat": 35.7225135, "lon": -79.1766773}, {"type": "node", "id": 2983235823, "lat": 35.7225186, "lon": -79.1767866}, {"type": "node", "id": 4436480461, "lat": 35.7201651, "lon": -79.1596792, "tags": {"addr:city": "Pittsboro", "addr:housenumber": "987", "addr:postcode": "27312", "addr:state": "NC", "addr:street": "East Street", "addr:unit": "G", "amenity": "restaurant", "cuisine": "burger", "name": "Hwy 55", "opening_hours": "Su-Th 11:00-21:00;Fr-Sa 11:00-22:00", "phone": "+1 919 5421312", "source:addr": "Chatham County GIS", "website": "https://www.hwy55.com/locations/pittsboro"}}, {"type": "node", "id": 5729558807, "lat": 35.7201293, "lon": -79.1759258}, {"type": "node", "id": 5729558808, "lat": 35.7201276, "lon": -79.1758446}, {"type": "node", "id": 5729558809, "lat": 35.7199175, "lon": -79.1758543}, {"type": "node", "id": 5729558810, "lat": 35.7199204, "lon": -79.1759369}, {"type": "node", "id": 5729558813, "lat": 35.7200304, "lon": -79.1758484}, {"type": "node", "id": 5782651731, "lat": 35.7203377, "lon": -79.1872362, "tags": {"addr:city": "Pittsboro", "addr:housenumber": "535", "addr:postcode": "27312", "addr:state": "NC", "addr:street": "West Street", "amenity": "restaurant", "name": "Al's Diner", "phone": "+19195425800", "source:addr": "Chatham County GIS"}}, {"type": "node", "id": 5785396172, "lat": 35.7549321, "lon": -79.1653381, "tags": {"addr:city": "Pittsboro", "addr:housenumber": "35", "addr:postcode": "27312", "addr:state": "NC", "addr:street": "Suttles Road", "addr:unit": "A-100", "amenity": "cafe", "name": "The Root Cellar Cafe & Catering", "source:addr": "Chatham County GIS"}}, {"type": "node", "id": 5785396176, "lat": 35.7552099, "lon": -79.1643778, "tags": {"addr:city": "Pittsboro", "addr:housenumber": "114", "addr:postcode": "27312", "addr:state": "NC", "addr:street": "Russet Run", "addr:unit": "C-140", "amenity": "restaurant", "cuisine": "mexican", "name": "Mi Cancun", "phone": "+19195423858", "source:addr": "Chatham County GIS"}}, {"type": "node", "id": 5785406936, "lat": 35.7438096, "lon": -79.1634435, "tags": {"addr:city": "Pittsboro", "addr:housenumber": "193", "addr:postcode": "27312", "addr:state": "NC", "addr:street": "Lowes Drive", "addr:unit": "110", "amenity": "restaurant", "name": "Compadres Tequila Lounge", "phone": "(919) 704-8374", "source:addr": "Chatham County GIS"}}, {"type": "node", "id": 5785411127, "lat": 35.7205299, "lon": -79.1735487, "tags": {"addr:city": "Pittsboro", "addr:housenumber": "219", "addr:postcode": "27312", "addr:state": "NC", "addr:street": "East Street", "amenity": "restaurant", "name": "Small B&B Cafe", "phone": "+1-919-537-1909", "source:addr": "Chatham County GIS", "website": "https://www.smallmuseumfolkart.org/"}}, {"type": "node", "id": 5785411197, "lat": 35.7214499, "lon": -79.178457, "tags": {"addr:city": "Pittsboro", "addr:housenumber": "75", "addr:postcode": "27312", "addr:state": "NC", "addr:street": "West Salisbury Street", "amenity": "restaurant", "cuisine": "seafood", "name": "Postal Fish Company", "phone": "+19197048612", "source:addr": "Chatham County GIS"}}, {"type": "node", "id": 5785411884, "lat": 35.7267115, "lon": -79.1769849, "tags": {"addr:city": "Pittsboro", "addr:housenumber": "439", "addr:postcode": "27312", "addr:state": "NC", "addr:street": "Hillsboro Street", "amenity": "cafe", "name": "Davenport's Caf\u00e9 Diem", "phone": "+19197044239", "source:addr": "Chatham County GIS"}}, {"type": "node", "id": 5785413294, "lat": 35.7187178, "lon": -79.1785267, "tags": {"addr:city": "Pittsboro", "addr:housenumber": "122", "addr:postcode": "27312", "addr:state": "NC", "addr:street": "Sanford Road", "amenity": "restaurant", "cuisine": "pizza", "name": "John's Italian Pizza Restaurant", "phone": "+19195425027", "source:addr": "Chatham County GIS"}}, {"type": "node", "id": 5785414047, "lat": 35.718874, "lon": -79.1603889, "tags": {"addr:city": "Pittsboro", "addr:housenumber": "964", "addr:postcode": "27312", "addr:state": "NC", "addr:street": "East Street", "addr:unit": "102", "amenity": "restaurant", "cuisine": "greek", "name": "Greek Kouzina", "source:addr": "Chatham County GIS"}}, {"type": "node", "id": 5785417458, "lat": 35.7210604, "lon": -79.176946, "tags": {"addr:city": "Pittsboro", "addr:housenumber": "58", "addr:postcode": "27312", "addr:state": "NC", "addr:street": "Hillsboro Street", "amenity": "restaurant", "name": "Virlie's Grill", "phone": "+19195420376", "source:addr": "Chatham County GIS"}}, {"type": "node", "id": 5785417538, "lat": 35.721475, "lon": -79.1777079}, {"type": "node", "id": 5802003666, "lat": 35.7460288, "lon": -79.1668057}, {"type": "node", "id": 5802003667, "lat": 35.7459878, "lon": -79.166546}, {"type": "node", "id": 5802003668, "lat": 35.7460532, "lon": -79.1665303}, {"type": "node", "id": 5802003669, "lat": 35.7460942, "lon": -79.16679}, {"type": "node", "id": 8822516027, "lat": 35.7111284, "lon": -79.1571348}, {"type": "node", "id": 8822516028, "lat": 35.7111211, "lon": -79.1569573}, {"type": "node", "id": 8822516029, "lat": 35.7113106, "lon": -79.1569843}, {"type": "node", "id": 8822516030, "lat": 35.711312, "lon": -79.1572251}, {"type": "node", "id": 8822516031, "lat": 35.7111506, "lon": -79.1572291}, {"type": "node", "id": 8822516032, "lat": 35.7111542, "lon": -79.1571675}, {"type": "node", "id": 10537028076, "lat": 35.7567705, "lon": -79.1644216, "tags": {"addr:city": "Pittsboro", "addr:housenumber": "367", "addr:postcode": "27312", "addr:state": "NC", "addr:street": "Freedom Parkway", "amenity": "restaurant", "cuisine": "greek", "name": "Greek Kouzina", "phone": "+19195429950"}}, {"type": "node", "id": 11331136057, "lat": 35.7214939, "lon": -79.177273, "tags": {"addr:city": "Pittsboro", "addr:housenumber": "85", "addr:postcode": "27312", "addr:state": "NC", "addr:street": "Hillsboro Street", "amenity": "restaurant", "name": "S&T's Soda Shoppe", "opening_hours": "Tu-Sa 11:00-21:30", "phone": "919-545-0007", "website": "https://www.sandtsodashoppe.com/"}}, {"type": "way", "id": 294714841, "nodes": [2983235770, 2983235773, 2983235778, 5785417538, 2983235775, 2983235771, 2983235770], "tags": {"addr:city": "Pittsboro", "addr:housename": "S&T's Soda Shoppe", "addr:housenumber": "85", "addr:postcode": "27312", "addr:state": "NC", "addr:street": "Hillsboro Street", "amenity": "restaurant", "building": "yes", "name": "S&T's Soda Shoppe", "opening_hours": "Tu-Sa 11:00-07:30", "phone": "(919)-545-0007", "source:addr": "Chatham County GIS"}}, {"type": "way", "id": 294714863, "nodes": [2983235814, 2983235815, 2983235816, 2983235817, 2983235818, 2983235819, 2983235820, 2983235821, 2983235822, 2983235823, 2983235814], "tags": {"addr:city": "Pittsboro", "addr:housenumber": "160", "addr:postcode": "27312", "addr:state": "NC", "addr:street": "Hillsboro Street", "amenity": "restaurant", "building": "yes", "cuisine": "italian", "name": "Elizabeth's Pizza", "phone": "+1 919 545 9292", "source:addr": "Chatham County GIS", "website": "https://www.facebook.com/pages/Elizabeths-Pizza/120981774582120"}}, {"type": "way", "id": 603574437, "nodes": [5729558807, 5729558808, 5729558813, 5729558809, 5729558810, 5729558807], "tags": {"addr:city": "Pittsboro", "addr:housenumber": "90", "addr:postcode": "27312", "addr:state": "NC", "addr:street": "East Street", "amenity": "bar", "building": "yes", "name": "Red Moose Brewing Company", "phone": "+19195336409", "source:addr": "Chatham County GIS"}}, {"type": "way", "id": 613092256, "nodes": [5802003669, 5802003668, 5802003667, 5802003666, 5802003669], "tags": {"addr:city": "Pittsboro", "addr:housenumber": "65", "addr:postcode": "27312", "addr:state": "NC", "addr:street": "Lowes Drive", "amenity": "restaurant", "brand": "Waffle House", "brand:wikidata": "Q1701206", "building": "yes", "cuisine": "american", "name": "Waffle House", "opening_hours": "24/7", "phone": "(919) 542-5544", "source:addr": "Chatham County GIS"}}, {"type": "way", "id": 953187416, "nodes": [8822516027, 8822516028, 8822516029, 8822516030, 8822516031, 8822516032, 8822516027], "tags": {"addr:city": "Pittsboro", "addr:housenumber": "130", "addr:postcode": "27312", "addr:state": "NC", "addr:street": "Lorax Lane", "amenity": "restaurant", "building": "commercial", "name": "Starrlight Mead", "opening_hours": "12-6 pm", "phone": "+19195336314", "website": "https://www.starrlightmead.com/"}}]}