{"version": 0.6, "generator": "Overpass API 0.7.61.5 4133829e", "osm3s": {"timestamp_osm_base": "2024-03-01T17:05:28Z", "copyright": "The data included in this document is from www.openstreetmap.org. The data is made available under ODbL."}, "elements": [{"type": "node", "id": 702784474, "lat": 38.5786522, "lon": -109.5509417, "tags": {"addr:city": "Moab", "addr:housenumber": "497", "addr:postcode": "84532", "addr:state": "UT", "addr:street": "North Main Street", "amenity": "bicycle_rental", "name": "Poison Spider Bicycles", "phone": "+1-435-259-7882", "shop": "bicycle"}}, {"type": "node", "id": 804634082, "lat": 38.5883805, "lon": -109.5608814}, {"type": "node", "id": 804634083, "lat": 38.5883935, "lon": -109.5606575}, {"type": "node", "id": 804634084, "lat": 38.5881257, "lon": -109.5606641}, {"type": "node", "id": 804634085, "lat": 38.5881291, "lon": -109.5608876}, {"type": "node", "id": 889348300, "lat": 38.5800243, "lon": -109.5507226, "tags": {"name": "Tag-A-Long Expeditions", "shop": "travel_agency"}}, {"type": "node", "id": 916955231, "lat": 38.5622296, "lon": -109.5492632, "tags": {"addr:city": "Moab", "addr:housenumber": "702", "addr:street": "South Main Street", "name": "Village Market", "opening_hours": "Mo-Su 07:00-22:00", "shop": "supermarket"}}, {"type": "node", "id": 916955259, "lat": 38.5674727, "lon": -109.5425255, "tags": {"name": "Dave's Corner Market", "shop": "convenience"}}, {"type": "node", "id": 917068336, "lat": 38.5750186, "lon": -109.5500001, "tags": {"addr:city": "Moab", "addr:housenumber": "39", "addr:postcode": "84532", "addr:state": "UT", "addr:street": "East 100 North", "internet_access": "wlan", "name": "Moonflower Community Cooperative", "organic": "only", "phone": "+1-435-259-5712", "shop": "supermarket", "website": "https://moonflower.coop/"}}, {"type": "node", "id": 936401301, "lat": 38.5767045, "lon": -109.5511142, "tags": {"addr:housenumber": "211", "addr:street": "North Main", "name": "Canyon Voyages", "phone": "+1 435 259 6007", "shop": "outdoor"}}, {"type": "node", "id": 936466540, "lat": 38.5674141, "lon": -109.550424, "tags": {"amenity": "bicycle_rental", "name": "Moab Cyclery", "shop": "bicycle"}}, {"type": "node", "id": 1394182012, "lat": 38.5883802, "lon": -109.5608605}, {"type": "node", "id": 1394182245, "lat": 38.5884369, "lon": -109.5608591}, {"type": "node", "id": 1394182285, "lat": 38.5883946, "lon": -109.5607322}, {"type": "node", "id": 1394182358, "lat": 38.588435, "lon": -109.5607312}, {"type": "node", "id": 1437229306, "lat": 38.5673063, "lon": -109.5489527}, {"type": "node", "id": 1437229308, "lat": 38.5669436, "lon": -109.5489536}, {"type": "node", "id": 1437229309, "lat": 38.5669435, "lon": -109.5488319}, {"type": "node", "id": 1437229312, "lat": 38.5673072, "lon": -109.5495778}, {"type": "node", "id": 1437229319, "lat": 38.5667926, "lon": -109.5489176}, {"type": "node", "id": 1437229321, "lat": 38.5667572, "lon": -109.5496347}, {"type": "node", "id": 1437229322, "lat": 38.5667925, "lon": -109.5488323}, {"type": "node", "id": 1437229324, "lat": 38.5665869, "lon": -109.5489181}, {"type": "node", "id": 1437229326, "lat": 38.5667572, "lon": -109.549586}, {"type": "node", "id": 1437229328, "lat": 38.5665878, "lon": -109.5495864}, {"type": "node", "id": 1961683423, "lat": 38.5605812, "lon": -109.5464668}, {"type": "node", "id": 1961683432, "lat": 38.5607347, "lon": -109.5466238}, {"type": "node", "id": 1961683436, "lat": 38.5608096, "lon": -109.5461028}, {"type": "node", "id": 1961683453, "lat": 38.5609631, "lon": -109.5462608}, {"type": "node", "id": 1961683977, "lat": 38.5689286, "lon": -109.551599}, {"type": "node", "id": 1961683980, "lat": 38.5689286, "lon": -109.5519549}, {"type": "node", "id": 1961684000, "lat": 38.5692017, "lon": -109.5519549}, {"type": "node", "id": 1961684002, "lat": 38.5692017, "lon": -109.5520867}, {"type": "node", "id": 1961684051, "lat": 38.5694714, "lon": -109.5520867}, {"type": "node", "id": 1961684054, "lat": 38.5694714, "lon": -109.552223}, {"type": "node", "id": 1961684071, "lat": 38.5696638, "lon": -109.552223}, {"type": "node", "id": 1961684073, "lat": 38.5696827, "lon": -109.5516254}, {"type": "node", "id": 1961684076, "lat": 38.5696827, "lon": -109.5519242}, {"type": "node", "id": 1961684120, "lat": 38.5698424, "lon": -109.5516254}, {"type": "node", "id": 1961684629, "lat": 38.5766613, "lon": -109.5503155}, {"type": "node", "id": 1961684632, "lat": 38.5766622, "lon": -109.5504229}, {"type": "node", "id": 1961684634, "lat": 38.5768777, "lon": -109.5503125}, {"type": "node", "id": 1961684635, "lat": 38.5768789, "lon": -109.5504532}, {"type": "node", "id": 2028762832, "lat": 38.5699552, "lon": -109.5502793, "tags": {"name": "Moab Adventure Center", "shop": "travel_agency"}}, {"type": "node", "id": 2028762917, "lat": 38.5689963, "lon": -109.5500904}, {"type": "node", "id": 2028762919, "lat": 38.5690722, "lon": -109.5499933}, {"type": "node", "id": 2028762920, "lat": 38.5691912, "lon": -109.5503445}, {"type": "node", "id": 2028762922, "lat": 38.5692, "lon": -109.5500079}, {"type": "node", "id": 2028762923, "lat": 38.569238, "lon": -109.5500661}, {"type": "node", "id": 2028762925, "lat": 38.5692481, "lon": -109.5502846}, {"type": "node", "id": 2519758077, "lat": 38.5698424, "lon": -109.551924}, {"type": "node", "id": 3092279980, "lat": 38.564876, "lon": -109.5494687}, {"type": "node", "id": 3092279981, "lat": 38.564638, "lon": -109.5493958}, {"type": "node", "id": 3092279982, "lat": 38.564616, "lon": -109.5495135}, {"type": "node", "id": 3092279983, "lat": 38.5648539, "lon": -109.5495865}, {"type": "node", "id": 3092279994, "lat": 38.5586651, "lon": -109.5433249}, {"type": "node", "id": 3092279995, "lat": 38.5585717, "lon": -109.5434104}, {"type": "node", "id": 3092279996, "lat": 38.5584649, "lon": -109.5432196}, {"type": "node", "id": 3092279997, "lat": 38.5585583, "lon": -109.5431341}, {"type": "node", "id": 4209401790, "lat": 38.5721297, "lon": -109.551358}, {"type": "node", "id": 4209401791, "lat": 38.5721279, "lon": -109.5509899}, {"type": "node", "id": 4209401798, "lat": 38.5721298, "lon": -109.5513787}, {"type": "node", "id": 4209401799, "lat": 38.5720765, "lon": -109.5513791}, {"type": "node", "id": 4209401800, "lat": 38.5720746, "lon": -109.5509904}, {"type": "node", "id": 4209401801, "lat": 38.5720255, "lon": -109.5509908}, {"type": "node", "id": 4209401802, "lat": 38.5720269, "lon": -109.5512704}, {"type": "node", "id": 4209401803, "lat": 38.5720605, "lon": -109.5512701}, {"type": "node", "id": 4209401804, "lat": 38.5720601, "lon": -109.5511949}, {"type": "node", "id": 4209401805, "lat": 38.5720756, "lon": -109.5511948}, {"type": "node", "id": 4384194491, "lat": 38.5681688, "lon": -109.5563313, "tags": {"name": "Moab Raft and Canoe Company", "shop": "boat"}}, {"type": "node", "id": 4450561692, "lat": 38.5719527, "lon": -109.5514118, "tags": {"addr:street": "West 100 South", "name": "Wet Spot Laundry", "shop": "laundry"}}, {"type": "node", "id": 4522282690, "lat": 38.5608908, "lon": -109.5466111, "tags": {"addr:street": "Dogwood Avenue", "name": "Food Mart", "name:en": "Food Mart", "shop": "supermarket"}}, {"type": "node", "id": 4815499726, "lat": 38.5638425, "lon": -109.5512163, "tags": {"internet_access": "wlan", "internet_access:fee": "no", "shop": "laundry"}}, {"type": "node", "id": 4815518260, "lat": 38.5669831, "lon": -109.5496066, "tags": {"entrance": "main"}}, {"type": "node", "id": 4815518261, "lat": 38.566851, "lon": -109.5496345, "tags": {"entrance": "main"}}, {"type": "node", "id": 4815518262, "lat": 38.5667572, "lon": -109.5496066, "tags": {"entrance": "main"}}, {"type": "node", "id": 4815518263, "lat": 38.5669831, "lon": -109.5496342}, {"type": "node", "id": 4815518264, "lat": 38.566983, "lon": -109.5495785}, {"type": "node", "id": 5005410931, "lat": 38.5736143, "lon": -109.549594}, {"type": "node", "id": 5005410932, "lat": 38.5735996, "lon": -109.5495943}, {"type": "node", "id": 5005410933, "lat": 38.5736155, "lon": -109.5497142}, {"type": "node", "id": 5005410934, "lat": 38.5735977, "lon": -109.54941}, {"type": "node", "id": 5005410935, "lat": 38.5734122, "lon": -109.5494132}, {"type": "node", "id": 5005410936, "lat": 38.5734154, "lon": -109.5497176}, {"type": "node", "id": 5402615927, "lat": 38.562321, "lon": -109.5492276, "tags": {"name": "Chile Pepper", "shop": "bicycle"}}, {"type": "node", "id": 5555434722, "lat": 38.5676427, "lon": -109.5502743, "tags": {"name": "Moab Mail Center", "shop": "copyshop"}}, {"type": "node", "id": 5559135387, "lat": 38.5767202, "lon": -109.550422}, {"type": "node", "id": 5559135389, "lat": 38.5767657, "lon": -109.5504216}, {"type": "node", "id": 5559135390, "lat": 38.5767943, "lon": -109.5504544}, {"type": "node", "id": 6521414588, "lat": 38.5605316, "lon": -109.5462248}, {"type": "node", "id": 6521414589, "lat": 38.5606374, "lon": -109.5460558}, {"type": "node", "id": 6521414590, "lat": 38.5607599, "lon": -109.5461818}, {"type": "node", "id": 6521414591, "lat": 38.5606542, "lon": -109.5463508}, {"type": "node", "id": 6787247486, "lat": 38.5743137, "lon": -109.5509828, "tags": {"name": "Desert Dreams", "shop": "gift"}}, {"type": "node", "id": 6787247487, "lat": 38.5744594, "lon": -109.5509684, "tags": {"name": "Spa Moab", "shop": "massage"}}, {"type": "node", "id": 6787247488, "lat": 38.5738469, "lon": -109.550993, "tags": {"addr:city": "Moab", "addr:housenumber": "39", "addr:postcode": "84532", "addr:state": "UT", "addr:street": "North Main Street", "name": "Cowboys and Indians", "phone": "+1-435-259-3006", "shop": "gift"}}, {"type": "node", "id": 6787250785, "lat": 38.5741722, "lon": -109.5509891, "tags": {"name": "Raindance", "shop": "gift"}}, {"type": "node", "id": 6787250885, "lat": 38.5744046, "lon": -109.5509749, "tags": {"name": "Indian Alley", "shop": "clothes"}}, {"type": "node", "id": 6909348187, "lat": 38.5661527, "lon": -109.5501517, "tags": {"addr:city": "Moab", "addr:housenumber": "471", "addr:postcode": "84532", "addr:state": "UT", "addr:street": "South Highway 191", "internet_access": "wlan", "name": "Gearheads Outdoor Store", "name:en": "GearHeads Outdoor Store", "opening_hours": "Mo-Su 08:00-21:00", "payment:credit_cards": "yes", "payment:debit_cards": "yes", "phone": "+1-435-0259-4327", "shop": "outdoor", "website": "https://www.moabgear.com/", "wheelchair": "limited"}}, {"type": "node", "id": 7897082276, "lat": 38.576989, "lon": -109.5531377, "tags": {"name": "Turner Lumber", "operator": "Ace", "shop": "hardware"}}, {"type": "node", "id": 7900808002, "lat": 38.5740129, "lon": -109.55523, "tags": {"addr:city": "Moab", "addr:housenumber": "255", "addr:postcode": "84532", "addr:state": "UT", "addr:street": "West Williams Way", "fax": "+1 435 259 9196", "name": "Double Down Bike Shop", "service:bicycle:rental": "yes", "service:bicycle:repair": "yes", "service:bicycle:retail": "yes", "shop": "bicycle"}}, {"type": "node", "id": 8175781698, "lat": 38.5618717, "lon": -109.54938, "tags": {"addr:city": "Moab", "addr:housenumber": "702", "addr:street": "South Main Street", "brand": "Family Dollar", "brand:wikidata": "Q5433101", "name": "Family Dollar", "shop": "variety_store"}}, {"type": "node", "id": 8901945701, "lat": 38.5712899, "lon": -109.5476952, "tags": {"addr:housenumber": "160", "addr:street": "East 100 South", "name": "WabiSabi", "phone": "+1-435-259-3313", "shop": "second_hand", "website": "https://wabisabimoab.org/"}}, {"type": "node", "id": 8942069517, "lat": 38.5712998, "lon": -109.5476967, "tags": {"name": "Wabisabi Thrift Store", "shop": "clothes"}}, {"type": "node", "id": 8942069518, "lat": 38.5689631, "lon": -109.5510278}, {"type": "node", "id": 9978740565, "lat": 38.5750292, "lon": -109.5512558, "tags": {"name": "Moab Laundry Eypress", "shop": "laundry"}}, {"type": "node", "id": 9978830995, "lat": 38.5696638, "lon": -109.551599}, {"type": "node", "id": 9980821949, "lat": 38.5745556, "lon": -109.5509842, "tags": {"name": "ar\u2022tee\u2022sian", "shop": "boutique"}}, {"type": "node", "id": 10596469522, "lat": 38.5572191, "lon": -109.5400022}, {"type": "node", "id": 10596469523, "lat": 38.5572417, "lon": -109.540065}, {"type": "node", "id": 10596469524, "lat": 38.5569763, "lon": -109.5402217}, {"type": "node", "id": 10596469525, "lat": 38.5569536, "lon": -109.5401589}, {"type": "node", "id": 10596469526, "lat": 38.5567756, "lon": -109.5396504}, {"type": "node", "id": 10596469527, "lat": 38.5568275, "lon": -109.5396216}, {"type": "node", "id": 10596469528, "lat": 38.5569988, "lon": -109.5400929}, {"type": "node", "id": 10596469529, "lat": 38.5569435, "lon": -109.5401239}, {"type": "node", "id": 10596469530, "lat": 38.557094, "lon": -109.539969}, {"type": "node", "id": 10596469531, "lat": 38.5570283, "lon": -109.5400066}, {"type": "node", "id": 10596469532, "lat": 38.5568812, "lon": -109.5395973}, {"type": "node", "id": 10596469533, "lat": 38.5569417, "lon": -109.5395619}, {"type": "node", "id": 10596469534, "lat": 38.5571644, "lon": -109.5400042}, {"type": "node", "id": 10596469535, "lat": 38.55722, "lon": -109.5399719}, {"type": "node", "id": 10596469536, "lat": 38.5570498, "lon": -109.5394921}, {"type": "node", "id": 10596469537, "lat": 38.5569941, "lon": -109.5395245}, {"type": "node", "id": 10895127014, "lat": 38.5805294, "lon": -109.5518265}, {"type": "node", "id": 10895127015, "lat": 38.5805285, "lon": -109.551983}, {"type": "node", "id": 10895127016, "lat": 38.5803299, "lon": -109.551981}, {"type": "node", "id": 10895127017, "lat": 38.5803304, "lon": -109.5519032}, {"type": "node", "id": 10895127018, "lat": 38.5803613, "lon": -109.5519035}, {"type": "node", "id": 10895127019, "lat": 38.5803618, "lon": -109.5518249}, {"type": "node", "id": 10915422934, "lat": 38.5688668, "lon": -109.5513393}, {"type": "node", "id": 10915422935, "lat": 38.5688086, "lon": -109.5513388}, {"type": "node", "id": 10915422936, "lat": 38.5688087, "lon": -109.5513236}, {"type": "node", "id": 10915422937, "lat": 38.5687962, "lon": -109.5513235}, {"type": "node", "id": 10915422938, "lat": 38.5687981, "lon": -109.5509775}, {"type": "node", "id": 10915422939, "lat": 38.5689729, "lon": -109.550979}, {"type": "node", "id": 10915422940, "lat": 38.5689727, "lon": -109.5510279}, {"type": "node", "id": 10915422942, "lat": 38.5689615, "lon": -109.5513267}, {"type": "node", "id": 10915422943, "lat": 38.5688669, "lon": -109.5513258}, {"type": "way", "id": 66418210, "nodes": [804634082, 1394182012, 1394182245, 1394182358, 1394182285, 804634083, 804634084, 804634085, 804634082], "tags": {"addr:city": "Moab", "addr:housenumber": "989", "addr:postcode": "84532", "addr:state": "UT", "addr:street": "North Highway 191", "building": "yes", "shop": "vacant"}}, {"type": "way", "id": 130513620, "nodes": [1437229312, 4815518264, 4815518260, 4815518263, 4815518261, 1437229321, 4815518262, 1437229326, 1437229328, 1437229324, 1437229319, 1437229322, 1437229309, 1437229308, 1437229306, 1437229312], "tags": {"addr:city": "Moab", "addr:housenumber": "425", "addr:postcode": "84532", "addr:state": "UT", "addr:street": "South Main Street", "brand": "City Market", "brand:wikidata": "Q5123299", "building": "retail", "name": "City Market", "opening_hours": "Mo-Su 06:00-24:00", "phone": "+1-435-259-5181", "shop": "supermarket", "website": "https://www.citymarket.com/stores/details/620/00410", "wheelchair": "yes"}}, {"type": "way", "id": 185544365, "nodes": [1961684635, 1961684634, 1961684629, 1961684632, 5559135387, 5559135389, 5559135390, 1961684635], "tags": {"addr:city": "Moab", "addr:housenumber": "220", "addr:postcode": "84532", "addr:street": "North Main Street", "brand": "7-Eleven", "brand:wikidata": "Q259340", "building": "yes", "name": "7-Eleven", "shop": "convenience"}}, {"type": "way", "id": 185544387, "nodes": [2519758077, 1961684120, 1961684073, 1961684076, 2519758077], "tags": {"addr:city": "Moab", "addr:housenumber": "55", "addr:postcode": "84532", "addr:state": "UT", "addr:street": "West 200 South", "building": "yes", "drive_through": "no", "name": "State Liquor Store", "ref": "store 27", "shop": "alcohol"}}, {"type": "way", "id": 185544431, "nodes": [1961683432, 1961683453, 1961683436, 6521414590, 6521414589, 6521414588, 6521414591, 1961683423, 1961683432], "tags": {"brand": "Dollar General", "brand:wikidata": "Q145168", "building": "yes", "name": "Dollar General", "shop": "variety_store", "website": "https://www.dollargeneral.com/store-directory/ut/moab/10984"}}, {"type": "way", "id": 185544472, "nodes": [9978830995, 1961683977, 1961683980, 1961684000, 1961684002, 1961684051, 1961684054, 1961684071, 9978830995], "tags": {"building": "yes", "name": "Walker Drug & General Store", "opening_hours": "Mo-Sa 07:30-21:00; Su 09:00-18:00", "shop": "general"}}, {"type": "way", "id": 192315985, "nodes": [2028762920, 2028762925, 2028762923, 2028762922, 2028762919, 2028762917, 2028762920], "tags": {"addr:city": "Moab", "addr:housenumber": "299", "addr:postcode": "84532", "addr:state": "UT", "addr:street": "South Main Street", "brand": "7-Eleven", "brand:wikidata": "Q259340", "building": "yes", "building:levels": "1", "name": "7-Eleven", "shop": "convenience"}}, {"type": "way", "id": 304653451, "nodes": [3092279980, 3092279981, 3092279982, 3092279983, 3092279980], "tags": {"addr:city": "Moab", "addr:housenumber": "555", "addr:postcode": "84532", "addr:state": "UT", "addr:street": "South Main Street", "building": "yes", "building:levels": "1", "shop": "convenience"}}, {"type": "way", "id": 304653455, "nodes": [3092279994, 3092279995, 3092279996, 3092279997, 3092279994], "tags": {"addr:city": "Moab", "addr:housenumber": "985", "addr:postcode": "84532", "addr:state": "UT", "addr:street": "South Main Street", "brand": "Maverik", "brand:wikidata": "Q64149010", "building": "yes", "name": "Maverik", "shop": "convenience"}}, {"type": "way", "id": 421120469, "nodes": [4209401798, 4209401799, 4209401805, 4209401800, 4209401791, 4209401790, 4209401798], "tags": {"building": "retail", "name": "Pinyon Tree Gift Shop", "shop": "gift"}}, {"type": "way", "id": 421120470, "nodes": [4209401800, 4209401801, 4209401802, 4209401803, 4209401804, 4209401805, 4209401800], "tags": {"addr:city": "Moab", "addr:housenumber": "90", "addr:state": "UT", "addr:street": "South Main Street", "building": "commercial", "building:use": "retail", "contact:phone": "+1 435-259-7208", "contact:website": "http://anasazidesertgear.com/", "name": "Amasazi Desert Gear & Clothing", "opening_hours": "Mo-Su 09:00-22:00", "opening_hours:url": "http://anasazidesertgear.com/", "shop": "outdoor"}}, {"type": "way", "id": 511786543, "nodes": [5005410936, 5005410933, 5005410931, 5005410932, 5005410934, 5005410935, 5005410936], "tags": {"building": "yes", "name": "Scarlet Rox Salon and Lash Works", "shop": "hairdresser"}}, {"type": "way", "id": 1136730883, "nodes": [10596469522, 10596469523, 10596469524, 10596469525, 10596469522]}, {"type": "way", "id": 1136730884, "nodes": [10596469526, 10596469527, 10596469528, 10596469529, 10596469526]}, {"type": "way", "id": 1136730885, "nodes": [10596469530, 10596469531, 10596469532, 10596469533, 10596469530]}, {"type": "way", "id": 1136730886, "nodes": [10596469534, 10596469535, 10596469536, 10596469537, 10596469534]}, {"type": "way", "id": 1172636005, "nodes": [10895127014, 10895127015, 10895127016, 10895127017, 10895127018, 10895127019, 10895127014], "tags": {"addr:city": "Moab", "addr:housenumber": "435", "addr:postcode": "84532", "addr:state": "UT", "addr:street": "North Main Street", "building": "yes", "building:levels": "1", "shop": "convenience"}}, {"type": "way", "id": 1174692102, "nodes": [10915422943, 10915422942, 8942069518, 10915422940, 10915422939, 10915422938, 10915422937, 10915422936, 10915422935, 10915422934, 10915422943], "tags": {"building": "commercial", "building:levels": "1", "name": "Moab Gear Trader (New & Used Outdoor Gear & Clothing)", "shop": "sports"}}, {"type": "relation", "id": 15413931, "members": [{"type": "way", "ref": 1136730886, "role": "outer"}, {"type": "way", "ref": 1136730885, "role": "outer"}, {"type": "way", "ref": 1136730884, "role": "outer"}, {"type": "way", "ref": 1136730883, "role": "outer"}], "tags": {"building": "yes", "shop": "storage_rental", "type": "multipolygon"}}]}